HIERARCHY
ROOT hips
{
  OFFSET 0 10.432787522119774 1.3615615910897314
  CHANNELS 6 Xposition Yposition Zposition Yrotation Xrotation Zrotation
  JOINT spine
  {
    OFFSET -7.042016674e-31 0.605849736412771 0
    CHANNELS 3 Yrotation Xrotation Zrotation
    JOINT chest
    {
      OFFSET 0 1.2699780403367527 0
      CHANNELS 3 Yrotation Xrotation Zrotation
      JOINT upperChest
      {
        OFFSET 0 1.217802795781373 0
        CHANNELS 3 Yrotation Xrotation Zrotation
        JOINT neck
        {
          OFFSET 0 1.524881793055447 0
          CHANNELS 3 Yrotation Xrotation Zrotation
          JOINT head
          {
            OFFSET 0 0.8197776686196176 0
            CHANNELS 3 Yrotation Xrotation Zrotation
            JOINT leftEye
            {
              OFFSET 0.27991711184325396 0.7377279215890094 0.1770057770610815
              CHANNELS 3 Yrotation Xrotation Zrotation
              End Site
              {
                OFFSET 0.27991711184325396 0.7377279215890094 0.1770057770610815
              }
            }
            JOINT rightEye
            {
              OFFSET -0.27991715118228666 0.7377278742074458 0.1770060973723161
              CHANNELS 3 Yrotation Xrotation Zrotation
              End Site
              {
                OFFSET -0.27991715118228666 0.7377278742074458 0.1770060973723161
              }
            }
          }
        }
        JOINT leftShoulder
        {
          OFFSET 0.4148696499235711 1.1670497283493415 0
          CHANNELS 3 Yrotation Xrotation Zrotation
          JOINT leftUpperArm
          {
            OFFSET 0.9737923520503171 0 0
            CHANNELS 3 Yrotation Xrotation Zrotation
            JOINT leftLowerArm
            {
              OFFSET 2.526933563002016 0 0
              CHANNELS 3 Yrotation Xrotation Zrotation
              JOINT leftHand
              {
                OFFSET 2.4263767061081287 0 0
                CHANNELS 3 Yrotation Xrotation Zrotation
                JOINT leftIndexProximal
                {
                  OFFSET 0.7243194303238094 0.08170604153373495 0.2036005707489045
                  CHANNELS 3 Yrotation Xrotation Zrotation
                  JOINT leftIndexIntermediate
                  {
                    OFFSET 0.365490110639793 -0.010566615565509085 -0.014147873305413783
                    CHANNELS 3 Yrotation Xrotation Zrotation
                    JOINT leftIndexDistal
                    {
                      OFFSET 0.22502693978020916 -0.007863122621388996 -0.007567729919505994
                      CHANNELS 3 Yrotation Xrotation Zrotation
                      End Site
                      {
                        OFFSET 0.22502693978020916 -0.007863122621388996 -0.007567729919505994
                      }
                    }
                  }
                }
                JOINT leftLittleProximal
                {
                  OFFSET 0.6720313867214986 0.0817059792423902 -0.3230034999786495
                  CHANNELS 3 Yrotation Xrotation Zrotation
                  JOINT leftLittleIntermediate
                  {
                    OFFSET 0.3458364459000005 5.4765410650858826e-8 2.495506794542024e-7
                    CHANNELS 3 Yrotation Xrotation Zrotation
                    JOINT leftLittleDistal
                    {
                      OFFSET 0.19925722030351722 0.003096736260194355 0.0038306323169590983
                      CHANNELS 3 Yrotation Xrotation Zrotation
                      End Site
                      {
                        OFFSET 0.19925722030351722 0.003096736260194355 0.0038306323169590983
                      }
                    }
                  }
                }
                JOINT leftMiddleProximal
                {
                  OFFSET 0.7300446999180792 0.08170730820222194 0.0226618663244387
                  CHANNELS 3 Yrotation Xrotation Zrotation
                  JOINT leftMiddleIntermediate
                  {
                    OFFSET 0.40758107610000327 -0.0000012383582372876845 3.721937498757377e-7
                    CHANNELS 3 Yrotation Xrotation Zrotation
                    JOINT leftMiddleDistal
                    {
                      OFFSET 0.2514495697999991 7.561061998728746e-8 -1.6055895105115958e-7
                      CHANNELS 3 Yrotation Xrotation Zrotation
                      End Site
                      {
                        OFFSET 0.2514495697999991 7.561061998728746e-8 -1.6055895105115958e-7
                      }
                    }
                  }
                }
                JOINT leftRingProximal
                {
                  OFFSET 0.7217264995692599 0.08170598771388815 -0.1504338786787948
                  CHANNELS 3 Yrotation Xrotation Zrotation
                  JOINT leftRingIntermediate
                  {
                    OFFSET 0.3780872700000014 6.409956210262635e-8 3.723059401883333e-7
                    CHANNELS 3 Yrotation Xrotation Zrotation
                    JOINT leftRingDistal
                    {
                      OFFSET 0.21812031524459563 -0.00271347557699686 -0.004991351593452126
                      CHANNELS 3 Yrotation Xrotation Zrotation
                      End Site
                      {
                        OFFSET 0.21812031524459563 -0.00271347557699686 -0.004991351593452126
                      }
                    }
                  }
                }
                JOINT leftThumbProximal
                {
                  OFFSET 0.10793670302222891 -0.165278914300383 -0.07775358168875651
                  CHANNELS 3 Yrotation Xrotation Zrotation
                  JOINT leftThumbIntermediate
                  {
                    OFFSET 0.40355763830204994 -0.017484092948475194 0.31777731504028983
                    CHANNELS 3 Yrotation Xrotation Zrotation
                    JOINT leftThumbDistal
                    {
                      OFFSET 0.2318770514136803 -0.018507879151339335 0.21396002480314588
                      CHANNELS 3 Yrotation Xrotation Zrotation
                      End Site
                      {
                        OFFSET 0.2318770514136803 -0.018507879151339335 0.21396002480314588
                      }
                    }
                  }
                }
              }
            }
          }
        }
        JOINT rightShoulder
        {
          OFFSET -0.4148696499235712 1.1670497283493415 0
          CHANNELS 3 Yrotation Xrotation Zrotation
          JOINT rightUpperArm
          {
            OFFSET -0.9737923520503168 0 0
            CHANNELS 3 Yrotation Xrotation Zrotation
            JOINT rightLowerArm
            {
              OFFSET -2.5269335630020175 0 0
              CHANNELS 3 Yrotation Xrotation Zrotation
              JOINT rightHand
              {
                OFFSET -2.4263767061081274 0 0
                CHANNELS 3 Yrotation Xrotation Zrotation
                JOINT rightIndexProximal
                {
                  OFFSET -0.7243194303238094 0.08170604153373495 0.2036005707489045
                  CHANNELS 3 Yrotation Xrotation Zrotation
                  JOINT rightIndexIntermediate
                  {
                    OFFSET -0.365490110639793 -0.010566615565509085 -0.014147873305413783
                    CHANNELS 3 Yrotation Xrotation Zrotation
                    JOINT rightIndexDistal
                    {
                      OFFSET -0.22502693978020916 -0.007863122621388996 -0.007567729919505994
                      CHANNELS 3 Yrotation Xrotation Zrotation
                      End Site
                      {
                        OFFSET -0.22502693978020916 -0.007863122621388996 -0.007567729919505994
                      }
                    }
                  }
                }
                JOINT rightLittleProximal
                {
                  OFFSET -0.6720313867214986 0.0817059792423902 -0.3230034999786495
                  CHANNELS 3 Yrotation Xrotation Zrotation
                  JOINT rightLittleIntermediate
                  {
                    OFFSET -0.3458364459000005 5.4765410650858826e-8 2.495506794542024e-7
                    CHANNELS 3 Yrotation Xrotation Zrotation
                    JOINT rightLittleDistal
                    {
                      OFFSET -0.19925722030351722 0.003096736260194355 0.0038306323169590983
                      CHANNELS 3 Yrotation Xrotation Zrotation
                      End Site
                      {
                        OFFSET -0.19925722030351722 0.003096736260194355 0.0038306323169590983
                      }
                    }
                  }
                }
                JOINT rightMiddleProximal
                {
                  OFFSET -0.7300446999180792 0.08170730820222194 0.0226618663244387
                  CHANNELS 3 Yrotation Xrotation Zrotation
                  JOINT rightMiddleIntermediate
                  {
                    OFFSET -0.40758107610000327 -0.0000012383582372876845 3.721937498757377e-7
                    CHANNELS 3 Yrotation Xrotation Zrotation
                    JOINT rightMiddleDistal
                    {
                      OFFSET -0.2514495697999991 7.561061998728746e-8 -1.6055895105115958e-7
                      CHANNELS 3 Yrotation Xrotation Zrotation
                      End Site
                      {
                        OFFSET -0.2514495697999991 7.561061998728746e-8 -1.6055895105115958e-7
                      }
                    }
                  }
                }
                JOINT rightRingProximal
                {
                  OFFSET -0.7217264995692599 0.08170598771388815 -0.1504338786787948
                  CHANNELS 3 Yrotation Xrotation Zrotation
                  JOINT rightRingIntermediate
                  {
                    OFFSET -0.3780872700000014 6.409956210262635e-8 3.723059401883333e-7
                    CHANNELS 3 Yrotation Xrotation Zrotation
                    JOINT rightRingDistal
                    {
                      OFFSET -0.21812031524459563 -0.00271347557699686 -0.004991351593452126
                      CHANNELS 3 Yrotation Xrotation Zrotation
                      End Site
                      {
                        OFFSET -0.21812031524459563 -0.00271347557699686 -0.004991351593452126
                      }
                    }
                  }
                }
                JOINT rightThumbProximal
                {
                  OFFSET -0.10793670302222891 -0.165278914300383 -0.07775358168875651
                  CHANNELS 3 Yrotation Xrotation Zrotation
                  JOINT rightThumbIntermediate
                  {
                    OFFSET -0.40355763830204994 -0.017484092948475194 0.31777731504028983
                    CHANNELS 3 Yrotation Xrotation Zrotation
                    JOINT rightThumbDistal
                    {
                      OFFSET -0.2318770514136803 -0.018507879151339335 0.21396002480314588
                      CHANNELS 3 Yrotation Xrotation Zrotation
                      End Site
                      {
                        OFFSET -0.2318770514136803 -0.018507879151339335 0.21396002480314588
                      }
                    }
                  }
                }
              }
            }
          }
        }
      }
    }
  }
  JOINT leftUpperLeg
  {
    OFFSET 0.8486251400000001 -0.44215692923454897 0
    CHANNELS 3 Yrotation Xrotation Zrotation
    JOINT leftLowerLeg
    {
      OFFSET 0 -4.1014783730019015 0
      CHANNELS 3 Yrotation Xrotation Zrotation
      JOINT leftFoot
      {
        OFFSET -0.0002543926242001143 -4.7729227580453255 0.007402839656626761
        CHANNELS 3 Yrotation Xrotation Zrotation
        JOINT leftToes
        {
          OFFSET 0 -0.7027876860119923 1.2062921852216233
          CHANNELS 3 Yrotation Xrotation Zrotation
          End Site
          {
            OFFSET 0 -0.7027876860119923 1.2062921852216233
          }
        }
      }
    }
  }
  JOINT rightUpperLeg
  {
    OFFSET -0.8486251400000001 -0.44215692923454897 0
    CHANNELS 3 Yrotation Xrotation Zrotation
    JOINT rightLowerLeg
    {
      OFFSET 0 -4.1014783730019015 0
      CHANNELS 3 Yrotation Xrotation Zrotation
      JOINT rightFoot
      {
        OFFSET 0.0002543926242001143 -4.7729227580453255 0.007402839656626761
        CHANNELS 3 Yrotation Xrotation Zrotation
        JOINT rightToes
        {
          OFFSET 0 -0.7027876860119923 1.2062921852216233
          CHANNELS 3 Yrotation Xrotation Zrotation
          End Site
          {
            OFFSET 0 -0.7027876860119923 1.2062921852216233
          }
        }
      }
    }
  }
}
MOTION
Frames: 41
Frame Time: 0.03333333333333333
-0.127265 -4.165365 -0.29319 -6.243817 -9.446315 -4.507538 -1.469617 -8.189776 5.266172 -3.883335 -3.724661 13.255666 0 -2 0 0.393866 5.205426 -2.709111 4.108479 4.488029 -10.147712 0 0 0 0 0 0 2.436254 0.61155 -9.252674 -8.455646 -9.907351 -106.950106 -10.202414 -39.148114 -7.695861 -11.473749 0.68349 -3.43033 0.050398 -0.112372 -7.390756 2.685625 0.615552 -25.815582 1.726594 0.246685 -16.262007 4.025365 0.888167 -20.644447 -0.973583 0.840604 -30.562561 4.935749 2.467071 -53.095435 1.220418 0.121036 -11.511016 2.957645 0.755577 -28.655965 2.347142 0.464184 -22.37245 1.243028 0.065507 -15.880519 4.053898 1.519159 -41.074051 3.366919 1.000162 -33.081724 12.807951 2.333457 9.419525 20.415874 0.538605 9.69099 19.121726 3.983046 4.028004 5.45758 0.506649 12.688681 -5.989243 -3.431216 82.684338 8.153628 -38.975054 7.760273 -1.312914 -11.200975 2.954449 -0.168472 -0.109156 8.350031 -2.160859 0.386531 20.280957 -1.128944 0.103093 10.435347 -2.243145 0.36816 24.460303 -3.274174 0.928942 31.671551 -5.224896 2.828946 56.841654 -1.032635 0.085197 9.629588 -3.302605 0.946583 31.978723 -2.065078 0.360421 19.377809 -2.508611 0.554 18.813988 -3.848751 1.329492 38.101753 -3.838231 1.330336 38.036558 -8.288905 -3.703672 -6.074452 -23.144311 8.672824 -11.912 -12.785699 5.85213 -4.199655 21.811117 -85.200375 6.312541 -4.391717 88.1294 6.54643 1.020598 -4.504035 -8.527944 0.000006 -2.744247 -0.000009 -15.572211 -66.764132 12.82751 -8.099267 94.406871 -5.780553 -0.621799 -26.056274 -3.887817 -0.000003 -5.315938 0
-0.127265 -4.165365 -0.29319 -6.243817 -9.446315 -4.507538 -1.469617 -8.189776 5.266172 -3.883336 -3.722043 13.255665 -0.000001 -1.991362 -0.000001 0.39387 5.20018 -2.709108 4.1084 4.46226 -10.147693 0 0 0 0 0 0 2.436252 0.61155 -9.252675 -8.501291 -9.867136 -106.960955 -10.209628 -39.139827 -7.695729 -11.468612 0.676194 -3.436982 0.050398 -0.112372 -7.390756 2.685625 0.615552 -25.815582 1.726594 0.246685 -16.262007 4.025365 0.888167 -20.644447 -0.973583 0.840604 -30.562561 4.935749 2.467071 -53.095435 1.220418 0.121036 -11.511016 2.957645 0.755577 -28.655965 2.347142 0.464184 -22.37245 1.243028 0.065507 -15.880519 4.053898 1.519159 -41.074051 3.366919 1.000162 -33.081724 12.807951 2.333457 9.419525 20.415874 0.538605 9.69099 19.121726 3.983046 4.028004 5.457582 0.506649 12.688681 -5.972605 -3.422317 82.694079 8.158843 -38.974661 7.760275 -1.317832 -11.203375 2.960116 -0.168472 -0.109156 8.350031 -2.160859 0.386531 20.280957 -1.128944 0.103093 10.435347 -2.243145 0.36816 24.460303 -3.274174 0.928942 31.671551 -5.224896 2.828946 56.841654 -1.032635 0.085197 9.629588 -3.302605 0.946583 31.978723 -2.065078 0.360421 19.377809 -2.508611 0.554 18.813988 -3.848751 1.329492 38.101753 -3.838231 1.330336 38.036558 -8.288905 -3.703672 -6.074452 -23.144311 8.672824 -11.912 -12.785699 5.85213 -4.199655 21.811117 -85.200375 6.312541 -4.391717 88.1294 6.54643 1.020598 -4.504035 -8.527944 0.000006 -2.744247 -0.000009 -15.572211 -66.764132 12.82751 -8.099267 94.406871 -5.780553 -0.621799 -26.056274 -3.887817 -0.000003 -5.315938 0
-0.127265 -4.165365 -0.29319 -6.243817 -9.446315 -4.507538 -1.469617 -8.189776 5.266172 -3.883338 -3.715756 13.255663 -0.000003 -1.970611 -0.000003 0.39388 5.18761 -2.7091 4.108232 4.402128 -10.147649 0 0 0 0 0 0 2.436255 0.611548 -9.252675 -8.612479 -9.769038 -106.988466 -10.227089 -39.118145 -7.695337 -11.455546 0.657784 -3.453521 0.050398 -0.112372 -7.390756 2.685625 0.615552 -25.815582 1.726594 0.246685 -16.262007 4.025365 0.888167 -20.644447 -0.973583 0.840604 -30.562561 4.935749 2.467071 -53.095435 1.220418 0.121036 -11.511016 2.957645 0.755577 -28.655965 2.347142 0.464184 -22.37245 1.243028 0.065507 -15.880519 4.053898 1.519159 -41.074051 3.366919 1.000162 -33.081724 12.807951 2.333457 9.419525 20.415874 0.538605 9.69099 19.121726 3.983046 4.028004 5.457582 0.506647 12.688681 -5.932164 -3.400799 82.71801 8.171176 -38.97321 7.760243 -1.329934 -11.209416 2.974 -0.168472 -0.109156 8.350031 -2.160859 0.386531 20.280957 -1.128944 0.103093 10.435347 -2.243145 0.36816 24.460303 -3.274174 0.928942 31.671551 -5.224896 2.828946 56.841654 -1.032635 0.085197 9.629588 -3.302605 0.946583 31.978723 -2.065078 0.360421 19.377809 -2.508611 0.554 18.813988 -3.848751 1.329492 38.101753 -3.838231 1.330336 38.036558 -8.288905 -3.703672 -6.074452 -23.144311 8.672824 -11.912 -12.785699 5.85213 -4.199655 21.811117 -85.200375 6.312541 -4.391717 88.1294 6.54643 1.020598 -4.504035 -8.527944 0.000006 -2.744247 -0.000009 -15.572211 -66.764132 12.82751 -8.099267 94.406871 -5.780553 -0.621799 -26.056274 -3.887817 -0.000003 -5.315938 0
-0.127265 -4.165365 -0.29319 -6.243817 -9.446315 -4.507538 -1.469617 -8.189776 5.266172 -3.883342 -3.706673 13.25566 -0.000007 -1.94065 -0.000007 0.393895 5.169448 -2.709089 4.108022 4.317603 -10.147588 0 0 0 0 0 0 2.436254 0.61155 -9.252674 -8.774761 -9.625837 -107.030256 -10.252325 -39.084399 -7.694777 -11.435672 0.629913 -3.478278 0.050398 -0.112372 -7.390756 2.685625 0.615552 -25.815582 1.726594 0.246685 -16.262007 4.025365 0.888167 -20.644447 -0.973583 0.840604 -30.562561 4.935749 2.467071 -53.095435 1.220418 0.121036 -11.511016 2.957645 0.755577 -28.655965 2.347142 0.464184 -22.37245 1.243028 0.065507 -15.880519 4.053898 1.519159 -41.074051 3.366919 1.000162 -33.081724 12.807951 2.333457 9.419525 20.415874 0.538605 9.69099 19.121726 3.983046 4.028004 5.457576 0.506648 12.68868 -5.873623 -3.369864 82.753394 8.189103 -38.970341 7.760199 -1.34793 -11.218508 2.994313 -0.168472 -0.109156 8.350031 -2.160859 0.386531 20.280957 -1.128944 0.103093 10.435347 -2.243145 0.36816 24.460303 -3.274174 0.928942 31.671551 -5.224896 2.828946 56.841654 -1.032635 0.085197 9.629588 -3.302605 0.946583 31.978723 -2.065078 0.360421 19.377809 -2.508611 0.554 18.813988 -3.848751 1.329492 38.101753 -3.838231 1.330336 38.036558 -8.288905 -3.703672 -6.074452 -23.144311 8.672824 -11.912 -12.785699 5.85213 -4.199655 21.811117 -85.200375 6.312541 -4.391717 88.1294 6.54643 1.020598 -4.504035 -8.527944 0.000006 -2.744247 -0.000009 -15.572211 -66.764132 12.82751 -8.099267 94.406871 -5.780553 -0.621799 -26.056274 -3.887817 -0.000003 -5.315938 0
-0.127265 -4.165365 -0.29319 -6.243817 -9.446315 -4.507538 -1.469617 -8.189776 5.266172 -3.883346 -3.695409 13.255655 -0.000011 -1.903515 -0.000012 0.393913 5.146938 -2.709075 4.107813 4.215254 -10.147511 0 0 0 0 0 0 2.436256 0.611547 -9.252672 -8.97678 -9.447629 -107.08451 -10.283708 -39.039852 -7.694011 -11.409885 0.593954 -3.509939 0.050398 -0.112372 -7.390756 2.685625 0.615552 -25.815582 1.726594 0.246685 -16.262007 4.025365 0.888167 -20.644447 -0.973583 0.840604 -30.562561 4.935749 2.467071 -53.095435 1.220418 0.121036 -11.511016 2.957645 0.755577 -28.655965 2.347142 0.464184 -22.37245 1.243028 0.065507 -15.880519 4.053898 1.519159 -41.074051 3.366919 1.000162 -33.081724 12.807951 2.333457 9.419525 20.415874 0.538605 9.69099 19.121726 3.983046 4.028004 5.457576 0.50665 12.68868 -5.800965 -3.331786 82.79816 8.211356 -38.965951 7.760141 -1.370778 -11.230162 3.01982 -0.168472 -0.109156 8.350031 -2.160859 0.386531 20.280957 -1.128944 0.103093 10.435347 -2.243145 0.36816 24.460303 -3.274174 0.928942 31.671551 -5.224896 2.828946 56.841654 -1.032635 0.085197 9.629588 -3.302605 0.946583 31.978723 -2.065078 0.360421 19.377809 -2.508611 0.554 18.813988 -3.848751 1.329492 38.101753 -3.838231 1.330336 38.036558 -8.288905 -3.703672 -6.074452 -23.144311 8.672824 -11.912 -12.785699 5.85213 -4.199655 21.811117 -85.200375 6.312541 -4.391717 88.1294 6.54643 1.020598 -4.504035 -8.527944 0.000006 -2.744247 -0.000009 -15.572211 -66.764132 12.82751 -8.099267 94.406871 -5.780553 -0.621799 -26.056274 -3.887817 -0.000003 -5.315938 0
-0.127265 -4.165365 -0.29319 -6.243817 -9.446315 -4.507538 -1.469617 -8.189776 5.266172 -3.88335 -3.682224 13.255651 -0.000016 -1.859945 -0.000017 0.393934 5.120536 -2.709059 4.107639 4.098157 -10.147423 0 0 0 0 0 0 2.436255 0.611548 -9.252674 -9.214273 -9.238368 -107.151081 -10.320484 -38.984518 -7.69306 -11.378297 0.550151 -3.548303 0.050398 -0.112372 -7.390756 2.685625 0.615552 -25.815582 1.726594 0.246685 -16.262007 4.025365 0.888167 -20.644447 -0.973583 0.840604 -30.562561 4.935749 2.467071 -53.095435 1.220418 0.121036 -11.511016 2.957645 0.755577 -28.655965 2.347142 0.464184 -22.37245 1.243028 0.065507 -15.880519 4.053898 1.519159 -41.074051 3.366919 1.000162 -33.081724 12.807951 2.333457 9.419525 20.415874 0.538605 9.69099 19.121726 3.983046 4.028004 5.457582 0.506648 12.688684 -5.715942 -3.287685 82.851802 8.237598 -38.959809 7.760038 -1.398275 -11.244245 3.05011 -0.168472 -0.109156 8.350031 -2.160859 0.386531 20.280957 -1.128944 0.103093 10.435347 -2.243145 0.36816 24.460303 -3.274174 0.928942 31.671551 -5.224896 2.828946 56.841654 -1.032635 0.085197 9.629588 -3.302605 0.946583 31.978723 -2.065078 0.360421 19.377809 -2.508611 0.554 18.813988 -3.848751 1.329492 38.101753 -3.838231 1.330336 38.036558 -8.288905 -3.703672 -6.074452 -23.144311 8.672824 -11.912 -12.785699 5.85213 -4.199655 21.811117 -85.200375 6.312541 -4.391717 88.1294 6.54643 1.020598 -4.504035 -8.527944 0.000006 -2.744247 -0.000009 -15.572211 -66.764132 12.82751 -8.099267 94.406871 -5.780553 -0.621799 -26.056274 -3.887817 -0.000003 -5.315938 0
-0.127265 -4.165365 -0.29319 -6.243817 -9.446315 -4.507538 -1.469617 -8.189776 5.266172 -3.883355 -3.667741 13.255645 -0.000021 -1.812152 -0.000024 0.393957 5.091569 -2.709041 4.107522 3.972297 -10.147327 0 0 0 0 0 0 2.436254 0.611547 -9.252672 -9.473116 -9.010703 -107.226625 -10.360916 -38.921404 -7.691994 -11.342567 0.500834 -3.591385 0.050398 -0.112372 -7.390756 2.685625 0.615552 -25.815582 1.726594 0.246685 -16.262007 4.025365 0.888167 -20.644447 -0.973583 0.840604 -30.562561 4.935749 2.467071 -53.095435 1.220418 0.121036 -11.511016 2.957645 0.755577 -28.655965 2.347142 0.464184 -22.37245 1.243028 0.065507 -15.880519 4.053898 1.519159 -41.074051 3.366919 1.000162 -33.081724 12.807951 2.333457 9.419525 20.415874 0.538605 9.69099 19.121726 3.983046 4.028004 5.457579 0.506649 12.688681 -5.622852 -3.239844 82.911597 8.26642 -38.952307 7.759927 -1.429002 -11.260007 3.083682 -0.168472 -0.109156 8.350031 -2.160859 0.386531 20.280957 -1.128944 0.103093 10.435347 -2.243145 0.36816 24.460303 -3.274174 0.928942 31.671551 -5.224896 2.828946 56.841654 -1.032635 0.085197 9.629588 -3.302605 0.946583 31.978723 -2.065078 0.360421 19.377809 -2.508611 0.554 18.813988 -3.848751 1.329492 38.101753 -3.838231 1.330336 38.036558 -8.288905 -3.703672 -6.074452 -23.144311 8.672824 -11.912 -12.785699 5.85213 -4.199655 21.811117 -85.200375 6.312541 -4.391717 88.1294 6.54643 1.020598 -4.504035 -8.527944 0.000006 -2.744247 -0.000009 -15.572211 -66.764132 12.82751 -8.099267 94.406871 -5.780553 -0.621799 -26.056274 -3.887817 -0.000003 -5.315938 0
-0.127265 -4.165365 -0.29319 -6.243817 -9.446315 -4.507538 -1.469617 -8.189776 5.266172 -3.883361 -3.652234 13.255639 -0.000027 -1.760999 -0.00003 0.393982 5.060562 -2.709021 4.107473 3.840362 -10.147226 0 0 0 0 0 0 2.436254 0.611548 -9.252677 -9.747259 -8.770196 -107.309881 -10.4043 -38.851786 -7.690804 -11.303362 0.446982 -3.638425 0.050398 -0.112372 -7.390756 2.685625 0.615552 -25.815582 1.726594 0.246685 -16.262007 4.025365 0.888167 -20.644447 -0.973583 0.840604 -30.562561 4.935749 2.467071 -53.095435 1.220418 0.121036 -11.511016 2.957645 0.755577 -28.655965 2.347142 0.464184 -22.37245 1.243028 0.065507 -15.880519 4.053898 1.519159 -41.074051 3.366919 1.000162 -33.081724 12.807951 2.333457 9.419525 20.415874 0.538605 9.69099 19.121726 3.983046 4.028004 5.457579 0.506649 12.688681 -5.523688 -3.189401 82.976502 8.297399 -38.943623 7.759785 -1.462437 -11.277106 3.11988 -0.168472 -0.109156 8.350031 -2.160859 0.386531 20.280957 -1.128944 0.103093 10.435347 -2.243145 0.36816 24.460303 -3.274174 0.928942 31.671551 -5.224896 2.828946 56.841654 -1.032635 0.085197 9.629588 -3.302605 0.946583 31.978723 -2.065078 0.360421 19.377809 -2.508611 0.554 18.813988 -3.848751 1.329492 38.101753 -3.838231 1.330336 38.036558 -8.288905 -3.703672 -6.074452 -23.144311 8.672824 -11.912 -12.785699 5.85213 -4.199655 21.811117 -85.200375 6.312541 -4.391717 88.1294 6.54643 1.020598 -4.504035 -8.527944 0.000006 -2.744247 -0.000009 -15.572211 -66.764132 12.82751 -8.099267 94.406871 -5.780553 -0.621799 -26.056274 -3.887817 -0.000003 -5.315938 0
-0.127265 -4.165365 -0.29319 -6.243817 -9.446315 -4.507538 -1.469617 -8.189776 5.266172 -3.883366 -3.635933 13.255633 -0.000033 -1.707201 -0.000037 0.394008 5.02797 -2.709001 4.107498 3.70468 -10.147123 0 0 0 0 0 0 2.436253 0.61155 -9.252675 -10.031424 -8.521618 -107.399541 -10.449985 -38.776968 -7.689543 -11.261359 0.389521 -3.688721 0.050398 -0.112372 -7.390756 2.685625 0.615552 -25.815582 1.726594 0.246685 -16.262007 4.025365 0.888167 -20.644447 -0.973583 0.840604 -30.562561 4.935749 2.467071 -53.095435 1.220418 0.121036 -11.511016 2.957645 0.755577 -28.655965 2.347142 0.464184 -22.37245 1.243028 0.065507 -15.880519 4.053898 1.519159 -41.074051 3.366919 1.000162 -33.081724 12.807951 2.333457 9.419525 20.415874 0.538605 9.69099 19.121726 3.983046 4.028004 5.457585 0.506646 12.688681 -5.420118 -3.13728 83.04553 8.330107 -38.933957 7.759639 -1.498069 -11.29524 3.15817 -0.168472 -0.109156 8.350031 -2.160859 0.386531 20.280957 -1.128944 0.103093 10.435347 -2.243145 0.36816 24.460303 -3.274174 0.928942 31.671551 -5.224896 2.828946 56.841654 -1.032635 0.085197 9.629588 -3.302605 0.946583 31.978723 -2.065078 0.360421 19.377809 -2.508611 0.554 18.813988 -3.848751 1.329492 38.101753 -3.838231 1.330336 38.036558 -8.288905 -3.703672 -6.074452 -23.144311 8.672824 -11.912 -12.785699 5.85213 -4.199655 21.811117 -85.200375 6.312541 -4.391717 88.1294 6.54643 1.020598 -4.504035 -8.527944 0.000006 -2.744247 -0.000009 -15.572211 -66.764132 12.82751 -8.099267 94.406871 -5.780553 -0.621799 -26.056274 -3.887817 -0.000003 -5.315938 0
-0.127265 -4.165365 -0.29319 -6.243817 -9.446315 -4.507538 -1.469617 -8.189776 5.266172 -3.883371 -3.618953 13.255626 -0.000039 -1.651171 -0.000045 0.394035 4.994007 -2.70898 4.107615 3.567528 -10.147019 0 0 0 0 0 0 2.436251 0.611548 -9.252676 -10.322607 -8.267797 -107.494936 -10.497682 -38.697757 -7.688173 -11.216885 0.329025 -3.741876 0.050398 -0.112372 -7.390756 2.685625 0.615552 -25.815582 1.726594 0.246685 -16.262007 4.025365 0.888167 -20.644447 -0.973583 0.840604 -30.562561 4.935749 2.467071 -53.095435 1.220418 0.121036 -11.511016 2.957645 0.755577 -28.655965 2.347142 0.464184 -22.37245 1.243028 0.065507 -15.880519 4.053898 1.519159 -41.074051 3.366919 1.000162 -33.081724 12.807951 2.333457 9.419525 20.415874 0.538605 9.69099 19.121726 3.983046 4.028004 5.457579 0.506646 12.688682 -5.312968 -3.083943 83.118173 8.364236 -38.923472 7.759479 -1.535628 -11.314197 3.1983 -0.168472 -0.109156 8.350031 -2.160859 0.386531 20.280957 -1.128944 0.103093 10.435347 -2.243145 0.36816 24.460303 -3.274174 0.928942 31.671551 -5.224896 2.828946 56.841654 -1.032635 0.085197 9.629588 -3.302605 0.946583 31.978723 -2.065078 0.360421 19.377809 -2.508611 0.554 18.813988 -3.848751 1.329492 38.101753 -3.838231 1.330336 38.036558 -8.288905 -3.703672 -6.074452 -23.144311 8.672824 -11.912 -12.785699 5.85213 -4.199655 21.811117 -85.200375 6.312541 -4.391717 88.1294 6.54643 1.020598 -4.504035 -8.527944 0.000006 -2.744247 -0.000009 -15.572211 -66.764132 12.82751 -8.099267 94.406871 -5.780553 -0.621799 -26.056274 -3.887817 -0.000003 -5.315938 0
-0.127265 -4.165365 -0.29319 -6.243817 -9.446315 -4.507538 -1.469617 -8.189776 5.266172 -3.883377 -3.601577 13.25562 -0.000044 -1.593834 -0.000053 0.394063 4.959252 -2.708958 4.107802 3.431479 -10.146918 0 0 0 0 0 0 2.436254 0.611549 -9.252675 -10.614458 -8.014396 -107.593919 -10.546579 -38.616218 -7.686786 -11.171011 0.266887 -3.796769 0.050398 -0.112372 -7.390756 2.685625 0.615552 -25.815582 1.726594 0.246685 -16.262007 4.025365 0.888167 -20.644447 -0.973583 0.840604 -30.562561 4.935749 2.467071 -53.095435 1.220418 0.121036 -11.511016 2.957645 0.755577 -28.655965 2.347142 0.464184 -22.37245 1.243028 0.065507 -15.880519 4.053898 1.519159 -41.074051 3.366919 1.000162 -33.081724 12.807951 2.333457 9.419525 20.415874 0.538605 9.69099 19.121726 3.983046 4.028004 5.457578 0.506646 12.688683 -5.20434 -3.030474 83.193005 8.399346 -38.912551 7.75931 -1.574381 -11.333523 3.239456 -0.168472 -0.109156 8.350031 -2.160859 0.386531 20.280957 -1.128944 0.103093 10.435347 -2.243145 0.36816 24.460303 -3.274174 0.928942 31.671551 -5.224896 2.828946 56.841654 -1.032635 0.085197 9.629588 -3.302605 0.946583 31.978723 -2.065078 0.360421 19.377809 -2.508611 0.554 18.813988 -3.848751 1.329492 38.101753 -3.838231 1.330336 38.036558 -8.288905 -3.703672 -6.074452 -23.144311 8.672824 -11.912 -12.785699 5.85213 -4.199655 21.811117 -85.200375 6.312541 -4.391717 88.1294 6.54643 1.020598 -4.504035 -8.527944 0.000006 -2.744247 -0.000009 -15.572211 -66.764132 12.82751 -8.099267 94.406871 -5.780553 -0.621799 -26.056274 -3.887817 -0.000003 -5.315938 0
-0.127265 -4.165365 -0.29319 -6.243817 -9.446315 -4.507538 -1.469617 -8.189776 5.266172 -3.883383 -3.583961 13.255613 -0.00005 -1.535689 -0.000061 0.39409 4.924018 -2.708935 4.108052 3.298721 -10.14682 0 0 0 0 0 0 2.436254 0.61155 -9.252674 -10.903659 -7.764354 -107.695247 -10.596237 -38.533561 -7.685384 -11.124341 0.203922 -3.852771 0.050398 -0.112372 -7.390756 2.685625 0.615552 -25.815582 1.726594 0.246685 -16.262007 4.025365 0.888167 -20.644447 -0.973583 0.840604 -30.562561 4.935749 2.467071 -53.095435 1.220418 0.121036 -11.511016 2.957645 0.755577 -28.655965 2.347142 0.464184 -22.37245 1.243028 0.065507 -15.880519 4.053898 1.519159 -41.074051 3.366919 1.000162 -33.081724 12.807951 2.333457 9.419525 20.415874 0.538605 9.69099 19.121726 3.983046 4.028004 5.457581 0.506649 12.688681 -5.095276 -2.977363 83.269247 8.435096 -38.901442 7.759131 -1.613895 -11.352978 3.281255 -0.168472 -0.109156 8.350031 -2.160859 0.386531 20.280957 -1.128944 0.103093 10.435347 -2.243145 0.36816 24.460303 -3.274174 0.928942 31.671551 -5.224896 2.828946 56.841654 -1.032635 0.085197 9.629588 -3.302605 0.946583 31.978723 -2.065078 0.360421 19.377809 -2.508611 0.554 18.813988 -3.848751 1.329492 38.101753 -3.838231 1.330336 38.036558 -8.288905 -3.703672 -6.074452 -23.144311 8.672824 -11.912 -12.785699 5.85213 -4.199655 21.811117 -85.200375 6.312541 -4.391717 88.1294 6.54643 1.020598 -4.504035 -8.527944 0.000006 -2.744247 -0.000009 -15.572211 -66.764132 12.82751 -8.099267 94.406871 -5.780553 -0.621799 -26.056274 -3.887817 -0.000003 -5.315938 0
-0.127265 -4.165365 -0.29319 -6.243817 -9.446315 -4.507538 -1.469617 -8.189776 5.266172 -3.883389 -3.566235 13.255606 -0.000055 -1.477212 -0.00007 0.394118 4.888582 -2.708913 4.108352 3.171688 -10.146729 0 0 0 0 0 0 2.436254 0.611549 -9.252676 -11.187392 -7.520174 -107.797705 -10.64627 -38.451004 -7.683992 -11.077453 0.140927 -3.90924 0.050398 -0.112372 -7.390756 2.685625 0.615552 -25.815582 1.726594 0.246685 -16.262007 4.025365 0.888167 -20.644447 -0.973583 0.840604 -30.562561 4.935749 2.467071 -53.095435 1.220418 0.121036 -11.511016 2.957645 0.755577 -28.655965 2.347142 0.464184 -22.37245 1.243028 0.065507 -15.880519 4.053898 1.519159 -41.074051 3.366919 1.000162 -33.081724 12.807951 2.333457 9.419525 20.415874 0.538605 9.69099 19.121726 3.983046 4.028004 5.457582 0.506646 12.688685 -4.986746 -2.925078 83.346099 8.471157 -38.890437 7.758971 -1.653731 -11.372321 3.323287 -0.168472 -0.109156 8.350031 -2.160859 0.386531 20.280957 -1.128944 0.103093 10.435347 -2.243145 0.36816 24.460303 -3.274174 0.928942 31.671551 -5.224896 2.828946 56.841654 -1.032635 0.085197 9.629588 -3.302605 0.946583 31.978723 -2.065078 0.360421 19.377809 -2.508611 0.554 18.813988 -3.848751 1.329492 38.101753 -3.838231 1.330336 38.036558 -8.288905 -3.703672 -6.074452 -23.144311 8.672824 -11.912 -12.785699 5.85213 -4.199655 21.811117 -85.200375 6.312541 -4.391717 88.1294 6.54643 1.020598 -4.504035 -8.527944 0.000006 -2.744247 -0.000009 -15.572211 -66.764132 12.82751 -8.099267 94.406871 -5.780553 -0.621799 -26.056274 -3.887817 -0.000003 -5.315938 0
-0.127265 -4.165365 -0.29319 -6.243817 -9.446315 -4.507538 -1.469617 -8.189776 5.266172 -3.883395 -3.548597 13.255599 -0.00006 -1.418962 -0.000079 0.394147 4.853269 -2.708891 4.108676 3.055299 -10.146648 0 0 0 0 0 0 2.436256 0.611544 -9.252675 -11.462415 -7.284652 -107.899709 -10.696276 -38.370105 -7.682601 -11.031066 0.078941 -3.965371 0.050398 -0.112372 -7.390756 2.685625 0.615552 -25.815582 1.726594 0.246685 -16.262007 4.025365 0.888167 -20.644447 -0.973583 0.840604 -30.562561 4.935749 2.467071 -53.095435 1.220418 0.121036 -11.511016 2.957645 0.755577 -28.655965 2.347142 0.464184 -22.37245 1.243028 0.065507 -15.880519 4.053898 1.519159 -41.074051 3.366919 1.000162 -33.081724 12.807951 2.333457 9.419525 20.415874 0.538605 9.69099 19.121726 3.983046 4.028004 5.457581 0.506646 12.688683 -4.87996 -2.874153 83.422591 8.50721 -38.87986 7.758801 -1.693417 -11.391189 3.36506 -0.168472 -0.109156 8.350031 -2.160859 0.386531 20.280957 -1.128944 0.103093 10.435347 -2.243145 0.36816 24.460303 -3.274174 0.928942 31.671551 -5.224896 2.828946 56.841654 -1.032635 0.085197 9.629588 -3.302605 0.946583 31.978723 -2.065078 0.360421 19.377809 -2.508611 0.554 18.813988 -3.848751 1.329492 38.101753 -3.838231 1.330336 38.036558 -8.288905 -3.703672 -6.074452 -23.144311 8.672824 -11.912 -12.785699 5.85213 -4.199655 21.811117 -85.200375 6.312541 -4.391717 88.1294 6.54643 1.020598 -4.504035 -8.527944 0.000006 -2.744247 -0.000009 -15.572211 -66.764132 12.82751 -8.099267 94.406871 -5.780553 -0.621799 -26.056274 -3.887817 -0.000003 -5.315938 0
-0.127265 -4.165365 -0.29319 -6.243817 -9.446315 -4.507538 -1.469617 -8.189776 5.266172 -3.8834 -3.53117 13.255592 -0.000065 -1.361452 -0.000087 0.394174 4.81842 -2.708868 4.108983 2.952422 -10.146577 0 0 0 0 0 0 2.436256 0.61154 -9.252673 -11.726504 -7.059615 -107.999885 -10.745669 -38.292028 -7.681274 -10.985832 0.018698 -4.020509 0.050398 -0.112372 -7.390756 2.685625 0.615552 -25.815582 1.726594 0.246685 -16.262007 4.025365 0.888167 -20.644447 -0.973583 0.840604 -30.562561 4.935749 2.467071 -53.095435 1.220418 0.121036 -11.511016 2.957645 0.755577 -28.655965 2.347142 0.464184 -22.37245 1.243028 0.065507 -15.880519 4.053898 1.519159 -41.074051 3.366919 1.000162 -33.081724 12.807951 2.333457 9.419525 20.415874 0.538605 9.69099 19.121726 3.983046 4.028004 5.45758 0.506645 12.688684 -4.775829 -2.824978 83.497919 8.542918 -38.869949 7.758648 -1.732462 -11.409395 3.406162 -0.168472 -0.109156 8.350031 -2.160859 0.386531 20.280957 -1.128944 0.103093 10.435347 -2.243145 0.36816 24.460303 -3.274174 0.928942 31.671551 -5.224896 2.828946 56.841654 -1.032635 0.085197 9.629588 -3.302605 0.946583 31.978723 -2.065078 0.360421 19.377809 -2.508611 0.554 18.813988 -3.848751 1.329492 38.101753 -3.838231 1.330336 38.036558 -8.288905 -3.703672 -6.074452 -23.144311 8.672824 -11.912 -12.785699 5.85213 -4.199655 21.811117 -85.200375 6.312541 -4.391717 88.1294 6.54643 1.020598 -4.504035 -8.527944 0.000006 -2.744247 -0.000009 -15.572211 -66.764132 12.82751 -8.099267 94.406871 -5.780553 -0.621799 -26.056274 -3.887817 -0.000003 -5.315938 0
-0.127265 -4.165365 -0.29319 -6.243817 -9.446315 -4.507538 -1.469617 -8.189776 5.266172 -3.883406 -3.514109 13.255585 -0.00007 -1.30518 -0.000096 0.394201 4.784319 -2.708847 4.109231 2.868615 -10.14652 0 0 0 0 0 0 2.436254 0.611541 -9.252672 -11.977413 -6.846923 -108.096958 -10.794084 -38.21788 -7.68002 -10.942332 -0.039017 -4.073964 0.050398 -0.112372 -7.390756 2.685625 0.615552 -25.815582 1.726594 0.246685 -16.262007 4.025365 0.888167 -20.644447 -0.973583 0.840604 -30.562561 4.935749 2.467071 -53.095435 1.220418 0.121036 -11.511016 2.957645 0.755577 -28.655965 2.347142 0.464184 -22.37245 1.243028 0.065507 -15.880519 4.053898 1.519159 -41.074051 3.366919 1.000162 -33.081724 12.807951 2.333457 9.419525 20.415874 0.538605 9.69099 19.121726 3.983046 4.028004 5.457579 0.506646 12.688683 -4.675262 -2.777923 83.571259 8.577999 -38.860922 7.758507 -1.770451 -11.426724 3.446174 -0.168472 -0.109156 8.350031 -2.160859 0.386531 20.280957 -1.128944 0.103093 10.435347 -2.243145 0.36816 24.460303 -3.274174 0.928942 31.671551 -5.224896 2.828946 56.841654 -1.032635 0.085197 9.629588 -3.302605 0.946583 31.978723 -2.065078 0.360421 19.377809 -2.508611 0.554 18.813988 -3.848751 1.329492 38.101753 -3.838231 1.330336 38.036558 -8.288905 -3.703672 -6.074452 -23.144311 8.672824 -11.912 -12.785699 5.85213 -4.199655 21.811117 -85.200375 6.312541 -4.391717 88.1294 6.54643 1.020598 -4.504035 -8.527944 0.000006 -2.744247 -0.000009 -15.572211 -66.764132 12.82751 -8.099267 94.406871 -5.780553 -0.621799 -26.056274 -3.887817 -0.000003 -5.315938 0
-0.127265 -4.165365 -0.29319 -6.243817 -9.446315 -4.507538 -1.469617 -8.189776 5.266172 -3.883411 -3.497584 13.255578 -0.000074 -1.250657 -0.000104 0.394227 4.75126 -2.708825 4.109355 2.812259 -10.146481 0 0 0 0 0 0 2.436259 0.611539 -9.252674 -12.213176 -6.64812 -108.189538 -10.841062 -38.148768 -7.678847 -10.901158 -0.093427 -4.125054 0.050398 -0.112372 -7.390756 2.685625 0.615552 -25.815582 1.726594 0.246685 -16.262007 4.025365 0.888167 -20.644447 -0.973583 0.840604 -30.562561 4.935749 2.467071 -53.095435 1.220418 0.121036 -11.511016 2.957645 0.755577 -28.655965 2.347142 0.464184 -22.37245 1.243028 0.065507 -15.880519 4.053898 1.519159 -41.074051 3.366919 1.000162 -33.081724 12.807951 2.333457 9.419525 20.415874 0.538605 9.69099 19.121726 3.983046 4.028004 5.457582 0.506649 12.688683 -4.579166 -2.733321 83.641738 8.61207 -38.853017 7.758385 -1.806931 -11.442924 3.484651 -0.168472 -0.109156 8.350031 -2.160859 0.386531 20.280957 -1.128944 0.103093 10.435347 -2.243145 0.36816 24.460303 -3.274174 0.928942 31.671551 -5.224896 2.828946 56.841654 -1.032635 0.085197 9.629588 -3.302605 0.946583 31.978723 -2.065078 0.360421 19.377809 -2.508611 0.554 18.813988 -3.848751 1.329492 38.101753 -3.838231 1.330336 38.036558 -8.288905 -3.703672 -6.074452 -23.144311 8.672824 -11.912 -12.785699 5.85213 -4.199655 21.811117 -85.200375 6.312541 -4.391717 88.1294 6.54643 1.020598 -4.504035 -8.527944 0.000006 -2.744247 -0.000009 -15.572211 -66.764132 12.82751 -8.099267 94.406871 -5.780553 -0.621799 -26.056274 -3.887817 -0.000003 -5.315938 0
-0.127265 -4.165365 -0.29319 -6.243817 -9.446315 -4.507538 -1.469617 -8.189776 5.266172 -3.883416 -3.48193 13.255572 -0.000078 -1.199003 -0.000112 0.394252 4.719966 -2.708805 4.109212 2.811167 -10.146475 0 0 0 0 0 0 2.436256 0.611543 -9.252671 -12.429176 -6.466939 -108.274934 -10.885646 -38.087006 -7.677793 -10.863502 -0.142984 -4.172372 0.050398 -0.112372 -7.390756 2.685625 0.615552 -25.815582 1.726594 0.246685 -16.262007 4.025365 0.888167 -20.644447 -0.973583 0.840604 -30.562561 4.935749 2.467071 -53.095435 1.220418 0.121036 -11.511016 2.957645 0.755577 -28.655965 2.347142 0.464184 -22.37245 1.243028 0.065507 -15.880519 4.053898 1.519159 -41.074051 3.366919 1.000162 -33.081724 12.807951 2.333457 9.419525 20.415874 0.538605 9.69099 19.121726 3.983046 4.028004 5.457577 0.506647 12.688681 -4.489546 -2.692004 83.707646 8.644499 -38.846692 7.758294 -1.84097 -11.457548 3.52069 -0.168472 -0.109156 8.350031 -2.160859 0.386531 20.280957 -1.128944 0.103093 10.435347 -2.243145 0.36816 24.460303 -3.274174 0.928942 31.671551 -5.224896 2.828946 56.841654 -1.032635 0.085197 9.629588 -3.302605 0.946583 31.978723 -2.065078 0.360421 19.377809 -2.508611 0.554 18.813988 -3.848751 1.329492 38.101753 -3.838231 1.330336 38.036558 -8.288905 -3.703672 -6.074452 -23.144311 8.672824 -11.912 -12.785699 5.85213 -4.199655 21.811117 -85.200375 6.312541 -4.391717 88.1294 6.54643 1.020598 -4.504035 -8.527944 0.000006 -2.744247 -0.000009 -15.572211 -66.764132 12.82751 -8.099267 94.406871 -5.780553 -0.621799 -26.056274 -3.887817 -0.000003 -5.315938 0
-0.127265 -4.165365 -0.29319 -6.243817 -9.446315 -4.507538 -1.469617 -8.189776 5.266172 -3.883421 -3.467262 13.255566 -0.000082 -1.150592 -0.00012 0.394275 4.690629 -2.708786 4.109008 2.827244 -10.14648 0 0 0 0 0 0 2.436255 0.611547 -9.252675 -12.624955 -6.303596 -108.35247 -10.927484 -38.03281 -7.676869 -10.829627 -0.187426 -4.215571 0.050398 -0.112372 -7.390756 2.685625 0.615552 -25.815582 1.726594 0.246685 -16.262007 4.025365 0.888167 -20.644447 -0.973583 0.840604 -30.562561 4.935749 2.467071 -53.095435 1.220418 0.121036 -11.511016 2.957645 0.755577 -28.655965 2.347142 0.464184 -22.37245 1.243028 0.065507 -15.880519 4.053898 1.519159 -41.074051 3.366919 1.000162 -33.081724 12.807951 2.333457 9.419525 20.415874 0.538605 9.69099 19.121726 3.983046 4.028004 5.457578 0.506646 12.688682 -4.406865 -2.654091 83.768478 8.674975 -38.841902 7.758225 -1.872304 -11.47055 3.554057 -0.168472 -0.109156 8.350031 -2.160859 0.386531 20.280957 -1.128944 0.103093 10.435347 -2.243145 0.36816 24.460303 -3.274174 0.928942 31.671551 -5.224896 2.828946 56.841654 -1.032635 0.085197 9.629588 -3.302605 0.946583 31.978723 -2.065078 0.360421 19.377809 -2.508611 0.554 18.813988 -3.848751 1.329492 38.101753 -3.838231 1.330336 38.036558 -8.288905 -3.703672 -6.074452 -23.144311 8.672824 -11.912 -12.785699 5.85213 -4.199655 21.811117 -85.200375 6.312541 -4.391717 88.1294 6.54643 1.020598 -4.504035 -8.527944 0.000006 -2.744247 -0.000009 -15.572211 -66.764132 12.82751 -8.099267 94.406871 -5.780553 -0.621799 -26.056274 -3.887817 -0.000003 -5.315938 0
-0.127265 -4.165365 -0.29319 -6.243817 -9.446315 -4.507538 -1.469617 -8.189776 5.266172 -3.883425 -3.453836 13.255561 -0.000085 -1.106289 -0.000127 0.394296 4.663773 -2.708769 4.1088 2.850441 -10.146492 0 0 0 0 0 0 2.436256 0.611548 -9.252675 -12.797898 -6.160026 -108.42054 -10.965872 -37.987203 -7.676098 -10.800174 -0.225929 -4.253773 0.050398 -0.112372 -7.390756 2.685625 0.615552 -25.815582 1.726594 0.246685 -16.262007 4.025365 0.888167 -20.644447 -0.973583 0.840604 -30.562561 4.935749 2.467071 -53.095435 1.220418 0.121036 -11.511016 2.957645 0.755577 -28.655965 2.347142 0.464184 -22.37245 1.243028 0.065507 -15.880519 4.053898 1.519159 -41.074051 3.366919 1.000162 -33.081724 12.807951 2.333457 9.419525 20.415874 0.538605 9.69099 19.121726 3.983046 4.028004 5.457579 0.506647 12.688681 -4.332377 -2.620039 83.823041 8.702925 -38.838778 7.758165 -1.900324 -11.481703 3.58413 -0.168472 -0.109156 8.350031 -2.160859 0.386531 20.280957 -1.128944 0.103093 10.435347 -2.243145 0.36816 24.460303 -3.274174 0.928942 31.671551 -5.224896 2.828946 56.841654 -1.032635 0.085197 9.629588 -3.302605 0.946583 31.978723 -2.065078 0.360421 19.377809 -2.508611 0.554 18.813988 -3.848751 1.329492 38.101753 -3.838231 1.330336 38.036558 -8.288905 -3.703672 -6.074452 -23.144311 8.672824 -11.912 -12.785699 5.85213 -4.199655 21.811117 -85.200375 6.312541 -4.391717 88.1294 6.54643 1.020598 -4.504035 -8.527944 0.000006 -2.744247 -0.000009 -15.572211 -66.764132 12.82751 -8.099267 94.406871 -5.780553 -0.621799 -26.056274 -3.887817 -0.000003 -5.315938 0
-0.127265 -4.165365 -0.29319 -6.243817 -9.446315 -4.507538 -1.469617 -8.189776 5.266172 -3.883428 -3.44197 13.255556 -0.000087 -1.067115 -0.000134 0.394315 4.640034 -2.708753 4.108603 2.879215 -10.146508 0 0 0 0 0 0 2.436255 0.611541 -9.252671 -12.945116 -6.038434 -108.477401 -10.999827 -37.951279 -7.675503 -10.775889 -0.257611 -4.286037 0.050398 -0.112372 -7.390756 2.685625 0.615552 -25.815582 1.726594 0.246685 -16.262007 4.025365 0.888167 -20.644447 -0.973583 0.840604 -30.562561 4.935749 2.467071 -53.095435 1.220418 0.121036 -11.511016 2.957645 0.755577 -28.655965 2.347142 0.464184 -22.37245 1.243028 0.065507 -15.880519 4.053898 1.519159 -41.074051 3.366919 1.000162 -33.081724 12.807951 2.333457 9.419525 20.415874 0.538605 9.69099 19.121726 3.983046 4.028004 5.457573 0.506646 12.688685 -4.267596 -2.590409 83.870015 8.727584 -38.837436 7.758154 -1.924294 -11.490808 3.610205 -0.168472 -0.109156 8.350031 -2.160859 0.386531 20.280957 -1.128944 0.103093 10.435347 -2.243145 0.36816 24.460303 -3.274174 0.928942 31.671551 -5.224896 2.828946 56.841654 -1.032635 0.085197 9.629588 -3.302605 0.946583 31.978723 -2.065078 0.360421 19.377809 -2.508611 0.554 18.813988 -3.848751 1.329492 38.101753 -3.838231 1.330336 38.036558 -8.288905 -3.703672 -6.074452 -23.144311 8.672824 -11.912 -12.785699 5.85213 -4.199655 21.811117 -85.200375 6.312541 -4.391717 88.1294 6.54643 1.020598 -4.504035 -8.527944 0.000006 -2.744247 -0.000009 -15.572211 -66.764132 12.82751 -8.099267 94.406871 -5.780553 -0.621799 -26.056274 -3.887817 -0.000003 -5.315938 0
-0.127265 -4.165365 -0.29319 -6.243817 -9.446315 -4.507538 -1.469617 -8.189776 5.266172 -3.883431 -3.432469 13.255552 -0.000089 -1.035793 -0.000139 0.394329 4.621045 -2.708741 4.108427 2.914556 -10.146531 0 0 0 0 0 0 2.436257 0.611548 -9.252677 -13.057153 -5.946436 -108.518505 -11.027016 -37.92801 -7.675102 -10.758659 -0.280001 -4.309883 0.050398 -0.112372 -7.390756 2.685625 0.615552 -25.815582 1.726594 0.246685 -16.262007 4.025365 0.888167 -20.644447 -0.973583 0.840604 -30.562561 4.935749 2.467071 -53.095435 1.220418 0.121036 -11.511016 2.957645 0.755577 -28.655965 2.347142 0.464184 -22.37245 1.243028 0.065507 -15.880519 4.053898 1.519159 -41.074051 3.366919 1.000162 -33.081724 12.807951 2.333457 9.419525 20.415874 0.538605 9.69099 19.121726 3.983046 4.028004 5.457581 0.506648 12.688682 -4.217047 -2.567199 83.905947 8.747464 -38.838065 7.758163 -1.942497 -11.497138 3.630383 -0.168472 -0.109156 8.350031 -2.160859 0.386531 20.280957 -1.128944 0.103093 10.435347 -2.243145 0.36816 24.460303 -3.274174 0.928942 31.671551 -5.224896 2.828946 56.841654 -1.032635 0.085197 9.629588 -3.302605 0.946583 31.978723 -2.065078 0.360421 19.377809 -2.508611 0.554 18.813988 -3.848751 1.329492 38.101753 -3.838231 1.330336 38.036558 -8.288905 -3.703672 -6.074452 -23.144311 8.672824 -11.912 -12.785699 5.85213 -4.199655 21.811117 -85.200375 6.312541 -4.391717 88.1294 6.54643 1.020598 -4.504035 -8.527944 0.000006 -2.744247 -0.000009 -15.572211 -66.764132 12.82751 -8.099267 94.406871 -5.780553 -0.621799 -26.056274 -3.887817 -0.000003 -5.315938 0
-0.127265 -4.165365 -0.29319 -6.243817 -9.446315 -4.507538 -1.469617 -8.189776 5.266172 -3.883433 -3.42567 13.255549 -0.000091 -1.013332 -0.000142 0.39434 4.607438 -2.708732 4.10827 2.956435 -10.146558 0 0 0 0 0 0 2.436254 0.611549 -9.252674 -13.132487 -5.884988 -108.543495 -11.046455 -37.916794 -7.674912 -10.748569 -0.293146 -4.324985 0.050398 -0.112372 -7.390756 2.685625 0.615552 -25.815582 1.726594 0.246685 -16.262007 4.025365 0.888167 -20.644447 -0.973583 0.840604 -30.562561 4.935749 2.467071 -53.095435 1.220418 0.121036 -11.511016 2.957645 0.755577 -28.655965 2.347142 0.464184 -22.37245 1.243028 0.065507 -15.880519 4.053898 1.519159 -41.074051 3.366919 1.000162 -33.081724 12.807951 2.333457 9.419525 20.415874 0.538605 9.69099 19.121726 3.983046 4.028004 5.457582 0.506647 12.688683 -4.181853 -2.550823 83.930008 8.761721 -38.840229 7.758186 -1.954495 -11.500778 3.644175 -0.168472 -0.109156 8.350031 -2.160859 0.386531 20.280957 -1.128944 0.103093 10.435347 -2.243145 0.36816 24.460303 -3.274174 0.928942 31.671551 -5.224896 2.828946 56.841654 -1.032635 0.085197 9.629588 -3.302605 0.946583 31.978723 -2.065078 0.360421 19.377809 -2.508611 0.554 18.813988 -3.848751 1.329492 38.101753 -3.838231 1.330336 38.036558 -8.288905 -3.703672 -6.074452 -23.144311 8.672824 -11.912 -12.785699 5.85213 -4.199655 21.811117 -85.200375 6.312541 -4.391717 88.1294 6.54643 1.020598 -4.504035 -8.527944 0.000006 -2.744247 -0.000009 -15.572211 -66.764132 12.82751 -8.099267 94.406871 -5.780553 -0.621799 -26.056274 -3.887817 -0.000003 -5.315938 0
-0.127265 -4.165365 -0.29319 -6.243817 -9.446315 -4.507538 -1.469617 -8.189776 5.266172 -3.883434 -3.422392 13.255548 -0.000091 -1.002524 -0.000145 0.394345 4.600884 -2.708728 4.108129 3.006426 -10.146594 0 0 0 0 0 0 2.436256 0.611545 -9.252674 -13.161161 -5.862159 -108.547847 -11.055793 -37.92052 -7.674964 -10.747487 -0.294593 -4.32885 0.050398 -0.112372 -7.390756 2.685625 0.615552 -25.815582 1.726594 0.246685 -16.262007 4.025365 0.888167 -20.644447 -0.973583 0.840604 -30.562561 4.935749 2.467071 -53.095435 1.220418 0.121036 -11.511016 2.957645 0.755577 -28.655965 2.347142 0.464184 -22.37245 1.243028 0.065507 -15.880519 4.053898 1.519159 -41.074051 3.366919 1.000162 -33.081724 12.807951 2.333457 9.419525 20.415874 0.538605 9.69099 19.121726 3.983046 4.028004 5.457582 0.506648 12.688682 -4.166334 -2.543113 83.938683 8.76854 -38.844186 7.75825 -1.958482 -11.501057 3.649685 -0.168472 -0.109156 8.350031 -2.160859 0.386531 20.280957 -1.128944 0.103093 10.435347 -2.243145 0.36816 24.460303 -3.274174 0.928942 31.671551 -5.224896 2.828946 56.841654 -1.032635 0.085197 9.629588 -3.302605 0.946583 31.978723 -2.065078 0.360421 19.377809 -2.508611 0.554 18.813988 -3.848751 1.329492 38.101753 -3.838231 1.330336 38.036558 -8.288905 -3.703672 -6.074452 -23.144311 8.672824 -11.912 -12.785699 5.85213 -4.199655 21.811117 -85.200375 6.312541 -4.391717 88.1294 6.54643 1.020598 -4.504035 -8.527944 0.000006 -2.744247 -0.000009 -15.572211 -66.764132 12.82751 -8.099267 94.406871 -5.780553 -0.621799 -26.056274 -3.887817 -0.000003 -5.315938 0
-0.127265 -4.165365 -0.29319 -6.243817 -9.446315 -4.507538 -1.469617 -8.189776 5.266172 -3.883434 -3.424811 13.255549 -0.000091 -1.010475 -0.000143 0.394342 4.605709 -2.708731 4.108003 3.069062 -10.146639 0 0 0 0 0 0 2.436255 0.611545 -9.252679 -13.11938 -5.897317 -108.52326 -11.048807 -37.943138 -7.675361 -10.758816 -0.280006 -4.31655 0.050398 -0.112372 -7.390756 2.685625 0.615552 -25.815582 1.726594 0.246685 -16.262007 4.025365 0.888167 -20.644447 -0.973583 0.840604 -30.562561 4.935749 2.467071 -53.095435 1.220418 0.121036 -11.511016 2.957645 0.755577 -28.655965 2.347142 0.464184 -22.37245 1.243028 0.065507 -15.880519 4.053898 1.519159 -41.074051 3.366919 1.000162 -33.081724 12.807951 2.333457 9.419525 20.415874 0.538605 9.69099 19.121726 3.983046 4.028004 5.457581 0.506648 12.688681 -4.181678 -2.549197 83.924164 8.763412 -38.849326 7.758339 -1.950543 -11.496788 3.6425 -0.168472 -0.109156 8.350031 -2.160859 0.386531 20.280957 -1.128944 0.103093 10.435347 -2.243145 0.36816 24.460303 -3.274174 0.928942 31.671551 -5.224896 2.828946 56.841654 -1.032635 0.085197 9.629588 -3.302605 0.946583 31.978723 -2.065078 0.360421 19.377809 -2.508611 0.554 18.813988 -3.848751 1.329492 38.101753 -3.838231 1.330336 38.036558 -8.288905 -3.703672 -6.074452 -23.144311 8.672824 -11.912 -12.785699 5.85213 -4.199655 21.811117 -85.200375 6.312541 -4.391717 88.1294 6.54643 1.020598 -4.504035 -8.527944 0.000006 -2.744247 -0.000009 -15.572211 -66.764132 12.82751 -8.099267 94.406871 -5.780553 -0.621799 -26.056274 -3.887817 -0.000003 -5.315938 0
-0.127265 -4.165365 -0.29319 -6.243817 -9.446315 -4.507538 -1.469617 -8.189776 5.266172 -3.883431 -3.434813 13.255553 -0.000089 -1.04351 -0.000138 0.394326 4.625726 -2.708744 4.1079 3.148359 -10.146698 0 0 0 0 0 0 2.436258 0.611542 -9.252674 -12.986155 -6.007749 -108.46408 -11.020155 -37.986442 -7.676085 -10.78474 -0.246383 -4.28441 0.050398 -0.112372 -7.390756 2.685625 0.615552 -25.815582 1.726594 0.246685 -16.262007 4.025365 0.888167 -20.644447 -0.973583 0.840604 -30.562561 4.935749 2.467071 -53.095435 1.220418 0.121036 -11.511016 2.957645 0.755577 -28.655965 2.347142 0.464184 -22.37245 1.243028 0.065507 -15.880519 4.053898 1.519159 -41.074051 3.366919 1.000162 -33.081724 12.807951 2.333457 9.419525 20.415874 0.538605 9.69099 19.121726 3.983046 4.028004 5.457582 0.506645 12.688684 -4.237774 -2.573866 83.880259 8.742432 -38.854616 7.758405 -1.927666 -11.487112 3.618909 -0.168472 -0.109156 8.350031 -2.160859 0.386531 20.280957 -1.128944 0.103093 10.435347 -2.243145 0.36816 24.460303 -3.274174 0.928942 31.671551 -5.224896 2.828946 56.841654 -1.032635 0.085197 9.629588 -3.302605 0.946583 31.978723 -2.065078 0.360421 19.377809 -2.508611 0.554 18.813988 -3.848751 1.329492 38.101753 -3.838231 1.330336 38.036558 -8.288905 -3.703672 -6.074452 -23.144311 8.672824 -11.912 -12.785699 5.85213 -4.199655 21.811117 -85.200375 6.312541 -4.391717 88.1294 6.54643 1.020598 -4.504035 -8.527944 0.000006 -2.744247 -0.000009 -15.572211 -66.764132 12.82751 -8.099267 94.406871 -5.780553 -0.621799 -26.056274 -3.887817 -0.000003 -5.315938 0
-0.127265 -4.165365 -0.29319 -6.243817 -9.446315 -4.507538 -1.469617 -8.189776 5.266172 -3.883426 -3.449456 13.255559 -0.000086 -1.091829 -0.00013 0.394303 4.655011 -2.708763 4.107814 3.237647 -10.146765 0 0 0 0 0 0 2.436254 0.611548 -9.252676 -12.792289 -6.168776 -108.381856 -10.978264 -38.045171 -7.677084 -10.820672 -0.199649 -4.23931 0.050398 -0.112372 -7.390756 2.685625 0.615552 -25.815582 1.726594 0.246685 -16.262007 4.025365 0.888167 -20.644447 -0.973583 0.840604 -30.562561 4.935749 2.467071 -53.095435 1.220418 0.121036 -11.511016 2.957645 0.755577 -28.655965 2.347142 0.464184 -22.37245 1.243028 0.065507 -15.880519 4.053898 1.519159 -41.074051 3.366919 1.000162 -33.081724 12.807951 2.333457 9.419525 20.415874 0.538605 9.69099 19.121726 3.983046 4.028004 5.457579 0.506648 12.688681 -4.319721 -2.610508 83.817693 8.711847 -38.86085 7.75851 -1.895232 -11.473619 3.585001 -0.168472 -0.109156 8.350031 -2.160859 0.386531 20.280957 -1.128944 0.103093 10.435347 -2.243145 0.36816 24.460303 -3.274174 0.928942 31.671551 -5.224896 2.828946 56.841654 -1.032635 0.085197 9.629588 -3.302605 0.946583 31.978723 -2.065078 0.360421 19.377809 -2.508611 0.554 18.813988 -3.848751 1.329492 38.101753 -3.838231 1.330336 38.036558 -8.288905 -3.703672 -6.074452 -23.144311 8.672824 -11.912 -12.785699 5.85213 -4.199655 21.811117 -85.200375 6.312541 -4.391717 88.1294 6.54643 1.020598 -4.504035 -8.527944 0.000006 -2.744247 -0.000009 -15.572211 -66.764132 12.82751 -8.099267 94.406871 -5.780553 -0.621799 -26.056274 -3.887817 -0.000003 -5.315938 0
-0.127265 -4.165365 -0.29319 -6.243817 -9.446315 -4.507538 -1.469617 -8.189776 5.266172 -3.883421 -3.46748 13.255566 -0.000082 -1.151317 -0.00012 0.394274 4.691064 -2.708787 4.107747 3.334064 -10.146839 0 0 0 0 0 0 2.436255 0.611544 -9.252673 -12.549448 -6.371377 -108.281573 -10.926702 -38.117301 -7.678316 -10.864678 -0.142169 -4.184153 0.050398 -0.112372 -7.390756 2.685625 0.615552 -25.815582 1.726594 0.246685 -16.262007 4.025365 0.888167 -20.644447 -0.973583 0.840604 -30.562561 4.935749 2.467071 -53.095435 1.220418 0.121036 -11.511016 2.957645 0.755577 -28.655965 2.347142 0.464184 -22.37245 1.243028 0.065507 -15.880519 4.053898 1.519159 -41.074051 3.366919 1.000162 -33.081724 12.807951 2.333457 9.419525 20.415874 0.538605 9.69099 19.121726 3.983046 4.028004 5.457576 0.506646 12.688681 -4.421427 -2.65648 83.741027 8.67429 -38.868456 7.758616 -1.855533 -11.456889 3.543322 -0.168472 -0.109156 8.350031 -2.160859 0.386531 20.280957 -1.128944 0.103093 10.435347 -2.243145 0.36816 24.460303 -3.274174 0.928942 31.671551 -5.224896 2.828946 56.841654 -1.032635 0.085197 9.629588 -3.302605 0.946583 31.978723 -2.065078 0.360421 19.377809 -2.508611 0.554 18.813988 -3.848751 1.329492 38.101753 -3.838231 1.330336 38.036558 -8.288905 -3.703672 -6.074452 -23.144311 8.672824 -11.912 -12.785699 5.85213 -4.199655 21.811117 -85.200375 6.312541 -4.391717 88.1294 6.54643 1.020598 -4.504035 -8.527944 0.000006 -2.744247 -0.000009 -15.572211 -66.764132 12.82751 -8.099267 94.406871 -5.780553 -0.621799 -26.056274 -3.887817 -0.000003 -5.315938 0
-0.127265 -4.165365 -0.29319 -6.243817 -9.446315 -4.507538 -1.469617 -8.189776 5.266172 -3.883414 -3.488003 13.255575 -0.000076 -1.219017 -0.000109 0.394242 4.732093 -2.708813 4.107702 3.435534 -10.146915 0 0 0 0 0 0 2.436256 0.611544 -9.252671 -12.265623 -6.609453 -108.167434 -10.868168 -38.200637 -7.679733 -10.915072 -0.076011 -4.121281 0.050398 -0.112372 -7.390756 2.685625 0.615552 -25.815582 1.726594 0.246685 -16.262007 4.025365 0.888167 -20.644447 -0.973583 0.840604 -30.562561 4.935749 2.467071 -53.095435 1.220418 0.121036 -11.511016 2.957645 0.755577 -28.655965 2.347142 0.464184 -22.37245 1.243028 0.065507 -15.880519 4.053898 1.519159 -41.074051 3.366919 1.000162 -33.081724 12.807951 2.333457 9.419525 20.415874 0.538605 9.69099 19.121726 3.983046 4.028004 5.457574 0.506643 12.688684 -4.538601 -2.710073 83.653728 8.631692 -38.877495 7.758772 -1.810362 -11.437453 3.4958 -0.168472 -0.109156 8.350031 -2.160859 0.386531 20.280957 -1.128944 0.103093 10.435347 -2.243145 0.36816 24.460303 -3.274174 0.928942 31.671551 -5.224896 2.828946 56.841654 -1.032635 0.085197 9.629588 -3.302605 0.946583 31.978723 -2.065078 0.360421 19.377809 -2.508611 0.554 18.813988 -3.848751 1.329492 38.101753 -3.838231 1.330336 38.036558 -8.288905 -3.703672 -6.074452 -23.144311 8.672824 -11.912 -12.785699 5.85213 -4.199655 21.811117 -85.200375 6.312541 -4.391717 88.1294 6.54643 1.020598 -4.504035 -8.527944 0.000006 -2.744247 -0.000009 -15.572211 -66.764132 12.82751 -8.099267 94.406871 -5.780553 -0.621799 -26.056274 -3.887817 -0.000003 -5.315938 0
-0.127265 -4.165365 -0.29319 -6.243817 -9.446315 -4.507538 -1.469617 -8.189776 5.266172 -3.883407 -3.51053 13.255584 -0.000071 -1.293403 -0.000097 0.394207 4.777172 -2.708842 4.107681 3.540762 -10.146996 0 0 0 0 0 0 2.436254 0.61155 -9.252674 -11.944263 -6.880675 -108.041854 -10.804045 -38.294158 -7.681312 -10.970906 -0.002229 -4.052019 0.050398 -0.112372 -7.390756 2.685625 0.615552 -25.815582 1.726594 0.246685 -16.262007 4.025365 0.888167 -20.644447 -0.973583 0.840604 -30.562561 4.935749 2.467071 -53.095435 1.220418 0.121036 -11.511016 2.957645 0.755577 -28.655965 2.347142 0.464184 -22.37245 1.243028 0.065507 -15.880519 4.053898 1.519159 -41.074051 3.366919 1.000162 -33.081724 12.807951 2.333457 9.419525 20.415874 0.538605 9.69099 19.121726 3.983046 4.028004 5.457575 0.506649 12.688683 -4.669208 -2.77062 83.557822 8.585117 -38.887987 7.75892 -1.760754 -11.41553 3.443455 -0.168472 -0.109156 8.350031 -2.160859 0.386531 20.280957 -1.128944 0.103093 10.435347 -2.243145 0.36816 24.460303 -3.274174 0.928942 31.671551 -5.224896 2.828946 56.841654 -1.032635 0.085197 9.629588 -3.302605 0.946583 31.978723 -2.065078 0.360421 19.377809 -2.508611 0.554 18.813988 -3.848751 1.329492 38.101753 -3.838231 1.330336 38.036558 -8.288905 -3.703672 -6.074452 -23.144311 8.672824 -11.912 -12.785699 5.85213 -4.199655 21.811117 -85.200375 6.312541 -4.391717 88.1294 6.54643 1.020598 -4.504035 -8.527944 0.000006 -2.744247 -0.000009 -15.572211 -66.764132 12.82751 -8.099267 94.406871 -5.780553 -0.621799 -26.056274 -3.887817 -0.000003 -5.315938 0
-0.127265 -4.165365 -0.29319 -6.243817 -9.446315 -4.507538 -1.469617 -8.189776 5.266172 -3.8834 -3.534201 13.255593 -0.000064 -1.371511 -0.000085 0.394169 4.824509 -2.708872 4.107683 3.647757 -10.147078 0 0 0 0 0 0 2.436254 0.611549 -9.252672 -11.596051 -7.176401 -107.910296 -10.736838 -38.393839 -7.682993 -11.029858 0.076111 -3.979309 0.050398 -0.112372 -7.390756 2.685625 0.615552 -25.815582 1.726594 0.246685 -16.262007 4.025365 0.888167 -20.644447 -0.973583 0.840604 -30.562561 4.935749 2.467071 -53.095435 1.220418 0.121036 -11.511016 2.957645 0.755577 -28.655965 2.347142 0.464184 -22.37245 1.243028 0.065507 -15.880519 4.053898 1.519159 -41.074051 3.366919 1.000162 -33.081724 12.807951 2.333457 9.419525 20.415874 0.538605 9.69099 19.121726 3.983046 4.028004 5.457579 0.506648 12.688683 -4.808454 -2.836113 83.457206 8.536498 -38.899411 7.759099 -1.708755 -11.392006 3.388393 -0.168472 -0.109156 8.350031 -2.160859 0.386531 20.280957 -1.128944 0.103093 10.435347 -2.243145 0.36816 24.460303 -3.274174 0.928942 31.671551 -5.224896 2.828946 56.841654 -1.032635 0.085197 9.629588 -3.302605 0.946583 31.978723 -2.065078 0.360421 19.377809 -2.508611 0.554 18.813988 -3.848751 1.329492 38.101753 -3.838231 1.330336 38.036558 -8.288905 -3.703672 -6.074452 -23.144311 8.672824 -11.912 -12.785699 5.85213 -4.199655 21.811117 -85.200375 6.312541 -4.391717 88.1294 6.54643 1.020598 -4.504035 -8.527944 0.000006 -2.744247 -0.000009 -15.572211 -66.764132 12.82751 -8.099267 94.406871 -5.780553 -0.621799 -26.056274 -3.887817 -0.000003 -5.315938 0
-0.127265 -4.165365 -0.29319 -6.243817 -9.446315 -4.507538 -1.469617 -8.189776 5.266172 -3.883392 -3.558562 13.255603 -0.000057 -1.451875 -0.000073 0.394131 4.873218 -2.708903 4.107706 3.755379 -10.14716 0 0 0 0 0 0 2.436259 0.611543 -9.252672 -11.226326 -7.492343 -107.775874 -10.667849 -38.49733 -7.684757 -11.090578 0.157271 -3.904748 0.050398 -0.112372 -7.390756 2.685625 0.615552 -25.815582 1.726594 0.246685 -16.262007 4.025365 0.888167 -20.644447 -0.973583 0.840604 -30.562561 4.935749 2.467071 -53.095435 1.220418 0.121036 -11.511016 2.957645 0.755577 -28.655965 2.347142 0.464184 -22.37245 1.243028 0.065507 -15.880519 4.053898 1.519159 -41.074051 3.366919 1.000162 -33.081724 12.807951 2.333457 9.419525 20.415874 0.538605 9.69099 19.121726 3.983046 4.028004 5.457577 0.506645 12.688681 -4.953692 -2.905412 83.354006 8.486615 -38.911437 7.75929 -1.655454 -11.367389 3.331746 -0.168472 -0.109156 8.350031 -2.160859 0.386531 20.280957 -1.128944 0.103093 10.435347 -2.243145 0.36816 24.460303 -3.274174 0.928942 31.671551 -5.224896 2.828946 56.841654 -1.032635 0.085197 9.629588 -3.302605 0.946583 31.978723 -2.065078 0.360421 19.377809 -2.508611 0.554 18.813988 -3.848751 1.329492 38.101753 -3.838231 1.330336 38.036558 -8.288905 -3.703672 -6.074452 -23.144311 8.672824 -11.912 -12.785699 5.85213 -4.199655 21.811117 -85.200375 6.312541 -4.391717 88.1294 6.54643 1.020598 -4.504035 -8.527944 0.000006 -2.744247 -0.000009 -15.572211 -66.764132 12.82751 -8.099267 94.406871 -5.780553 -0.621799 -26.056274 -3.887817 -0.000003 -5.315938 0
-0.127265 -4.165365 -0.29319 -6.243817 -9.446315 -4.507538 -1.469617 -8.189776 5.266172 -3.883384 -3.583198 13.255613 -0.00005 -1.53317 -0.000062 0.394092 4.922495 -2.708934 4.107749 3.862557 -10.147243 0 0 0 0 0 0 2.436254 0.61155 -9.252675 -10.84048 -7.824089 -107.641456 -10.59824 -38.602249 -7.686561 -11.151787 0.239576 -3.829845 0.050398 -0.112372 -7.390756 2.685625 0.615552 -25.815582 1.726594 0.246685 -16.262007 4.025365 0.888167 -20.644447 -0.973583 0.840604 -30.562561 4.935749 2.467071 -53.095435 1.220418 0.121036 -11.511016 2.957645 0.755577 -28.655965 2.347142 0.464184 -22.37245 1.243028 0.065507 -15.880519 4.053898 1.519159 -41.074051 3.366919 1.000162 -33.081724 12.807951 2.333457 9.419525 20.415874 0.538605 9.69099 19.121726 3.983046 4.028004 5.457581 0.50665 12.688678 -5.102689 -2.977603 83.25022 8.436442 -38.923619 7.759473 -1.601916 -11.34216 3.274511 -0.168472 -0.109156 8.350031 -2.160859 0.386531 20.280957 -1.128944 0.103093 10.435347 -2.243145 0.36816 24.460303 -3.274174 0.928942 31.671551 -5.224896 2.828946 56.841654 -1.032635 0.085197 9.629588 -3.302605 0.946583 31.978723 -2.065078 0.360421 19.377809 -2.508611 0.554 18.813988 -3.848751 1.329492 38.101753 -3.838231 1.330336 38.036558 -8.288905 -3.703672 -6.074452 -23.144311 8.672824 -11.912 -12.785699 5.85213 -4.199655 21.811117 -85.200375 6.312541 -4.391717 88.1294 6.54643 1.020598 -4.504035 -8.527944 0.000006 -2.744247 -0.000009 -15.572211 -66.764132 12.82751 -8.099267 94.406871 -5.780553 -0.621799 -26.056274 -3.887817 -0.000003 -5.315938 0
-0.127265 -4.165365 -0.29319 -6.243817 -9.446315 -4.507538 -1.469617 -8.189776 5.266172 -3.883375 -3.607635 13.255622 -0.000042 -1.613817 -0.00005 0.394053 4.971367 -2.708965 4.107814 3.967796 -10.147323 0 0 0 0 0 0 2.436253 0.611547 -9.252677 -10.447235 -8.164067 -107.510644 -10.529384 -38.705577 -7.688308 -11.211781 0.320868 -3.75646 0.050398 -0.112372 -7.390756 2.685625 0.615552 -25.815582 1.726594 0.246685 -16.262007 4.025365 0.888167 -20.644447 -0.973583 0.840604 -30.562561 4.935749 2.467071 -53.095435 1.220418 0.121036 -11.511016 2.957645 0.755577 -28.655965 2.347142 0.464184 -22.37245 1.243028 0.065507 -15.880519 4.053898 1.519159 -41.074051 3.366919 1.000162 -33.081724 12.807951 2.333457 9.419525 20.415874 0.538605 9.69099 19.121726 3.983046 4.028004 5.457581 0.506645 12.688683 -5.252409 -3.051291 83.148176 8.386954 -38.935428 7.759663 -1.549395 -11.316959 3.217938 -0.168472 -0.109156 8.350031 -2.160859 0.386531 20.280957 -1.128944 0.103093 10.435347 -2.243145 0.36816 24.460303 -3.274174 0.928942 31.671551 -5.224896 2.828946 56.841654 -1.032635 0.085197 9.629588 -3.302605 0.946583 31.978723 -2.065078 0.360421 19.377809 -2.508611 0.554 18.813988 -3.848751 1.329492 38.101753 -3.838231 1.330336 38.036558 -8.288905 -3.703672 -6.074452 -23.144311 8.672824 -11.912 -12.785699 5.85213 -4.199655 21.811117 -85.200375 6.312541 -4.391717 88.1294 6.54643 1.020598 -4.504035 -8.527944 0.000006 -2.744247 -0.000009 -15.572211 -66.764132 12.82751 -8.099267 94.406871 -5.780553 -0.621799 -26.056274 -3.887817 -0.000003 -5.315938 0
-0.127265 -4.165365 -0.29319 -6.243817 -9.446315 -4.507538 -1.469617 -8.189776 5.266172 -3.883368 -3.631444 13.255631 -0.000034 -1.692404 -0.000039 0.394015 5.018991 -2.708995 4.107895 4.07003 -10.1474 0 0 0 0 0 0 2.436253 0.611547 -9.252676 -10.053961 -8.505804 -107.386187 -10.462514 -38.804639 -7.689988 -11.269293 0.399297 -3.686055 0.050398 -0.112372 -7.390756 2.685625 0.615552 -25.815582 1.726594 0.246685 -16.262007 4.025365 0.888167 -20.644447 -0.973583 0.840604 -30.562561 4.935749 2.467071 -53.095435 1.220418 0.121036 -11.511016 2.957645 0.755577 -28.655965 2.347142 0.464184 -22.37245 1.243028 0.065507 -15.880519 4.053898 1.519159 -41.074051 3.366919 1.000162 -33.081724 12.807951 2.333457 9.419525 20.415874 0.538605 9.69099 19.121726 3.983046 4.028004 5.457581 0.506648 12.688682 -5.400051 -3.125083 83.049872 8.339004 -38.946362 7.759824 -1.498906 -11.292398 3.163103 -0.168472 -0.109156 8.350031 -2.160859 0.386531 20.280957 -1.128944 0.103093 10.435347 -2.243145 0.36816 24.460303 -3.274174 0.928942 31.671551 -5.224896 2.828946 56.841654 -1.032635 0.085197 9.629588 -3.302605 0.946583 31.978723 -2.065078 0.360421 19.377809 -2.508611 0.554 18.813988 -3.848751 1.329492 38.101753 -3.838231 1.330336 38.036558 -8.288905 -3.703672 -6.074452 -23.144311 8.672824 -11.912 -12.785699 5.85213 -4.199655 21.811117 -85.200375 6.312541 -4.391717 88.1294 6.54643 1.020598 -4.504035 -8.527944 0.000006 -2.744247 -0.000009 -15.572211 -66.764132 12.82751 -8.099267 94.406871 -5.780553 -0.621799 -26.056274 -3.887817 -0.000003 -5.315938 0
-0.127265 -4.165365 -0.29319 -6.243817 -9.446315 -4.507538 -1.469617 -8.189776 5.266172 -3.88336 -3.654191 13.25564 -0.000026 -1.767473 -0.000029 0.393979 5.064484 -2.709024 4.107992 4.167904 -10.147474 0 0 0 0 0 0 2.436259 0.611541 -9.252674 -9.670099 -8.840856 -107.270776 -10.39874 -38.896894 -7.691572 -11.323002 0.473014 -3.620118 0.050398 -0.112372 -7.390756 2.685625 0.615552 -25.815582 1.726594 0.246685 -16.262007 4.025365 0.888167 -20.644447 -0.973583 0.840604 -30.562561 4.935749 2.467071 -53.095435 1.220418 0.121036 -11.511016 2.957645 0.755577 -28.655965 2.347142 0.464184 -22.37245 1.243028 0.065507 -15.880519 4.053898 1.519159 -41.074051 3.366919 1.000162 -33.081724 12.807951 2.333457 9.419525 20.415874 0.538605 9.69099 19.121726 3.983046 4.028004 5.457576 0.506644 12.688684 -5.542451 -3.197296 82.957262 8.293377 -38.956038 7.759972 -1.45145 -11.269076 3.111095 -0.168472 -0.109156 8.350031 -2.160859 0.386531 20.280957 -1.128944 0.103093 10.435347 -2.243145 0.36816 24.460303 -3.274174 0.928942 31.671551 -5.224896 2.828946 56.841654 -1.032635 0.085197 9.629588 -3.302605 0.946583 31.978723 -2.065078 0.360421 19.377809 -2.508611 0.554 18.813988 -3.848751 1.329492 38.101753 -3.838231 1.330336 38.036558 -8.288905 -3.703672 -6.074452 -23.144311 8.672824 -11.912 -12.785699 5.85213 -4.199655 21.811117 -85.200375 6.312541 -4.391717 88.1294 6.54643 1.020598 -4.504035 -8.527944 0.000006 -2.744247 -0.000009 -15.572211 -66.764132 12.82751 -8.099267 94.406871 -5.780553 -0.621799 -26.056274 -3.887817 -0.000003 -5.315938 0
-0.127265 -4.165365 -0.29319 -6.243817 -9.446315 -4.507538 -1.469617 -8.189776 5.266172 -3.883352 -3.675382 13.255648 -0.000019 -1.837364 -0.00002 0.393945 5.106854 -2.70905 4.108102 4.259789 -10.147543 0 0 0 0 0 0 2.436249 0.611547 -9.252672 -9.306416 -9.159438 -107.167173 -10.339553 -38.979656 -7.692978 -11.371514 0.540072 -3.560196 0.050398 -0.112372 -7.390756 2.685625 0.615552 -25.815582 1.726594 0.246685 -16.262007 4.025365 0.888167 -20.644447 -0.973583 0.840604 -30.562561 4.935749 2.467071 -53.095435 1.220418 0.121036 -11.511016 2.957645 0.755577 -28.655965 2.347142 0.464184 -22.37245 1.243028 0.065507 -15.880519 4.053898 1.519159 -41.074051 3.366919 1.000162 -33.081724 12.807951 2.333457 9.419525 20.415874 0.538605 9.69099 19.121726 3.983046 4.028004 5.457586 0.506647 12.688684 -5.676197 -3.266105 82.872466 8.251132 -38.964035 7.760099 -1.408153 -11.247667 3.063089 -0.168472 -0.109156 8.350031 -2.160859 0.386531 20.280957 -1.128944 0.103093 10.435347 -2.243145 0.36816 24.460303 -3.274174 0.928942 31.671551 -5.224896 2.828946 56.841654 -1.032635 0.085197 9.629588 -3.302605 0.946583 31.978723 -2.065078 0.360421 19.377809 -2.508611 0.554 18.813988 -3.848751 1.329492 38.101753 -3.838231 1.330336 38.036558 -8.288905 -3.703672 -6.074452 -23.144311 8.672824 -11.912 -12.785699 5.85213 -4.199655 21.811117 -85.200375 6.312541 -4.391717 88.1294 6.54643 1.020598 -4.504035 -8.527944 0.000006 -2.744247 -0.000009 -15.572211 -66.764132 12.82751 -8.099267 94.406871 -5.780553 -0.621799 -26.056274 -3.887817 -0.000003 -5.315938 0
-0.127265 -4.165365 -0.29319 -6.243817 -9.446315 -4.507538 -1.469617 -8.189776 5.266172 -3.883346 -3.693887 13.255655 -0.000012 -1.898479 -0.000012 0.393915 5.143892 -2.709073 4.108217 4.341758 -10.147604 0 0 0 0 0 0 2.436257 0.611549 -9.252677 -8.986318 -9.440545 -107.080997 -10.287896 -39.047881 -7.694146 -11.412033 0.596514 -3.509554 0.050398 -0.112372 -7.390756 2.685625 0.615552 -25.815582 1.726594 0.246685 -16.262007 4.025365 0.888167 -20.644447 -0.973583 0.840604 -30.562561 4.935749 2.467071 -53.095435 1.220418 0.121036 -11.511016 2.957645 0.755577 -28.655965 2.347142 0.464184 -22.37245 1.243028 0.065507 -15.880519 4.053898 1.519159 -41.074051 3.366919 1.000162 -33.081724 12.807951 2.333457 9.419525 20.415874 0.538605 9.69099 19.121726 3.983046 4.028004 5.457582 0.506648 12.688682 -5.793671 -3.327369 82.800013 8.21434 -38.969726 7.760193 -1.371295 -11.229453 3.021681 -0.168472 -0.109156 8.350031 -2.160859 0.386531 20.280957 -1.128944 0.103093 10.435347 -2.243145 0.36816 24.460303 -3.274174 0.928942 31.671551 -5.224896 2.828946 56.841654 -1.032635 0.085197 9.629588 -3.302605 0.946583 31.978723 -2.065078 0.360421 19.377809 -2.508611 0.554 18.813988 -3.848751 1.329492 38.101753 -3.838231 1.330336 38.036558 -8.288905 -3.703672 -6.074452 -23.144311 8.672824 -11.912 -12.785699 5.85213 -4.199655 21.811117 -85.200375 6.312541 -4.391717 88.1294 6.54643 1.020598 -4.504035 -8.527944 0.000006 -2.744247 -0.000009 -15.572211 -66.764132 12.82751 -8.099267 94.406871 -5.780553 -0.621799 -26.056274 -3.887817 -0.000003 -5.315938 0
-0.127265 -4.165365 -0.29319 -6.243817 -9.446315 -4.507538 -1.469617 -8.189776 5.266172 -3.883341 -3.709167 13.25566 -0.000006 -1.948903 -0.000006 0.393891 5.174448 -2.709092 4.10833 4.411544 -10.147656 0 0 0 0 0 0 2.436256 0.611552 -9.252674 -8.721412 -9.673548 -107.013474 -10.245389 -39.100494 -7.69503 -11.443874 0.641193 -3.469189 0.050398 -0.112372 -7.390756 2.685625 0.615552 -25.815582 1.726594 0.246685 -16.262007 4.025365 0.888167 -20.644447 -0.973583 0.840604 -30.562561 4.935749 2.467071 -53.095435 1.220418 0.121036 -11.511016 2.957645 0.755577 -28.655965 2.347142 0.464184 -22.37245 1.243028 0.065507 -15.880519 4.053898 1.519159 -41.074051 3.366919 1.000162 -33.081724 12.807951 2.333457 9.419525 20.415874 0.538605 9.69099 19.121726 3.983046 4.028004 5.45758 0.506649 12.688681 -5.890909 -3.37869 82.741613 8.184154 -38.973245 7.760236 -1.341721 -11.214907 2.987946 -0.168472 -0.109156 8.350031 -2.160859 0.386531 20.280957 -1.128944 0.103093 10.435347 -2.243145 0.36816 24.460303 -3.274174 0.928942 31.671551 -5.224896 2.828946 56.841654 -1.032635 0.085197 9.629588 -3.302605 0.946583 31.978723 -2.065078 0.360421 19.377809 -2.508611 0.554 18.813988 -3.848751 1.329492 38.101753 -3.838231 1.330336 38.036558 -8.288905 -3.703672 -6.074452 -23.144311 8.672824 -11.912 -12.785699 5.85213 -4.199655 21.811117 -85.200375 6.312541 -4.391717 88.1294 6.54643 1.020598 -4.504035 -8.527944 0.000006 -2.744247 -0.000009 -15.572211 -66.764132 12.82751 -8.099267 94.406871 -5.780553 -0.621799 -26.056274 -3.887817 -0.000003 -5.315938 0
-0.127265 -4.165365 -0.29319 -6.243817 -9.446315 -4.507538 -1.469617 -8.189776 5.266172 -3.883337 -3.720021 13.255665 -0.000002 -1.984697 -0.000002 0.393873 5.196147 -2.709106 4.108427 4.463755 -10.147694 0 0 0 0 0 0 2.436255 0.611548 -9.252674 -8.534454 -9.838072 -106.96829 -10.215258 -39.134805 -7.695628 -11.465206 0.671316 -3.441643 0.050398 -0.112372 -7.390756 2.685625 0.615552 -25.815582 1.726594 0.246685 -16.262007 4.025365 0.888167 -20.644447 -0.973583 0.840604 -30.562561 4.935749 2.467071 -53.095435 1.220418 0.121036 -11.511016 2.957645 0.755577 -28.655965 2.347142 0.464184 -22.37245 1.243028 0.065507 -15.880519 4.053898 1.519159 -41.074051 3.366919 1.000162 -33.081724 12.807951 2.333457 9.419525 20.415874 0.538605 9.69099 19.121726 3.983046 4.028004 5.45758 0.506649 12.688681 -5.959894 -3.415455 82.701191 8.162786 -38.974802 7.760264 -1.321364 -11.205004 2.964356 -0.168472 -0.109156 8.350031 -2.160859 0.386531 20.280957 -1.128944 0.103093 10.435347 -2.243145 0.36816 24.460303 -3.274174 0.928942 31.671551 -5.224896 2.828946 56.841654 -1.032635 0.085197 9.629588 -3.302605 0.946583 31.978723 -2.065078 0.360421 19.377809 -2.508611 0.554 18.813988 -3.848751 1.329492 38.101753 -3.838231 1.330336 38.036558 -8.288905 -3.703672 -6.074452 -23.144311 8.672824 -11.912 -12.785699 5.85213 -4.199655 21.811117 -85.200375 6.312541 -4.391717 88.1294 6.54643 1.020598 -4.504035 -8.527944 0.000006 -2.744247 -0.000009 -15.572211 -66.764132 12.82751 -8.099267 94.406871 -5.780553 -0.621799 -26.056274 -3.887817 -0.000003 -5.315938 0
-0.127265 -4.165365 -0.29319 -6.243817 -9.446315 -4.507538 -1.469617 -8.189776 5.266172 -3.883335 -3.724661 13.255666 0 -2 0 0.393866 5.205426 -2.709111 4.108479 4.488029 -10.147712 0 0 0 0 0 0 2.436254 0.61155 -9.252674 -8.455646 -9.907351 -106.950106 -10.202414 -39.148114 -7.695861 -11.473749 0.68349 -3.43033 0.050398 -0.112372 -7.390756 2.685625 0.615552 -25.815582 1.726594 0.246685 -16.262007 4.025365 0.888167 -20.644447 -0.973583 0.840604 -30.562561 4.935749 2.467071 -53.095435 1.220418 0.121036 -11.511016 2.957645 0.755577 -28.655965 2.347142 0.464184 -22.37245 1.243028 0.065507 -15.880519 4.053898 1.519159 -41.074051 3.366919 1.000162 -33.081724 12.807951 2.333457 9.419525 20.415874 0.538605 9.69099 19.121726 3.983046 4.028004 5.45758 0.506649 12.688681 -5.989243 -3.431216 82.684338 8.153628 -38.975054 7.760273 -1.312914 -11.200975 2.954449 -0.168472 -0.109156 8.350031 -2.160859 0.386531 20.280957 -1.128944 0.103093 10.435347 -2.243145 0.36816 24.460303 -3.274174 0.928942 31.671551 -5.224896 2.828946 56.841654 -1.032635 0.085197 9.629588 -3.302605 0.946583 31.978723 -2.065078 0.360421 19.377809 -2.508611 0.554 18.813988 -3.848751 1.329492 38.101753 -3.838231 1.330336 38.036558 -8.288905 -3.703672 -6.074452 -23.144311 8.672824 -11.912 -12.785699 5.85213 -4.199655 21.811117 -85.200375 6.312541 -4.391717 88.1294 6.54643 1.020598 -4.504035 -8.527944 0.000006 -2.744247 -0.000009 -15.572211 -66.764132 12.82751 -8.099267 94.406871 -5.780553 -0.621799 -26.056274 -3.887817 -0.000003 -5.315938 0
