HIERARCHY
ROOT hips
{
  OFFSET 0 10.432787522119774 1.3615615910897314
  CHANNELS 6 Xposition Yposition Zposition Yrotation Xrotation Zrotation
  JOINT spine
  {
    OFFSET -7.042016674e-31 0.605849736412771 0
    CHANNELS 3 Yrotation Xrotation Zrotation
    JOINT chest
    {
      OFFSET 0 1.2699780403367527 0
      CHANNELS 3 Yrotation Xrotation Zrotation
      JOINT upperChest
      {
        OFFSET 0 1.217802795781373 0
        CHANNELS 3 Yrotation Xrotation Zrotation
        JOINT neck
        {
          OFFSET 0 1.524881793055447 0
          CHANNELS 3 Yrotation Xrotation Zrotation
          JOINT head
          {
            OFFSET 0 0.8197776686196176 0
            CHANNELS 3 Yrotation Xrotation Zrotation
            JOINT leftEye
            {
              OFFSET 0.27991711184325396 0.7377279215890094 0.1770057770610815
              CHANNELS 3 Yrotation Xrotation Zrotation
              End Site
              {
                OFFSET 0.27991711184325396 0.7377279215890094 0.1770057770610815
              }
            }
            JOINT rightEye
            {
              OFFSET -0.27991715118228666 0.7377278742074458 0.1770060973723161
              CHANNELS 3 Yrotation Xrotation Zrotation
              End Site
              {
                OFFSET -0.27991715118228666 0.7377278742074458 0.1770060973723161
              }
            }
          }
        }
        JOINT leftShoulder
        {
          OFFSET 0.4148696499235711 1.1670497283493415 0
          CHANNELS 3 Yrotation Xrotation Zrotation
          JOINT leftUpperArm
          {
            OFFSET 0.9737923520503171 0 0
            CHANNELS 3 Yrotation Xrotation Zrotation
            JOINT leftLowerArm
            {
              OFFSET 2.526933563002016 0 0
              CHANNELS 3 Yrotation Xrotation Zrotation
              JOINT leftHand
              {
                OFFSET 2.4263767061081287 0 0
                CHANNELS 3 Yrotation Xrotation Zrotation
                JOINT leftIndexProximal
                {
                  OFFSET 0.7243194303238094 0.08170604153373495 0.2036005707489045
                  CHANNELS 3 Yrotation Xrotation Zrotation
                  JOINT leftIndexIntermediate
                  {
                    OFFSET 0.365490110639793 -0.010566615565509085 -0.014147873305413783
                    CHANNELS 3 Yrotation Xrotation Zrotation
                    JOINT leftIndexDistal
                    {
                      OFFSET 0.22502693978020916 -0.007863122621388996 -0.007567729919505994
                      CHANNELS 3 Yrotation Xrotation Zrotation
                      End Site
                      {
                        OFFSET 0.22502693978020916 -0.007863122621388996 -0.007567729919505994
                      }
                    }
                  }
                }
                JOINT leftLittleProximal
                {
                  OFFSET 0.6720313867214986 0.0817059792423902 -0.3230034999786495
                  CHANNELS 3 Yrotation Xrotation Zrotation
                  JOINT leftLittleIntermediate
                  {
                    OFFSET 0.3458364459000005 5.4765410650858826e-8 2.495506794542024e-7
                    CHANNELS 3 Yrotation Xrotation Zrotation
                    JOINT leftLittleDistal
                    {
                      OFFSET 0.19925722030351722 0.003096736260194355 0.0038306323169590983
                      CHANNELS 3 Yrotation Xrotation Zrotation
                      End Site
                      {
                        OFFSET 0.19925722030351722 0.003096736260194355 0.0038306323169590983
                      }
                    }
                  }
                }
                JOINT leftMiddleProximal
                {
                  OFFSET 0.7300446999180792 0.08170730820222194 0.0226618663244387
                  CHANNELS 3 Yrotation Xrotation Zrotation
                  JOINT leftMiddleIntermediate
                  {
                    OFFSET 0.40758107610000327 -0.0000012383582372876845 3.721937498757377e-7
                    CHANNELS 3 Yrotation Xrotation Zrotation
                    JOINT leftMiddleDistal
                    {
                      OFFSET 0.2514495697999991 7.561061998728746e-8 -1.6055895105115958e-7
                      CHANNELS 3 Yrotation Xrotation Zrotation
                      End Site
                      {
                        OFFSET 0.2514495697999991 7.561061998728746e-8 -1.6055895105115958e-7
                      }
                    }
                  }
                }
                JOINT leftRingProximal
                {
                  OFFSET 0.7217264995692599 0.08170598771388815 -0.1504338786787948
                  CHANNELS 3 Yrotation Xrotation Zrotation
                  JOINT leftRingIntermediate
                  {
                    OFFSET 0.3780872700000014 6.409956210262635e-8 3.723059401883333e-7
                    CHANNELS 3 Yrotation Xrotation Zrotation
                    JOINT leftRingDistal
                    {
                      OFFSET 0.21812031524459563 -0.00271347557699686 -0.004991351593452126
                      CHANNELS 3 Yrotation Xrotation Zrotation
                      End Site
                      {
                        OFFSET 0.21812031524459563 -0.00271347557699686 -0.004991351593452126
                      }
                    }
                  }
                }
                JOINT leftThumbProximal
                {
                  OFFSET 0.10793670302222891 -0.165278914300383 -0.07775358168875651
                  CHANNELS 3 Yrotation Xrotation Zrotation
                  JOINT leftThumbIntermediate
                  {
                    OFFSET 0.40355763830204994 -0.017484092948475194 0.31777731504028983
                    CHANNELS 3 Yrotation Xrotation Zrotation
                    JOINT leftThumbDistal
                    {
                      OFFSET 0.2318770514136803 -0.018507879151339335 0.21396002480314588
                      CHANNELS 3 Yrotation Xrotation Zrotation
                      End Site
                      {
                        OFFSET 0.2318770514136803 -0.018507879151339335 0.21396002480314588
                      }
                    }
                  }
                }
              }
            }
          }
        }
        JOINT rightShoulder
        {
          OFFSET -0.4148696499235712 1.1670497283493415 0
          CHANNELS 3 Yrotation Xrotation Zrotation
          JOINT rightUpperArm
          {
            OFFSET -0.9737923520503168 0 0
            CHANNELS 3 Yrotation Xrotation Zrotation
            JOINT rightLowerArm
            {
              OFFSET -2.5269335630020175 0 0
              CHANNELS 3 Yrotation Xrotation Zrotation
              JOINT rightHand
              {
                OFFSET -2.4263767061081274 0 0
                CHANNELS 3 Yrotation Xrotation Zrotation
                JOINT rightIndexProximal
                {
                  OFFSET -0.7243194303238094 0.08170604153373495 0.2036005707489045
                  CHANNELS 3 Yrotation Xrotation Zrotation
                  JOINT rightIndexIntermediate
                  {
                    OFFSET -0.365490110639793 -0.010566615565509085 -0.014147873305413783
                    CHANNELS 3 Yrotation Xrotation Zrotation
                    JOINT rightIndexDistal
                    {
                      OFFSET -0.22502693978020916 -0.007863122621388996 -0.007567729919505994
                      CHANNELS 3 Yrotation Xrotation Zrotation
                      End Site
                      {
                        OFFSET -0.22502693978020916 -0.007863122621388996 -0.007567729919505994
                      }
                    }
                  }
                }
                JOINT rightLittleProximal
                {
                  OFFSET -0.6720313867214986 0.0817059792423902 -0.3230034999786495
                  CHANNELS 3 Yrotation Xrotation Zrotation
                  JOINT rightLittleIntermediate
                  {
                    OFFSET -0.3458364459000005 5.4765410650858826e-8 2.495506794542024e-7
                    CHANNELS 3 Yrotation Xrotation Zrotation
                    JOINT rightLittleDistal
                    {
                      OFFSET -0.19925722030351722 0.003096736260194355 0.0038306323169590983
                      CHANNELS 3 Yrotation Xrotation Zrotation
                      End Site
                      {
                        OFFSET -0.19925722030351722 0.003096736260194355 0.0038306323169590983
                      }
                    }
                  }
                }
                JOINT rightMiddleProximal
                {
                  OFFSET -0.7300446999180792 0.08170730820222194 0.0226618663244387
                  CHANNELS 3 Yrotation Xrotation Zrotation
                  JOINT rightMiddleIntermediate
                  {
                    OFFSET -0.40758107610000327 -0.0000012383582372876845 3.721937498757377e-7
                    CHANNELS 3 Yrotation Xrotation Zrotation
                    JOINT rightMiddleDistal
                    {
                      OFFSET -0.2514495697999991 7.561061998728746e-8 -1.6055895105115958e-7
                      CHANNELS 3 Yrotation Xrotation Zrotation
                      End Site
                      {
                        OFFSET -0.2514495697999991 7.561061998728746e-8 -1.6055895105115958e-7
                      }
                    }
                  }
                }
                JOINT rightRingProximal
                {
                  OFFSET -0.7217264995692599 0.08170598771388815 -0.1504338786787948
                  CHANNELS 3 Yrotation Xrotation Zrotation
                  JOINT rightRingIntermediate
                  {
                    OFFSET -0.3780872700000014 6.409956210262635e-8 3.723059401883333e-7
                    CHANNELS 3 Yrotation Xrotation Zrotation
                    JOINT rightRingDistal
                    {
                      OFFSET -0.21812031524459563 -0.00271347557699686 -0.004991351593452126
                      CHANNELS 3 Yrotation Xrotation Zrotation
                      End Site
                      {
                        OFFSET -0.21812031524459563 -0.00271347557699686 -0.004991351593452126
                      }
                    }
                  }
                }
                JOINT rightThumbProximal
                {
                  OFFSET -0.10793670302222891 -0.165278914300383 -0.07775358168875651
                  CHANNELS 3 Yrotation Xrotation Zrotation
                  JOINT rightThumbIntermediate
                  {
                    OFFSET -0.40355763830204994 -0.017484092948475194 0.31777731504028983
                    CHANNELS 3 Yrotation Xrotation Zrotation
                    JOINT rightThumbDistal
                    {
                      OFFSET -0.2318770514136803 -0.018507879151339335 0.21396002480314588
                      CHANNELS 3 Yrotation Xrotation Zrotation
                      End Site
                      {
                        OFFSET -0.2318770514136803 -0.018507879151339335 0.21396002480314588
                      }
                    }
                  }
                }
              }
            }
          }
        }
      }
    }
  }
  JOINT leftUpperLeg
  {
    OFFSET 0.8486251400000001 -0.44215692923454897 0
    CHANNELS 3 Yrotation Xrotation Zrotation
    JOINT leftLowerLeg
    {
      OFFSET 0 -4.1014783730019015 0
      CHANNELS 3 Yrotation Xrotation Zrotation
      JOINT leftFoot
      {
        OFFSET -0.0002543926242001143 -4.7729227580453255 0.007402839656626761
        CHANNELS 3 Yrotation Xrotation Zrotation
        JOINT leftToes
        {
          OFFSET 0 -0.7027876860119923 1.2062921852216233
          CHANNELS 3 Yrotation Xrotation Zrotation
          End Site
          {
            OFFSET 0 -0.7027876860119923 1.2062921852216233
          }
        }
      }
    }
  }
  JOINT rightUpperLeg
  {
    OFFSET -0.8486251400000001 -0.44215692923454897 0
    CHANNELS 3 Yrotation Xrotation Zrotation
    JOINT rightLowerLeg
    {
      OFFSET 0 -4.1014783730019015 0
      CHANNELS 3 Yrotation Xrotation Zrotation
      JOINT rightFoot
      {
        OFFSET 0.0002543926242001143 -4.7729227580453255 0.007402839656626761
        CHANNELS 3 Yrotation Xrotation Zrotation
        JOINT rightToes
        {
          OFFSET 0 -0.7027876860119923 1.2062921852216233
          CHANNELS 3 Yrotation Xrotation Zrotation
          End Site
          {
            OFFSET 0 -0.7027876860119923 1.2062921852216233
          }
        }
      }
    }
  }
}
MOTION
Frames: 32
Frame Time: 0.03333333333333333
-0.127265 -0.365365 0.02681 -6.243817 -3.446315 -4.507538 -1.469617 -2.189776 5.266172 -3.883335 0.275339 13.255666 0 0 0 0.393866 5.205426 -2.709111 4.108479 2.488029 -10.147712 0 0 0 0 0 0 2.436254 0.61155 -9.252674 -16.455646 8.092649 -76.950106 -13.202414 -1.148114 0.304139 -11.473749 0.68349 -3.43033 0.050398 -0.112372 -7.390756 2.685625 0.615552 -25.815582 1.726594 0.246685 -16.262007 4.025365 0.888167 -20.644447 -0.973583 0.840604 -30.562561 4.935749 2.467071 -53.095435 1.220418 0.121036 -11.511016 2.957645 0.755577 -28.655965 2.347142 0.464184 -22.37245 1.243028 0.065507 -15.880519 4.053898 1.519159 -41.074051 3.366919 1.000162 -33.081724 12.807951 2.333457 9.419525 20.415874 0.538605 9.69099 19.121726 3.983046 4.028004 5.45758 0.506649 12.688681 2.010757 14.568784 52.684338 11.153628 -0.975054 -0.239727 -1.312914 -11.200975 2.954449 -0.168472 -0.109156 8.350031 -2.160859 0.386531 20.280957 -1.128944 0.103093 10.435347 -2.243145 0.36816 24.460303 -3.274174 0.928942 31.671551 -5.224896 2.828946 56.841654 -1.032635 0.085197 9.629588 -3.302605 0.946583 31.978723 -2.065078 0.360421 19.377809 -2.508611 0.554 18.813988 -3.848751 1.329492 38.101753 -3.838231 1.330336 38.036558 -8.288905 -3.703672 -6.074452 -23.144311 8.672824 -11.912 -12.785699 5.85213 -4.199655 14.811117 -21.200375 11.312541 -4.391717 16.1294 2.54643 0.020598 5.495965 -9.527944 0.000006 2.255753 -0.000009 -8.572211 -2.764132 7.82751 -8.099267 22.406871 -1.780553 0.378201 -16.056274 -2.887817 -0.000003 -0.315938 0
-0.12718 -0.435573 0.00995 -6.020976 -3.111264 -4.60447 -1.469617 -2.189773 5.266172 -3.883317 0.310505 13.255687 0.000094 0.11603 0.000101 0.393846 5.135095 -2.709124 4.104953 2.625513 -10.147655 0 0 0 0 0 0 2.436255 0.61156 -9.252672 -19.339551 10.060705 -76.779482 -12.59787 -2.068587 0.291164 -11.665731 0.803681 -3.364439 0.050398 -0.112372 -7.390756 2.685625 0.615552 -25.815582 1.726594 0.246685 -16.262007 4.025365 0.888167 -20.644447 -0.973583 0.840604 -30.562561 4.935749 2.467071 -53.095435 1.220418 0.121036 -11.511016 2.957645 0.755577 -28.655965 2.347142 0.464184 -22.37245 1.243028 0.065507 -15.880519 4.053898 1.519159 -41.074051 3.366919 1.000162 -33.081724 12.807951 2.333457 9.419525 20.415874 0.538605 9.69099 19.121726 3.983046 4.028004 5.457586 0.506649 12.688681 4.71726 16.309787 52.273849 11.561149 -0.847418 -0.24204 -1.596528 -11.817591 3.378367 -0.168472 -0.109156 8.350031 -2.160859 0.386531 20.280957 -1.128944 0.103093 10.435347 -2.243145 0.36816 24.460303 -3.274174 0.928942 31.671551 -5.224896 2.828946 56.841654 -1.032635 0.085197 9.629588 -3.302605 0.946583 31.978723 -2.065078 0.360421 19.377809 -2.508611 0.554 18.813988 -3.848751 1.329492 38.101753 -3.838231 1.330336 38.036558 -8.288905 -3.703672 -6.074452 -23.144311 8.672824 -11.912 -12.785699 5.85213 -4.199655 14.705469 -22.219897 11.378781 -4.405847 16.53006 2.639402 -0.344302 5.38936 -9.630444 0.000006 2.255754 -0.000009 -8.373819 -5.718625 9.711418 -6.4608 26.88054 -5.316822 0.444102 -16.934448 -1.832508 0.081122 -1.576493 -0.003931
-0.127029 -0.505892 -0.007033 -5.472375 -2.289173 -4.815421 -1.469617 -2.189775 5.266172 -3.883261 0.39589 13.255734 0.00032 0.397778 0.000345 0.393796 4.964338 -2.709152 4.097519 2.961001 -10.147703 0 0 0 0 0 0 2.436257 0.611553 -9.252672 -25.96479 14.639171 -76.654364 -11.459097 -4.177127 0.257564 -12.065454 1.125624 -3.229624 0.050398 -0.112372 -7.390756 2.685625 0.615552 -25.815582 1.726594 0.246685 -16.262007 4.025365 0.888167 -20.644447 -0.973583 0.840604 -30.562561 4.935749 2.467071 -53.095435 1.220418 0.121036 -11.511016 2.957645 0.755577 -28.655965 2.347142 0.464184 -22.37245 1.243028 0.065507 -15.880519 4.053898 1.519159 -41.074051 3.366919 1.000162 -33.081724 12.807951 2.333457 9.419525 20.415874 0.538605 9.69099 19.121726 3.983046 4.028004 5.457585 0.506649 12.688682 11.763796 21.054553 51.701174 12.438193 -0.659859 -0.245164 -2.07596 -13.200184 4.360662 -0.168472 -0.109156 8.350031 -2.160859 0.386531 20.280957 -1.128944 0.103093 10.435347 -2.243145 0.36816 24.460303 -3.274174 0.928942 31.671551 -5.224896 2.828946 56.841654 -1.032635 0.085197 9.629588 -3.302605 0.946583 31.978723 -2.065078 0.360421 19.377809 -2.508611 0.554 18.813988 -3.848751 1.329492 38.101753 -3.838231 1.330336 38.036558 -8.288905 -3.703672 -6.074452 -23.144311 8.672824 -11.912 -12.785699 5.85213 -4.199655 14.448462 -24.731293 11.534876 -4.445312 17.56194 2.878862 -1.237352 5.106191 -9.879184 0.000005 2.255754 -0.000009 -7.717972 -11.015447 12.144321 -2.98251 34.014911 -9.892738 0.292829 -17.456198 0.306105 0.244244 -4.118498 -0.030949
-0.126949 -0.577463 -0.02411 -4.679212 -1.105186 -5.054504 -1.469617 -2.189773 5.266172 -3.88318 0.519739 13.255801 0.000644 0.806506 0.000703 0.393722 4.716622 -2.709192 4.089691 3.43415 -10.148129 0 0 0 0 0 0 2.436255 0.611552 -9.252677 -33.987543 20.170646 -77.004486 -10.691812 -6.856606 0.208337 -12.444848 1.63276 -3.090486 0.050398 -0.112372 -7.390756 2.685625 0.615552 -25.815582 1.726594 0.246685 -16.262007 4.025365 0.888167 -20.644447 -0.973583 0.840604 -30.562561 4.935749 2.467071 -53.095435 1.220418 0.121036 -11.511016 2.957645 0.755577 -28.655965 2.347142 0.464184 -22.37245 1.243028 0.065507 -15.880519 4.053898 1.519159 -41.074051 3.366919 1.000162 -33.081724 12.807951 2.333457 9.419525 20.415874 0.538605 9.69099 19.121726 3.983046 4.028004 5.457585 0.506647 12.688685 21.802306 27.97631 51.938385 13.600787 -0.604406 -0.2458 -2.367856 -14.944427 5.64771 -0.168472 -0.109156 8.350031 -2.160859 0.386531 20.280957 -1.128944 0.103093 10.435347 -2.243145 0.36816 24.460303 -3.274174 0.928942 31.671551 -5.224896 2.828946 56.841654 -1.032635 0.085197 9.629588 -3.302605 0.946583 31.978723 -2.065078 0.360421 19.377809 -2.508611 0.554 18.813988 -3.848751 1.329492 38.101753 -3.838231 1.330336 38.036558 -8.288905 -3.703672 -6.074452 -23.144311 8.672824 -11.912 -12.785699 5.85213 -4.199655 14.087996 -28.33944 11.753326 -4.506651 19.096195 3.236773 -2.519468 4.676663 -10.231716 0.000005 2.255755 -0.000009 -6.566041 -17.756886 13.908349 1.599197 41.908091 -13.415881 -0.366733 -17.945185 2.677232 0.406639 -6.667607 -0.083825
-0.127057 -0.651536 -0.041264 -3.729786 0.310172 -5.242861 -1.469616 -2.189775 5.266172 -3.883081 0.672799 13.255887 0.001037 1.311588 0.001158 0.393631 4.410505 -2.709245 4.084614 3.979139 -10.149005 0 0 0 0 0 0 2.436252 0.611559 -9.252672 -40.89785 24.784368 -77.803963 -11.141692 -9.530314 0.160789 -12.593306 2.294009 -2.988274 0.050398 -0.112372 -7.390756 2.685625 0.615552 -25.815582 1.726594 0.246685 -16.262007 4.025365 0.888167 -20.644447 -0.973583 0.840604 -30.562561 4.935749 2.467071 -53.095435 1.220418 0.121036 -11.511016 2.957645 0.755577 -28.655965 2.347142 0.464184 -22.37245 1.243028 0.065507 -15.880519 4.053898 1.519159 -41.074051 3.366919 1.000162 -33.081724 12.807951 2.333457 9.419525 20.415874 0.538605 9.69099 19.121726 3.983046 4.028004 5.45758 0.506649 12.688681 31.155319 34.109057 53.533744 15.185493 -0.700429 -0.244235 -2.200779 -16.639737 7.014468 -0.168472 -0.109156 8.350031 -2.160859 0.386531 20.280957 -1.128944 0.103093 10.435347 -2.243145 0.36816 24.460303 -3.274174 0.928942 31.671551 -5.224896 2.828946 56.841654 -1.032635 0.085197 9.629588 -3.302605 0.946583 31.978723 -2.065078 0.360421 19.377809 -2.508611 0.554 18.813988 -3.848751 1.329492 38.101753 -3.838231 1.330336 38.036558 -8.288905 -3.703672 -6.074452 -23.144311 8.672824 -11.912 -12.785699 5.85213 -4.199655 13.66796 -32.656669 12.004387 -4.588918 21.015932 3.68789 -4.049899 4.125919 -10.64543 0.000005 2.255754 -0.000009 -4.854578 -26.529639 14.981764 7.075031 50.97478 -15.92675 -1.407852 -19.799733 4.633117 0.486853 -7.937059 -0.120106
-0.127445 -0.730581 -0.058494 -2.729669 1.808535 -5.319781 -1.469617 -2.189773 5.266172 -3.883096 0.849595 13.255945 0.001081 1.895012 0.001504 0.39379 4.056916 -2.709266 4.085278 4.515527 -10.149927 0 0 0 0 0 0 2.436248 0.611557 -9.252675 -45.109769 27.46257 -78.547688 -13.3482 -11.71269 0.116461 -12.432489 3.087994 -2.942395 0.050398 -0.112372 -7.390756 2.685625 0.615552 -25.815582 1.726594 0.246685 -16.262007 4.025365 0.888167 -20.644447 -0.973583 0.840604 -30.562561 4.935749 2.467071 -53.095435 1.220418 0.121036 -11.511016 2.957645 0.755577 -28.655965 2.347142 0.464184 -22.37245 1.243028 0.065507 -15.880519 4.053898 1.519159 -41.074051 3.366919 1.000162 -33.081724 12.807951 2.333457 9.419525 20.415874 0.538605 9.69099 19.121726 3.983046 4.028004 5.457586 0.506647 12.68868 35.943553 36.689946 55.896843 17.591389 -0.756562 -0.243697 -1.252301 -17.635074 8.319946 -0.168472 -0.109156 8.350031 -2.160859 0.386531 20.280957 -1.128944 0.103093 10.435347 -2.243145 0.36816 24.460303 -3.274174 0.928942 31.671551 -5.224896 2.828946 56.841654 -1.032635 0.085197 9.629588 -3.302605 0.946583 31.978723 -2.065078 0.360421 19.377809 -2.508611 0.554 18.813988 -3.848751 1.329492 38.101753 -3.838231 1.330336 38.036558 -8.288905 -3.703672 -6.074452 -23.144311 8.672824 -11.912 -12.785699 5.85213 -4.199655 13.215983 -37.328372 12.236692 -4.701623 23.300579 4.22824 -5.674468 3.44 -11.077718 0.000005 2.255753 -0.000009 -3.036667 -36.107128 14.807706 12.101705 58.786063 -16.438826 -2.496677 -22.245394 5.783056 0.459166 -7.498804 -0.106626
-0.128019 -0.81614 -0.075761 -1.800973 3.212314 -5.288314 -1.469617 -2.189775 5.266172 -3.883266 1.038635 13.255937 0.000647 2.51886 0.00159 0.394287 3.678835 -2.709206 4.090739 4.963503 -10.150391 0 0 0 0 0 0 2.436253 0.611556 -9.252677 -47.135937 28.734142 -78.852428 -16.456959 -13.353863 0.087921 -12.254456 3.96324 -2.949869 0.050398 -0.112372 -7.390756 2.685625 0.615552 -25.815582 1.726594 0.246685 -16.262007 4.025365 0.888167 -20.644447 -0.973583 0.840604 -30.562561 4.935749 2.467071 -53.095435 1.220418 0.121036 -11.511016 2.957645 0.755577 -28.655965 2.347142 0.464184 -22.37245 1.243028 0.065507 -15.880519 4.053898 1.519159 -41.074051 3.366919 1.000162 -33.081724 12.807951 2.333457 9.419525 20.415874 0.538605 9.69099 19.121726 3.983046 4.028004 5.457585 0.506645 12.688682 36.081517 36.351798 57.615933 20.556379 -0.511017 -0.249866 0.656513 -17.417944 9.548757 -0.168472 -0.109156 8.350031 -2.160859 0.386531 20.280957 -1.128944 0.103093 10.435347 -2.243145 0.36816 24.460303 -3.274174 0.928942 31.671551 -5.224896 2.828946 56.841654 -1.032635 0.085197 9.629588 -3.302605 0.946583 31.978723 -2.065078 0.360421 19.377809 -2.508611 0.554 18.813988 -3.848751 1.329492 38.101753 -3.838231 1.330336 38.036558 -8.288905 -3.703672 -6.074452 -23.144311 8.672824 -11.912 -12.785699 5.85213 -4.199655 12.76048 -41.9294 12.410325 -4.862627 25.87752 4.833769 -7.205654 2.619353 -11.474059 0.000005 2.255754 -0.000009 -1.598368 -45.234267 13.648835 16.022228 64.095951 -15.220782 -3.480071 -23.446299 6.567885 0.393532 -6.463025 -0.078043
-0.128645 -0.91053 -0.093006 -1.041068 4.375144 -5.187123 -1.469617 -2.189773 5.266172 -3.883515 1.232713 13.255863 -0.00001 3.159305 0.001417 0.394967 3.290688 -2.709047 4.098778 5.252364 -10.150239 0 0 0 0 0 0 2.436251 0.611554 -9.252677 -47.624933 29.139387 -78.545302 -19.754975 -14.384108 0.075216 -12.316877 4.627831 -3.072405 0.050398 -0.112372 -7.390756 2.685625 0.615552 -25.815582 1.726594 0.246685 -16.262007 4.025365 0.888167 -20.644447 -0.973583 0.840604 -30.562561 4.935749 2.467071 -53.095435 1.220418 0.121036 -11.511016 2.957645 0.755577 -28.655965 2.347142 0.464184 -22.37245 1.243028 0.065507 -15.880519 4.053898 1.519159 -41.074051 3.366919 1.000162 -33.081724 12.807951 2.333457 9.419525 20.415874 0.538605 9.69099 19.121726 3.983046 4.028004 5.457585 0.506647 12.688683 33.695426 34.837621 58.077584 22.932194 -0.025142 -0.25655 3.553798 -15.885026 10.84885 -0.168472 -0.109156 8.350031 -2.160859 0.386531 20.280957 -1.128944 0.103093 10.435347 -2.243145 0.36816 24.460303 -3.274174 0.928942 31.671551 -5.224896 2.828946 56.841654 -1.032635 0.085197 9.629588 -3.302605 0.946583 31.978723 -2.065078 0.360421 19.377809 -2.508611 0.554 18.813988 -3.848751 1.329492 38.101753 -3.838231 1.330336 38.036558 -8.288905 -3.703672 -6.074452 -23.144311 8.672824 -11.912 -12.785699 5.85213 -4.199655 12.307028 -46.161142 12.480702 -5.101667 28.773358 5.496725 -8.484561 1.632987 -11.790638 0.000005 2.255755 -0.000009 -0.96174 -52.552077 11.719565 18.546722 65.695904 -12.511088 -4.32393 -22.943608 6.796845 0.303673 -5.051496 -0.046273
-0.129143 -1.016307 -0.110136 -0.537829 5.154887 -5.08081 -1.469617 -2.189776 5.266172 -3.883767 1.423666 13.255719 -0.000645 3.789418 0.001008 0.395678 2.908786 -2.708768 4.106049 5.313396 -10.149614 0 0 0 0 0 0 2.436252 0.611558 -9.252675 -47.383799 29.202652 -77.690096 -22.835305 -14.61445 0.074894 -12.641223 4.51442 -3.405441 0.050398 -0.112372 -7.390756 2.685625 0.615552 -25.815582 1.726594 0.246685 -16.262007 4.025365 0.888167 -20.644447 -0.973583 0.840604 -30.562561 4.935749 2.467071 -53.095435 1.220418 0.121036 -11.511016 2.957645 0.755577 -28.655965 2.347142 0.464184 -22.37245 1.243028 0.065507 -15.880519 4.053898 1.519159 -41.074051 3.366919 1.000162 -33.081724 12.807951 2.333457 9.419525 20.415874 0.538605 9.69099 19.121726 3.983046 4.028004 5.457586 0.506655 12.688682 32.743094 34.315045 57.893252 23.610753 0.23938 -0.259584 6.623773 -13.721887 12.463812 -0.168472 -0.109156 8.350031 -2.160859 0.386531 20.280957 -1.128944 0.103093 10.435347 -2.243145 0.36816 24.460303 -3.274174 0.928942 31.671551 -5.224896 2.828946 56.841654 -1.032635 0.085197 9.629588 -3.302605 0.946583 31.978723 -2.065078 0.360421 19.377809 -2.508611 0.554 18.813988 -3.848751 1.329492 38.101753 -3.838231 1.330336 38.036558 -8.288905 -3.703672 -6.074452 -23.144311 8.672824 -11.912 -12.785699 5.85213 -4.199655 11.855526 -49.739933 12.403079 -5.459112 32.037392 6.202482 -9.348735 0.443206 -11.983223 0.000005 2.255755 -0.000009 -1.107767 -57.483098 9.505211 20.345827 64.219777 -8.87597 -5.015126 -21.162986 6.387472 0.20353 -3.485438 -0.020541
-0.129287 -1.139718 -0.126483 -0.405552 5.361575 -5.046935 -1.469617 -2.189774 5.266172 -3.883922 1.596529 13.255502 -0.000941 4.35991 0.000384 0.39622 2.563057 -2.70833 4.108399 5.060798 -10.148866 0 0 0 0 0 0 2.436255 0.611556 -9.252674 -46.654662 29.013659 -76.472767 -25.09236 -13.861191 0.091952 -13.183093 3.537629 -3.954951 0.050398 -0.112372 -7.390756 2.685625 0.615552 -25.815582 1.726594 0.246685 -16.262007 4.025365 0.888167 -20.644447 -0.973583 0.840604 -30.562561 4.935749 2.467071 -53.095435 1.220418 0.121036 -11.511016 2.957645 0.755577 -28.655965 2.347142 0.464184 -22.37245 1.243028 0.065507 -15.880519 4.053898 1.519159 -41.074051 3.366919 1.000162 -33.081724 12.807951 2.333457 9.419525 20.415874 0.538605 9.69099 19.121726 3.983046 4.028004 5.457584 0.506647 12.688681 34.348062 35.35297 57.458509 22.832388 0.195834 -0.258971 9.080303 -11.109705 14.314302 -0.168472 -0.109156 8.350031 -2.160859 0.386531 20.280957 -1.128944 0.103093 10.435347 -2.243145 0.36816 24.460303 -3.274174 0.928942 31.671551 -5.224896 2.828946 56.841654 -1.032635 0.085197 9.629588 -3.302605 0.946583 31.978723 -2.065078 0.360421 19.377809 -2.508611 0.554 18.813988 -3.848751 1.329492 38.101753 -3.838231 1.330336 38.036558 -8.288905 -3.703672 -6.074452 -23.144311 8.672824 -11.912 -12.785699 5.85213 -4.199655 11.399405 -52.361057 12.108773 -6.001931 35.800819 6.928562 -9.578478 -0.982483 -11.997387 0.000006 2.255755 -0.000009 -1.762224 -59.822994 7.443002 22.219646 61.150314 -5.039734 -5.579146 -18.893186 5.469033 0.11036 -2.032159 -0.006213
-0.129287 -1.286338 -0.138671 -0.405552 5.361575 -5.046935 -1.469617 -2.189774 5.266172 -3.883918 1.734638 13.255233 -0.000709 4.815672 -0.00037 0.39645 2.286831 -2.707743 4.108299 4.756974 -10.148181 0 0 0 0 0 0 2.436256 0.611552 -9.252675 -44.629218 27.922455 -74.978735 -28.095216 -12.313101 0.126277 -13.349271 2.408249 -4.526732 0.050398 -0.112372 -7.390756 2.685625 0.615552 -25.815582 1.726594 0.246685 -16.262007 4.025365 0.888167 -20.644447 -0.973583 0.840604 -30.562561 4.935749 2.467071 -53.095435 1.220418 0.121036 -11.511016 2.957645 0.755577 -28.655965 2.347142 0.464184 -22.37245 1.243028 0.065507 -15.880519 4.053898 1.519159 -41.074051 3.366919 1.000162 -33.081724 12.807951 2.333457 9.419525 20.415874 0.538605 9.69099 19.121726 3.983046 4.028004 5.457584 0.506651 12.688681 36.702342 36.835294 57.175471 22.323181 0.186685 -0.258716 10.663026 -8.346821 16.280134 -0.168472 -0.109156 8.350031 -2.160859 0.386531 20.280957 -1.128944 0.103093 10.435347 -2.243145 0.36816 24.460303 -3.274174 0.928942 31.671551 -5.224896 2.828946 56.841654 -1.032635 0.085197 9.629588 -3.302605 0.946583 31.978723 -2.065078 0.360421 19.377809 -2.508611 0.554 18.813988 -3.848751 1.329492 38.101753 -3.838231 1.330336 38.036558 -8.288905 -3.703672 -6.074452 -23.144311 8.672824 -11.912 -12.785699 5.85213 -4.199655 10.82558 -55.274964 11.712859 -6.728454 40.24672 7.709404 -9.581675 -2.363342 -11.998282 0.000005 2.255753 -0.000009 -2.38918 -61.730874 5.736698 24.529906 59.227436 -1.734997 -6.563414 -17.141774 4.405256 0.039194 -0.924926 -0.000883
-0.129287 -1.456612 -0.145418 -0.405552 5.361575 -5.046935 -1.469617 -2.189774 5.266172 -3.879942 1.811426 13.24711 0.016089 5.069072 -0.024748 0.392286 2.13326 -2.690177 4.094786 4.588049 -10.133629 0 0 0 0 0 0 2.436255 0.611552 -9.252678 -40.924963 25.503376 -73.252469 -32.135465 -10.2016 0.162224 -12.925613 1.708034 -5.062327 0.050398 -0.112372 -7.390756 2.685625 0.615552 -25.815582 1.726594 0.246685 -16.262007 4.025365 0.888167 -20.644447 -0.973583 0.840604 -30.562561 4.935749 2.467071 -53.095435 1.220418 0.121036 -11.511016 2.957645 0.755577 -28.655965 2.347142 0.464184 -22.37245 1.243028 0.065507 -15.880519 4.053898 1.519159 -41.074051 3.366919 1.000162 -33.081724 12.807951 2.333457 9.419525 20.415874 0.538605 9.69099 19.121726 3.983046 4.028004 5.457586 0.506646 12.688681 38.729168 38.083506 57.118705 22.752048 0.371149 -0.261971 11.303202 -5.466037 18.155872 -0.168472 -0.109156 8.350031 -2.160859 0.386531 20.280957 -1.128944 0.103093 10.435347 -2.243145 0.36816 24.460303 -3.274174 0.928942 31.671551 -5.224896 2.828946 56.841654 -1.032635 0.085197 9.629588 -3.302605 0.946583 31.978723 -2.065078 0.360421 19.377809 -2.508611 0.554 18.813988 -3.848751 1.329492 38.101753 -3.838231 1.330336 38.036558 -8.288905 -3.703672 -6.074452 -23.144311 8.672824 -11.912 -12.785699 5.85213 -4.199655 10.093556 -59.008071 11.316961 -7.593645 45.184962 8.510393 -9.589043 -3.437446 -12.077278 0.000005 2.25575 -0.000009 -2.812198 -64.699066 4.338567 27.079226 60.772853 0.970703 -8.352072 -16.788018 3.440339 0.004188 -0.380974 -0.000023
-0.129287 -1.645947 -0.147634 -0.405552 5.361575 -5.046935 -1.469617 -2.189774 5.266172 -3.864204 1.843148 13.215226 0.082409 5.173947 -0.120513 0.375578 2.069905 -2.621244 4.04141 4.518302 -10.076726 0 0 0 0 0 0 2.436258 0.611545 -9.252677 -35.983026 21.881132 -71.498721 -36.410393 -7.759715 0.190989 -11.991872 1.745597 -5.550801 0.050398 -0.112372 -7.390756 2.685625 0.615552 -25.815582 1.726594 0.246685 -16.262007 4.025365 0.888167 -20.644447 -0.973583 0.840604 -30.562561 4.935749 2.467071 -53.095435 1.220418 0.121036 -11.511016 2.957645 0.755577 -28.655965 2.347142 0.464184 -22.37245 1.243028 0.065507 -15.880519 4.053898 1.519159 -41.074051 3.366919 1.000162 -33.081724 12.807951 2.333457 9.419525 20.415874 0.538605 9.69099 19.121726 3.983046 4.028004 5.457583 0.506646 12.688686 40.151886 38.88798 57.331216 24.171014 0.732261 -0.267594 11.018014 -2.426631 19.730335 -0.168472 -0.109156 8.350031 -2.160859 0.386531 20.280957 -1.128944 0.103093 10.435347 -2.243145 0.36816 24.460303 -3.274174 0.928942 31.671551 -5.224896 2.828946 56.841654 -1.032635 0.085197 9.629588 -3.302605 0.946583 31.978723 -2.065078 0.360421 19.377809 -2.508611 0.554 18.813988 -3.848751 1.329492 38.101753 -3.838231 1.330336 38.036558 -8.288905 -3.703672 -6.074452 -23.144311 8.672824 -11.912 -12.785699 5.85213 -4.199655 9.239757 -63.320595 10.968698 -8.536003 50.236258 9.258182 -9.596833 -4.078645 -12.228975 0.000005 2.255747 -0.000009 -3.160479 -68.82101 3.048726 29.26811 65.434298 3.445754 -10.512106 -17.529135 2.674831 0.000001 -0.315937 -0.000001
-0.129287 -1.851385 -0.145771 -0.405552 5.361575 -5.046935 -1.469617 -2.189774 5.266172 -3.835252 1.858506 13.15683 0.204359 5.22543 -0.295794 0.34481 2.039476 -2.494931 3.943446 4.484962 -9.972539 0 0 0 0 0 0 2.436254 0.611552 -9.252677 -30.338518 17.350861 -69.958077 -40.45527 -5.167098 0.248049 -11.658167 3.750423 -6.809164 0.050398 -0.112372 -7.390756 2.685625 0.615552 -25.815582 1.726594 0.246685 -16.262007 4.025365 0.888167 -20.644447 -0.973583 0.840604 -30.562561 4.935749 2.467071 -53.095435 1.220418 0.121036 -11.511016 2.957645 0.755577 -28.655965 2.347142 0.464184 -22.37245 1.243028 0.065507 -15.880519 4.053898 1.519159 -41.074051 3.366919 1.000162 -33.081724 12.807951 2.333457 9.419525 20.415874 0.538605 9.69099 19.121726 3.983046 4.028004 5.457578 0.506646 12.688681 41.021351 39.234964 57.896657 26.521885 1.195516 -0.276874 9.89839 0.643042 20.812652 -0.168472 -0.109156 8.350031 -2.160859 0.386531 20.280957 -1.128944 0.103093 10.435347 -2.243145 0.36816 24.460303 -3.274174 0.928942 31.671551 -5.224896 2.828946 56.841654 -1.032635 0.085197 9.629588 -3.302605 0.946583 31.978723 -2.065078 0.360421 19.377809 -2.508611 0.554 18.813988 -3.848751 1.329492 38.101753 -3.838231 1.330336 38.036558 -8.288905 -3.703672 -6.074452 -23.144311 8.672824 -11.912 -12.785699 5.85213 -4.199655 8.31464 -68.038241 10.7282 -9.498218 55.025166 9.866709 -9.559802 -4.109378 -12.44458 0.000005 2.255754 -0.000009 -3.485397 -73.36566 1.928379 30.554114 70.156462 5.583727 -11.965427 -17.778689 1.993671 0 -0.315935 -0.000001
-0.129287 -2.065378 -0.141447 -0.405552 5.361575 -5.046935 -1.469617 -2.189774 5.266172 -3.798315 1.867185 13.082461 0.35996 5.255883 -0.518934 0.305564 2.022868 -2.334026 3.818609 4.467083 -9.839848 0 0 0 0 0 0 2.436254 0.611559 -9.252677 -24.843527 12.646902 -68.828167 -43.977232 -2.752162 0.289558 -12.410689 7.626643 -9.05517 0.050398 -0.112372 -7.390756 2.685625 0.615552 -25.815582 1.726594 0.246685 -16.262007 4.025365 0.888167 -20.644447 -0.973583 0.840604 -30.562561 4.935749 2.467071 -53.095435 1.220418 0.121036 -11.511016 2.957645 0.755577 -28.655965 2.347142 0.464184 -22.37245 1.243028 0.065507 -15.880519 4.053898 1.519159 -41.074051 3.366919 1.000162 -33.081724 12.807951 2.333457 9.419525 20.415874 0.538605 9.69099 19.121726 3.983046 4.028004 5.457584 0.506652 12.688685 41.502565 39.250454 58.726355 29.438648 1.671406 -0.285406 8.277341 3.591812 21.392052 -0.168472 -0.109156 8.350031 -2.160859 0.386531 20.280957 -1.128944 0.103093 10.435347 -2.243145 0.36816 24.460303 -3.274174 0.928942 31.671551 -5.224896 2.828946 56.841654 -1.032635 0.085197 9.629588 -3.302605 0.946583 31.978723 -2.065078 0.360421 19.377809 -2.508611 0.554 18.813988 -3.848751 1.329492 38.101753 -3.838231 1.330336 38.036558 -8.288905 -3.703672 -6.074452 -23.144311 8.672824 -11.912 -12.785699 5.85213 -4.199655 7.387846 -72.903644 10.631001 -10.43137 59.351016 10.293378 -9.453229 -3.584158 -12.691316 0.000005 2.255753 -0.000009 -3.662745 -78.060369 1.157191 31.080341 74.3911 7.050946 -12.573086 -17.355878 1.461511 0 -0.315937 -0.000002
-0.129287 -2.28332 -0.135568 -0.405552 5.361575 -5.046935 -1.469617 -2.189774 5.266172 -3.756374 1.871018 12.998001 0.536688 5.271718 -0.772344 0.260992 2.01651 -2.151297 3.67683 4.460875 -9.689162 0 0 0 0 0 0 2.43625 0.611555 -9.252677 -21.400215 9.578915 -68.216908 -46.812601 -0.835446 0.315376 -13.633494 12.318804 -11.768328 0.050398 -0.112372 -7.390756 2.685625 0.615552 -25.815582 1.726594 0.246685 -16.262007 4.025365 0.888167 -20.644447 -0.973583 0.840604 -30.562561 4.935749 2.467071 -53.095435 1.220418 0.121036 -11.511016 2.957645 0.755577 -28.655965 2.347142 0.464184 -22.37245 1.243028 0.065507 -15.880519 4.053898 1.519159 -41.074051 3.366919 1.000162 -33.081724 12.807951 2.333457 9.419525 20.415874 0.538605 9.69099 19.121726 3.983046 4.028004 5.457585 0.506652 12.68868 41.600341 38.965705 59.767366 32.78496 2.122592 -0.292068 6.377365 6.2477 21.488203 -0.168472 -0.109156 8.350031 -2.160859 0.386531 20.280957 -1.128944 0.103093 10.435347 -2.243145 0.36816 24.460303 -3.274174 0.928942 31.671551 -5.224896 2.828946 56.841654 -1.032635 0.085197 9.629588 -3.302605 0.946583 31.978723 -2.065078 0.360421 19.377809 -2.508611 0.554 18.813988 -3.848751 1.329492 38.101753 -3.838231 1.330336 38.036558 -8.288905 -3.703672 -6.074452 -23.144311 8.672824 -11.912 -12.785699 5.85213 -4.199655 6.504704 -77.760789 10.677671 -11.276573 63.083559 10.55147 -9.283556 -2.529016 -12.953511 0.000005 2.255756 -0.000009 -3.627114 -82.780587 0.748311 31.111114 78.036538 7.782891 -12.480194 -16.283178 1.124603 0.000001 -0.315936 -0.000001
-0.129287 -2.500615 -0.129042 -0.405552 5.361575 -5.046935 -1.469617 -2.189774 5.266172 -3.71243 1.870809 12.909324 0.721934 5.275684 -1.038496 0.214263 2.018828 -1.959509 3.528064 4.464625 -9.530977 0 0 0 0 0 0 2.436255 0.611553 -9.252675 -22.19226 10.259702 -68.208374 -48.82399 0.23636 0.327727 -15.036204 16.508431 -14.376876 0.050398 -0.112372 -7.390756 2.685625 0.615552 -25.815582 1.726594 0.246685 -16.262007 4.025365 0.888167 -20.644447 -0.973583 0.840604 -30.562561 4.935749 2.467071 -53.095435 1.220418 0.121036 -11.511016 2.957645 0.755577 -28.655965 2.347142 0.464184 -22.37245 1.243028 0.065507 -15.880519 4.053898 1.519159 -41.074051 3.366919 1.000162 -33.081724 12.807951 2.333457 9.419525 20.415874 0.538605 9.69099 19.121726 3.983046 4.028004 5.457581 0.50665 12.688681 41.269879 38.397791 60.953569 36.477489 2.537354 -0.296667 4.376416 8.467081 21.1919 -0.168472 -0.109156 8.350031 -2.160859 0.386531 20.280957 -1.128944 0.103093 10.435347 -2.243145 0.36816 24.460303 -3.274174 0.928942 31.671551 -5.224896 2.828946 56.841654 -1.032635 0.085197 9.629588 -3.302605 0.946583 31.978723 -2.065078 0.360421 19.377809 -2.508611 0.554 18.813988 -3.848751 1.329492 38.101753 -3.838231 1.330336 38.036558 -8.288905 -3.703672 -6.074452 -23.144311 8.672824 -11.912 -12.785699 5.85213 -4.199655 5.725679 -82.444949 10.871711 -11.986705 66.135672 10.680747 -8.996382 -1.017066 -13.248166 0.000009 2.255755 -0.000009 -3.56481 -87.3442 0.422766 31.039309 80.998147 8.316498 -12.202782 -14.704057 0.855957 0 -0.315936 -0.000002
-0.129287 -2.71144 -0.123092 -0.405552 5.297736 -5.046935 -1.469617 -2.189774 5.266172 -3.670163 1.866083 12.823556 0.90023 5.265922 -1.296177 0.169273 2.030604 -1.77417 3.384448 4.479095 -9.378022 0 0 0 0 0 0 2.436255 0.611555 -9.252677 -27.463041 14.870259 -68.885823 -49.836395 0.249242 0.327695 -16.532352 18.801548 -16.231507 0.050398 -0.112372 -7.390756 2.685625 0.615552 -25.815582 1.726594 0.246685 -16.262007 4.025365 0.888167 -20.644447 -0.973583 0.840604 -30.562561 4.935749 2.467071 -53.095435 1.220418 0.121036 -11.511016 2.957645 0.755577 -28.655965 2.347142 0.464184 -22.37245 1.243028 0.065507 -15.880519 4.053898 1.519159 -41.074051 3.366919 1.000162 -33.081724 12.807951 2.333457 9.419525 20.415874 0.538605 9.69099 19.121726 3.983046 4.028004 5.457586 0.506653 12.688684 40.373603 37.52959 62.19669 40.425271 2.912821 -0.30403 2.361477 10.052135 20.615708 -0.168472 -0.109156 8.350031 -2.160859 0.386531 20.280957 -1.128944 0.103093 10.435347 -2.243145 0.36816 24.460303 -3.274174 0.928942 31.671551 -5.224896 2.828946 56.841654 -1.032635 0.085197 9.629588 -3.302605 0.946583 31.978723 -2.065078 0.360421 19.377809 -2.508611 0.554 18.813988 -3.848751 1.329492 38.101753 -3.838231 1.330336 38.036558 -8.288905 -3.703672 -6.074452 -23.144311 8.672824 -11.912 -12.785699 5.85213 -4.199655 5.156822 -86.597902 11.207558 -12.517925 68.395292 10.726639 -8.484159 0.842061 -13.628805 0.000008 2.255754 -0.000009 -3.55138 -91.388998 0.113101 30.978023 83.1414 8.807841 -11.896428 -12.734635 0.626354 0.000001 -0.315937 -0.000002
-0.129287 -2.913917 -0.119437 -0.405552 4.783076 -5.046935 -1.469617 -2.189773 5.266172 -3.632784 1.857093 12.746985 1.058036 5.242427 -1.52663 0.129417 2.05106 -1.608946 3.256645 4.503338 -9.241534 0 0 0 0 0 0 2.436253 0.611556 -9.252674 -33.332627 19.809567 -69.889812 -50.266806 -0.185831 0.320261 -17.374676 19.747419 -16.974975 0.050398 -0.112372 -7.390756 2.685625 0.615552 -25.815582 1.726594 0.246685 -16.262007 4.025365 0.888167 -20.644447 -0.973583 0.840604 -30.562561 4.935749 2.467071 -53.095435 1.220418 0.121036 -11.511016 2.957645 0.755577 -28.655965 2.347142 0.464184 -22.37245 1.243028 0.065507 -15.880519 4.053898 1.519159 -41.074051 3.366919 1.000162 -33.081724 12.807951 2.333457 9.419525 20.415874 0.538605 9.69099 19.121726 3.983046 4.028004 5.457583 0.506654 12.688683 39.604838 36.796052 63.344186 43.653429 3.111679 -0.306175 0.364671 10.801071 19.87257 -0.168472 -0.109156 8.350031 -2.160859 0.386531 20.280957 -1.128944 0.103093 10.435347 -2.243145 0.36816 24.460303 -3.274174 0.928942 31.671551 -5.224896 2.828946 56.841654 -1.032635 0.085197 9.629588 -3.302605 0.946583 31.978723 -2.065078 0.360421 19.377809 -2.508611 0.554 18.813988 -3.848751 1.329492 38.101753 -3.838231 1.330336 38.036558 -8.288905 -3.703672 -6.074452 -23.144311 8.672824 -11.912 -12.785699 5.85213 -4.199655 4.918901 -89.302765 11.562793 -12.932238 70.070629 10.650928 -7.866565 2.741061 -14.084097 0.000006 2.255752 -0.000009 -3.572715 -94.013103 -0.104289 30.914467 84.683111 9.176847 -11.523827 -10.692584 0.488531 0.000001 -0.315936 -0.000002
-0.129281 -3.106644 -0.119625 -0.423385 3.734215 -5.045287 -1.469617 -2.208101 5.266172 -3.604181 1.825578 12.687216 1.178907 5.178185 -1.70721 0.098802 2.091875 -1.480364 3.157565 4.539192 -9.13509 0 0 0 0 0 0 2.436256 0.611555 -9.25268 -36.917545 22.638228 -71.038083 -50.943932 -0.538205 0.292002 -16.879449 19.905215 -16.257117 0.050398 -0.112372 -7.390756 2.685625 0.615552 -25.815582 1.726594 0.246685 -16.262007 4.025365 0.888167 -20.644447 -0.973583 0.840604 -30.562561 4.935749 2.467071 -53.095435 1.220418 0.121036 -11.511016 2.957645 0.755577 -28.655965 2.347142 0.464184 -22.37245 1.243028 0.065507 -15.880519 4.053898 1.519159 -41.074051 3.366919 1.000162 -33.081724 12.807951 2.333457 9.419525 20.415874 0.538605 9.69099 19.121726 3.983046 4.028004 5.457585 0.506647 12.688684 39.159758 36.260082 64.33494 45.551043 2.971546 -0.280861 -1.487763 10.735027 19.066506 -0.168472 -0.109156 8.350031 -2.160859 0.386531 20.280957 -1.128944 0.103093 10.435347 -2.243145 0.36816 24.460303 -3.274174 0.928942 31.671551 -5.224896 2.828946 56.841654 -1.032635 0.085197 9.629588 -3.302605 0.946583 31.978723 -2.065078 0.360421 19.377809 -2.508611 0.554 18.813988 -3.848751 1.329492 38.101753 -3.838231 1.330336 38.036558 -8.288905 -3.703672 -6.074452 -23.144311 8.672824 -11.912 -12.785699 5.85213 -4.199655 5.069699 -90.35297 11.865651 -13.224713 71.316624 10.44103 -7.16061 4.460746 -14.575099 0.000006 2.240481 -0.000009 -3.635983 -94.942659 -0.162985 30.730295 85.76113 9.336854 -11.069638 -8.832843 0.450546 0.000001 -0.331208 -0.000002
-0.129216 -3.305272 -0.128693 -0.61201 2.028112 -5.02786 -1.469617 -2.401951 5.266172 -3.595453 1.623178 12.666455 1.215927 4.875051 -1.771466 0.089162 2.239372 -1.436536 3.124602 4.589885 -9.098278 0 0 0 0 0 0 2.436253 0.611551 -9.252681 -38.022097 23.104296 -73.012067 -50.745548 -1.724296 0.034302 -15.170625 19.208634 -14.24316 0.050398 -0.112372 -7.390756 2.685625 0.615552 -25.815582 1.726594 0.246685 -16.262007 4.025365 0.888167 -20.644447 -0.973583 0.840604 -30.562561 4.935749 2.467071 -53.095435 1.220418 0.121036 -11.511016 2.957645 0.755577 -28.655965 2.347142 0.464184 -22.37245 1.243028 0.065507 -15.880519 4.053898 1.519159 -41.074051 3.366919 1.000162 -33.081724 12.807951 2.333457 9.419525 20.415874 0.538605 9.69099 19.121726 3.983046 4.028004 5.457584 0.506648 12.688685 37.800984 34.872163 65.487826 45.061865 1.484915 -0.018389 -2.892987 9.604487 17.914586 -0.168472 -0.109156 8.350031 -2.160859 0.386531 20.280957 -1.128944 0.103093 10.435347 -2.243145 0.36816 24.460303 -3.274174 0.928942 31.671551 -5.224896 2.828946 56.841654 -1.032635 0.085197 9.629588 -3.302605 0.946583 31.978723 -2.065078 0.360421 19.377809 -2.508611 0.554 18.813988 -3.848751 1.329492 38.101753 -3.838231 1.330336 38.036558 -8.288905 -3.703672 -6.074452 -23.144311 8.672824 -11.912 -12.785699 5.85213 -4.199655 5.959029 -89.912408 11.955683 -13.169672 72.641718 10.038975 -6.188068 5.565194 -14.881076 0.000005 2.078939 -0.000009 -4.03845 -93.733176 0.264023 29.413354 86.681781 8.900915 -10.32553 -7.829201 0.380155 0 -0.49275 -0.000002
-0.129089 -3.487659 -0.1475 -0.977012 -0.089928 -4.994138 -1.469617 -2.777066 5.266172 -3.61384 1.220028 12.69631 1.138521 4.243368 -1.686432 0.10795 2.544919 -1.50354 3.179048 4.708201 -9.15201 0 0 0 0 0 0 2.436256 0.61156 -9.252676 -38.917304 23.095197 -75.640853 -47.696293 -4.471328 -0.471127 -13.799842 17.894514 -12.135253 0.050398 -0.112372 -7.390756 2.685625 0.615552 -25.815582 1.726594 0.246685 -16.262007 4.025365 0.888167 -20.644447 -0.973583 0.840604 -30.562561 4.935749 2.467071 -53.095435 1.220418 0.121036 -11.511016 2.957645 0.755577 -28.655965 2.347142 0.464184 -22.37245 1.243028 0.065507 -15.880519 4.053898 1.519159 -41.074051 3.366919 1.000162 -33.081724 12.807951 2.333457 9.419525 20.415874 0.538605 9.69099 19.121726 3.983046 4.028004 5.457584 0.506655 12.68868 35.414612 32.657544 66.434588 41.832734 -1.240224 0.48738 -3.310289 7.739232 16.494897 -0.168472 -0.109156 8.350031 -2.160859 0.386531 20.280957 -1.128944 0.103093 10.435347 -2.243145 0.36816 24.460303 -3.274174 0.928942 31.671551 -5.224896 2.828946 56.841654 -1.032635 0.085197 9.629588 -3.302605 0.946583 31.978723 -2.065078 0.360421 19.377809 -2.508611 0.554 18.813988 -3.848751 1.329492 38.101753 -3.838231 1.330336 38.036558 -8.288905 -3.703672 -6.074452 -23.144311 8.672824 -11.912 -12.785699 5.85213 -4.199655 7.504131 -88.169012 11.797381 -12.760039 74.095702 9.489177 -5.037357 5.716444 -14.896288 0.000009 1.766339 -0.000009 -4.791828 -90.549742 1.175719 26.931786 87.506161 7.87557 -9.366176 -8.056529 0.239488 0 -0.805347 -0.000001
-0.128914 -3.641014 -0.173189 -1.481646 -2.220907 -4.947515 -1.469617 -3.295679 5.266172 -3.654612 0.632458 12.765839 0.966495 3.267367 -1.485719 0.1499 3.026479 -1.658102 3.303222 4.935982 -9.276887 0 0 0 0 0 0 2.436253 0.611554 -9.252673 -38.240175 21.712482 -78.512976 -42.553185 -8.277683 -1.17023 -13.085143 16.302458 -10.26271 0.050398 -0.112372 -7.390756 2.685625 0.615552 -25.815582 1.726594 0.246685 -16.262007 4.025365 0.888167 -20.644447 -0.973583 0.840604 -30.562561 4.935749 2.467071 -53.095435 1.220418 0.121036 -11.511016 2.957645 0.755577 -28.655965 2.347142 0.464184 -22.37245 1.243028 0.065507 -15.880519 4.053898 1.519159 -41.074051 3.366919 1.000162 -33.081724 12.807951 2.333457 9.419525 20.415874 0.538605 9.69099 19.121726 3.983046 4.028004 5.457579 0.506645 12.688681 31.863175 29.692767 67.004411 36.672836 -4.794374 1.184121 -2.905489 5.628679 14.955432 -0.168472 -0.109156 8.350031 -2.160859 0.386531 20.280957 -1.128944 0.103093 10.435347 -2.243145 0.36816 24.460303 -3.274174 0.928942 31.671551 -5.224896 2.828946 56.841654 -1.032635 0.085197 9.629588 -3.302605 0.946583 31.978723 -2.065078 0.360421 19.377809 -2.508611 0.554 18.813988 -3.848751 1.329492 38.101753 -3.838231 1.330336 38.036558 -8.288905 -3.703672 -6.074452 -23.144311 8.672824 -11.912 -12.785699 5.85213 -4.199655 9.424341 -85.908983 11.431172 -12.073164 75.709435 8.887305 -3.850109 4.956494 -14.592081 0.000008 1.334167 -0.000009 -5.832697 -86.310487 2.430259 23.533124 88.329744 6.441811 -8.300712 -9.442033 -0.011455 0 -1.237524 -0.000001
-0.128704 -3.764638 -0.201021 -2.089165 -3.775709 -4.891386 -1.469617 -3.920028 5.266172 -3.706481 -0.057876 12.860134 0.747299 2.147898 -1.209032 0.20375 3.571934 -1.865337 3.470442 5.039365 -9.441814 0 0 0 0 0 0 2.436257 0.611551 -9.252674 -34.418488 17.79219 -81.606389 -37.281861 -12.416984 -2.008136 -12.843764 14.582964 -8.858565 0.050398 -0.112372 -7.390756 2.685625 0.615552 -25.815582 1.726594 0.246685 -16.262007 4.025365 0.888167 -20.644447 -0.973583 0.840604 -30.562561 4.935749 2.467071 -53.095435 1.220418 0.121036 -11.511016 2.957645 0.755577 -28.655965 2.347142 0.464184 -22.37245 1.243028 0.065507 -15.880519 4.053898 1.519159 -41.074051 3.366919 1.000162 -33.081724 12.807951 2.333457 9.419525 20.415874 0.538605 9.69099 19.121726 3.983046 4.028004 5.457581 0.506648 12.688681 26.721524 25.6999 67.652889 31.485842 -8.843572 2.01831 -2.270767 3.637306 13.541575 -0.168472 -0.109156 8.350031 -2.160859 0.386531 20.280957 -1.128944 0.103093 10.435347 -2.243145 0.36816 24.460303 -3.274174 0.928942 31.671551 -5.224896 2.828946 56.841654 -1.032635 0.085197 9.629588 -3.302605 0.946583 31.978723 -2.065078 0.360421 19.377809 -2.508611 0.554 18.813988 -3.848751 1.329492 38.101753 -3.838231 1.330336 38.036558 -8.288905 -3.703672 -6.074452 -23.144311 8.672824 -11.912 -12.785699 5.85213 -4.199655 11.39605 -84.565037 10.943299 -11.15916 77.428561 8.372373 -2.691396 3.645652 -13.98974 0.000008 0.813874 -0.000009 -7.083534 -82.573402 3.844322 19.476456 89.157876 4.802228 -7.228839 -11.585084 -0.428098 -0.000001 -1.757816 -0.000001
-0.128471 -3.872111 -0.226224 -2.762826 -4.815393 -4.829146 -1.469617 -4.612351 5.266172 -3.759095 -0.782519 12.962944 0.524786 1.042319 -0.902337 0.259029 4.095483 -2.088635 3.653061 4.797333 -9.615165 0 0 0 0 0 0 2.436255 0.61155 -9.252675 -28.340188 11.89924 -85.235777 -32.668737 -16.66744 -2.928977 -12.639909 12.634388 -7.706313 0.050398 -0.112372 -7.390756 2.685625 0.615552 -25.815582 1.726594 0.246685 -16.262007 4.025365 0.888167 -20.644447 -0.973583 0.840604 -30.562561 4.935749 2.467071 -53.095435 1.220418 0.121036 -11.511016 2.957645 0.755577 -28.655965 2.347142 0.464184 -22.37245 1.243028 0.065507 -15.880519 4.053898 1.519159 -41.074051 3.366919 1.000162 -33.081724 12.807951 2.333457 9.419525 20.415874 0.538605 9.69099 19.121726 3.983046 4.028004 5.457583 0.506647 12.688684 20.635366 20.863433 68.971097 26.993148 -13.347994 2.942516 -1.778239 1.548235 12.079142 -0.168472 -0.109156 8.350031 -2.160859 0.386531 20.280957 -1.128944 0.103093 10.435347 -2.243145 0.36816 24.460303 -3.274174 0.928942 31.671551 -5.224896 2.828946 56.841654 -1.032635 0.085197 9.629588 -3.302605 0.946583 31.978723 -2.065078 0.360421 19.377809 -2.508611 0.554 18.813988 -3.848751 1.329492 38.101753 -3.838231 1.330336 38.036558 -8.288905 -3.703672 -6.074452 -23.144311 8.672824 -11.912 -12.785699 5.85213 -4.199655 13.283516 -84.410417 10.354769 -10.091976 79.228025 7.977295 -1.646252 2.252144 -13.201337 0.000008 0.236938 -0.000009 -8.462102 -79.752215 5.319001 15.001211 90.016359 3.069944 -6.142209 -13.953985 -0.974181 -0.000001 -2.334751 -0.000001
-0.128227 -3.964944 -0.247725 -3.465884 -5.748 -4.764191 -1.469617 -5.334886 5.266172 -3.805053 -1.487402 13.060684 0.330184 0.059727 -0.606012 0.307789 4.539823 -2.298407 3.822034 4.374643 -9.78188 0 0 0 0 0 0 2.436255 0.611551 -9.252674 -22.466543 6.014317 -89.377473 -28.133082 -21.138293 -3.890553 -12.379097 10.441503 -6.62801 0.050398 -0.112372 -7.390756 2.685625 0.615552 -25.815582 1.726594 0.246685 -16.262007 4.025365 0.888167 -20.644447 -0.973583 0.840604 -30.562561 4.935749 2.467071 -53.095435 1.220418 0.121036 -11.511016 2.957645 0.755577 -28.655965 2.347142 0.464184 -22.37245 1.243028 0.065507 -15.880519 4.053898 1.519159 -41.074051 3.366919 1.000162 -33.081724 12.807951 2.333457 9.419525 20.415874 0.538605 9.69099 19.121726 3.983046 4.028004 5.45758 0.506647 12.688683 14.59941 15.789569 70.946631 22.725516 -18.246006 3.911511 -1.412272 -0.812738 10.42713 -0.168472 -0.109156 8.350031 -2.160859 0.386531 20.280957 -1.128944 0.103093 10.435347 -2.243145 0.36816 24.460303 -3.274174 0.928942 31.671551 -5.224896 2.828946 56.841654 -1.032635 0.085197 9.629588 -3.302605 0.946583 31.978723 -2.065078 0.360421 19.377809 -2.508611 0.554 18.813988 -3.848751 1.329492 38.101753 -3.838231 1.330336 38.036558 -8.288905 -3.703672 -6.074452 -23.144311 8.672824 -11.912 -12.785699 5.85213 -4.199655 15.108187 -84.57749 9.648691 -8.955103 81.059617 7.643271 -0.818754 0.859455 -12.316246 0.000008 -0.365172 -0.000009 -9.898084 -77.134818 6.835091 10.335684 90.902954 1.28277 -5.027592 -16.397777 -1.562983 -0.000001 -2.936865 0
-0.127986 -4.040263 -0.265045 -4.161592 -6.651179 -4.699914 -1.469617 -6.049867 5.266172 -3.839912 -2.130226 13.141114 0.182768 -0.730256 -0.358748 0.34541 4.87084 -2.469242 3.953237 4.052307 -9.925601 0 0 0 0 0 0 2.436254 0.611552 -9.252674 -17.435573 0.781074 -93.658497 -23.691427 -25.599269 -4.842706 -12.123207 8.155928 -5.665877 0.050398 -0.112372 -7.390756 2.685625 0.615552 -25.815582 1.726594 0.246685 -16.262007 4.025365 0.888167 -20.644447 -0.973583 0.840604 -30.562561 4.935749 2.467071 -53.095435 1.220418 0.121036 -11.511016 2.957645 0.755577 -28.655965 2.347142 0.464184 -22.37245 1.243028 0.065507 -15.880519 4.053898 1.519159 -41.074051 3.366919 1.000162 -33.081724 12.807951 2.333457 9.419525 20.415874 0.538605 9.69099 19.121726 3.983046 4.028004 5.457578 0.506647 12.688681 8.979996 10.8309 73.356382 18.739877 -23.260671 4.872658 -1.182753 -3.292887 8.677607 -0.168472 -0.109156 8.350031 -2.160859 0.386531 20.280957 -1.128944 0.103093 10.435347 -2.243145 0.36816 24.460303 -3.274174 0.928942 31.671551 -5.224896 2.828946 56.841654 -1.032635 0.085197 9.629588 -3.302605 0.946583 31.978723 -2.065078 0.360421 19.377809 -2.508611 0.554 18.813988 -3.848751 1.329492 38.101753 -3.838231 1.330336 38.036558 -8.288905 -3.703672 -6.074452 -23.144311 8.672824 -11.912 -12.785699 5.85213 -4.199655 16.834064 -84.784263 8.872427 -7.818459 82.845849 7.350133 -0.205533 -0.49355 -11.397826 0.000006 -0.96099 -0.000009 -11.31869 -74.586983 8.332376 5.719562 91.779126 -0.483073 -3.927128 -18.812378 -2.148066 -0.000002 -3.532682 -0.000001
-0.127761 -4.096653 -0.277914 -4.813206 -7.502767 -4.639712 -1.469617 -6.719533 5.266172 -3.86304 -2.683057 13.198997 0.085189 -1.306263 -0.178672 0.370853 5.08292 -2.591075 4.039492 3.936374 -10.034589 0 0 0 0 0 0 2.436253 0.611552 -9.252674 -13.503426 -3.495371 -97.765606 -19.532848 -29.798363 -5.734869 -11.898787 5.924741 -4.860609 0.050398 -0.112372 -7.390756 2.685625 0.615552 -25.815582 1.726594 0.246685 -16.262007 4.025365 0.888167 -20.644447 -0.973583 0.840604 -30.562561 4.935749 2.467071 -53.095435 1.220418 0.121036 -11.511016 2.957645 0.755577 -28.655965 2.347142 0.464184 -22.37245 1.243028 0.065507 -15.880519 4.053898 1.519159 -41.074051 3.366919 1.000162 -33.081724 12.807951 2.333457 9.419525 20.415874 0.538605 9.69099 19.121726 3.983046 4.028004 5.45758 0.506648 12.688682 4.007155 6.262691 75.959473 15.208211 -28.079002 5.774686 -1.08903 -5.707859 6.954503 -0.168472 -0.109156 8.350031 -2.160859 0.386531 20.280957 -1.128944 0.103093 10.435347 -2.243145 0.36816 24.460303 -3.274174 0.928942 31.671551 -5.224896 2.828946 56.841654 -1.032635 0.085197 9.629588 -3.302605 0.946583 31.978723 -2.065078 0.360421 19.377809 -2.508611 0.554 18.813988 -3.848751 1.329492 38.101753 -3.838231 1.330336 38.036558 -8.288905 -3.703672 -6.074452 -23.144311 8.672824 -11.912 -12.785699 5.85213 -4.199655 18.402276 -84.964932 8.091553 -6.747313 84.503119 7.095817 0.22801 -1.748287 -10.508713 0.000007 -1.519044 -0.000009 -12.649377 -72.188495 9.735608 1.395834 92.600069 -2.137742 -2.895698 -21.074988 -2.695369 -0.000002 -4.090736 0
-0.127563 -4.134422 -0.286446 -5.38398 -8.262433 -4.586978 -1.469617 -7.306119 5.266172 -3.876012 -3.127838 13.234109 0.030636 -1.679763 -0.068358 0.385417 5.190082 -2.664416 4.085324 4.022417 -10.10371 0 0 0 0 0 0 2.436254 0.611551 -9.252674 -10.840959 -6.59586 -101.416015 -15.855386 -33.503606 -6.516834 -11.71734 3.893203 -4.232431 0.050398 -0.112372 -7.390756 2.685625 0.615552 -25.815582 1.726594 0.246685 -16.262007 4.025365 0.888167 -20.644447 -0.973583 0.840604 -30.562561 4.935749 2.467071 -53.095435 1.220418 0.121036 -11.511016 2.957645 0.755577 -28.655965 2.347142 0.464184 -22.37245 1.243028 0.065507 -15.880519 4.053898 1.519159 -41.074051 3.366919 1.000162 -33.081724 12.807951 2.333457 9.419525 20.415874 0.538605 9.69099 19.121726 3.983046 4.028004 5.457581 0.506648 12.688682 -0.132225 2.333265 78.48373 12.275479 -32.37924 6.566088 -1.105469 -7.875132 5.389863 -0.168472 -0.109156 8.350031 -2.160859 0.386531 20.280957 -1.128944 0.103093 10.435347 -2.243145 0.36816 24.460303 -3.274174 0.928942 31.671551 -5.224896 2.828946 56.841654 -1.032635 0.085197 9.629588 -3.302605 0.946583 31.978723 -2.065078 0.360421 19.377809 -2.508611 0.554 18.813988 -3.848751 1.329492 38.101753 -3.838231 1.330336 38.036558 -8.288905 -3.703672 -6.074452 -23.144311 8.672824 -11.912 -12.785699 5.85213 -4.199655 19.759311 -85.093103 7.384615 -5.806978 85.949241 6.878875 0.549113 -2.844752 -9.718339 0.000006 -2.007866 -0.000009 -13.815237 -70.058098 10.96682 -2.391932 93.319959 -3.588981 -1.990484 -23.059442 -3.173078 -0.000003 -4.579558 0
-0.127406 -4.155628 -0.291153 -5.83717 -8.879165 -4.545108 -1.469617 -7.771864 5.266172 -3.881588 -3.453519 13.250367 0.007257 -1.885304 -0.016874 0.391795 5.22037 -2.698161 4.10336 4.220913 -10.136737 0 0 0 0 0 0 2.436254 0.611551 -9.252674 -9.329547 -8.554055 -104.332602 -12.896853 -36.468015 -7.138074 -11.584462 2.224534 -3.787781 0.050398 -0.112372 -7.390756 2.685625 0.615552 -25.815582 1.726594 0.246685 -16.262007 4.025365 0.888167 -20.644447 -0.973583 0.840604 -30.562561 4.935749 2.467071 -53.095435 1.220418 0.121036 -11.511016 2.957645 0.755577 -28.655965 2.347142 0.464184 -22.37245 1.243028 0.065507 -15.880519 4.053898 1.519159 -41.074051 3.366919 1.000162 -33.081724 12.807951 2.333457 9.419525 20.415874 0.538605 9.69099 19.121726 3.983046 4.028004 5.45758 0.506649 12.688681 -3.274771 -0.729769 80.641639 10.058897 -35.84 7.195267 -1.187368 -9.621306 4.11603 -0.168472 -0.109156 8.350031 -2.160859 0.386531 20.280957 -1.128944 0.103093 10.435347 -2.243145 0.36816 24.460303 -3.274174 0.928942 31.671551 -5.224896 2.828946 56.841654 -1.032635 0.085197 9.629588 -3.302605 0.946583 31.978723 -2.065078 0.360421 19.377809 -2.508611 0.554 18.813988 -3.848751 1.329492 38.101753 -3.838231 1.330336 38.036558 -8.288905 -3.703672 -6.074452 -23.144311 8.672824 -11.912 -12.785699 5.85213 -4.199655 20.838828 -85.16538 6.8203 -5.060731 87.097836 6.704903 0.798345 -3.717773 -9.090545 0.000007 -2.395987 -0.000009 -14.741159 -68.337499 11.946432 -5.399829 93.892365 -4.74309 -1.270023 -24.637608 -3.550693 -0.000003 -4.967678 0
-0.127303 -4.164083 -0.292957 -6.136031 -9.294405 -4.517496 -1.469617 -8.079004 5.266172 -3.883174 -3.654885 13.25519 0.000656 -1.976512 -0.001523 0.393664 5.21357 -2.708128 4.108056 4.409061 -10.146705 0 0 0 0 0 0 2.436254 0.61155 -9.252674 -8.639003 -9.588998 -106.256971 -10.921065 -38.435547 -7.547978 -11.502297 1.096325 -3.520993 0.050398 -0.112372 -7.390756 2.685625 0.615552 -25.815582 1.726594 0.246685 -16.262007 4.025365 0.888167 -20.644447 -0.973583 0.840604 -30.562561 4.935749 2.467071 -53.095435 1.220418 0.121036 -11.511016 2.957645 0.755577 -28.655965 2.347142 0.464184 -22.37245 1.243028 0.065507 -15.880519 4.053898 1.519159 -41.074051 3.366919 1.000162 -33.081724 12.807951 2.333457 9.419525 20.415874 0.538605 9.69099 19.121726 3.983046 4.028004 5.45758 0.506649 12.688681 -5.280148 -2.720135 82.132905 8.650634 -38.141349 7.610469 -1.274557 -10.78125 3.263907 -0.168472 -0.109156 8.350031 -2.160859 0.386531 20.280957 -1.128944 0.103093 10.435347 -2.243145 0.36816 24.460303 -3.274174 0.928942 31.671551 -5.224896 2.828946 56.841654 -1.032635 0.085197 9.629588 -3.302605 0.946583 31.978723 -2.065078 0.360421 19.377809 -2.508611 0.554 18.813988 -3.848751 1.329492 38.101753 -3.838231 1.330336 38.036558 -8.288905 -3.703672 -6.074452 -23.144311 8.672824 -11.912 -12.785699 5.85213 -4.199655 21.552983 -85.19453 6.447289 -4.568977 87.855863 6.588708 0.961847 -4.295293 -8.676985 0.000007 -2.651937 -0.000009 -15.351907 -67.184554 12.593733 -7.3837 94.270392 -5.505345 -0.79382 -25.679945 -3.798656 -0.000003 -5.223628 0
-0.127265 -4.165365 -0.29319 -6.243817 -9.446315 -4.507538 -1.469617 -8.189776 5.266172 -3.883335 -3.724661 13.255666 0 -2 0 0.393866 5.205426 -2.709111 4.108479 4.488029 -10.147712 0 0 0 0 0 0 2.436254 0.61155 -9.252674 -8.455646 -9.907351 -106.950106 -10.202414 -39.148114 -7.695861 -11.473749 0.68349 -3.43033 0.050398 -0.112372 -7.390756 2.685625 0.615552 -25.815582 1.726594 0.246685 -16.262007 4.025365 0.888167 -20.644447 -0.973583 0.840604 -30.562561 4.935749 2.467071 -53.095435 1.220418 0.121036 -11.511016 2.957645 0.755577 -28.655965 2.347142 0.464184 -22.37245 1.243028 0.065507 -15.880519 4.053898 1.519159 -41.074051 3.366919 1.000162 -33.081724 12.807951 2.333457 9.419525 20.415874 0.538605 9.69099 19.121726 3.983046 4.028004 5.45758 0.506649 12.688681 -5.989243 -3.431216 82.684338 8.153628 -38.975054 7.760273 -1.312914 -11.200975 2.954449 -0.168472 -0.109156 8.350031 -2.160859 0.386531 20.280957 -1.128944 0.103093 10.435347 -2.243145 0.36816 24.460303 -3.274174 0.928942 31.671551 -5.224896 2.828946 56.841654 -1.032635 0.085197 9.629588 -3.302605 0.946583 31.978723 -2.065078 0.360421 19.377809 -2.508611 0.554 18.813988 -3.848751 1.329492 38.101753 -3.838231 1.330336 38.036558 -8.288905 -3.703672 -6.074452 -23.144311 8.672824 -11.912 -12.785699 5.85213 -4.199655 21.811117 -85.200375 6.312541 -4.391717 88.1294 6.54643 1.020598 -4.504035 -8.527944 0.000006 -2.744247 -0.000009 -15.572211 -66.764132 12.82751 -8.099267 94.406871 -5.780553 -0.621799 -26.056274 -3.887817 -0.000003 -5.315938 0
