HIERARCHY
ROOT hips
{
  OFFSET 0 10.432787522119774 1.3615615910897314
  CHANNELS 6 Xposition Yposition Zposition Yrotation Xrotation Zrotation
  JOINT spine
  {
    OFFSET -7.042016674e-31 0.605849736412771 0
    CHANNELS 3 Yrotation Xrotation Zrotation
    JOINT chest
    {
      OFFSET 0 1.2699780403367527 0
      CHANNELS 3 Yrotation Xrotation Zrotation
      JOINT upperChest
      {
        OFFSET 0 1.217802795781373 0
        CHANNELS 3 Yrotation Xrotation Zrotation
        JOINT neck
        {
          OFFSET 0 1.524881793055447 0
          CHANNELS 3 Yrotation Xrotation Zrotation
          JOINT head
          {
            OFFSET 0 0.8197776686196176 0
            CHANNELS 3 Yrotation Xrotation Zrotation
            JOINT leftEye
            {
              OFFSET 0.27991711184325396 0.7377279215890094 0.1770057770610815
              CHANNELS 3 Yrotation Xrotation Zrotation
              End Site
              {
                OFFSET 0.27991711184325396 0.7377279215890094 0.1770057770610815
              }
            }
            JOINT rightEye
            {
              OFFSET -0.27991715118228666 0.7377278742074458 0.1770060973723161
              CHANNELS 3 Yrotation Xrotation Zrotation
              End Site
              {
                OFFSET -0.27991715118228666 0.7377278742074458 0.1770060973723161
              }
            }
          }
        }
        JOINT leftShoulder
        {
          OFFSET 0.4148696499235711 1.1670497283493415 0
          CHANNELS 3 Yrotation Xrotation Zrotation
          JOINT leftUpperArm
          {
            OFFSET 0.9737923520503171 0 0
            CHANNELS 3 Yrotation Xrotation Zrotation
            JOINT leftLowerArm
            {
              OFFSET 2.526933563002016 0 0
              CHANNELS 3 Yrotation Xrotation Zrotation
              JOINT leftHand
              {
                OFFSET 2.4263767061081287 0 0
                CHANNELS 3 Yrotation Xrotation Zrotation
                JOINT leftIndexProximal
                {
                  OFFSET 0.7243194303238094 0.08170604153373495 0.2036005707489045
                  CHANNELS 3 Yrotation Xrotation Zrotation
                  JOINT leftIndexIntermediate
                  {
                    OFFSET 0.365490110639793 -0.010566615565509085 -0.014147873305413783
                    CHANNELS 3 Yrotation Xrotation Zrotation
                    JOINT leftIndexDistal
                    {
                      OFFSET 0.22502693978020916 -0.007863122621388996 -0.007567729919505994
                      CHANNELS 3 Yrotation Xrotation Zrotation
                      End Site
                      {
                        OFFSET 0.22502693978020916 -0.007863122621388996 -0.007567729919505994
                      }
                    }
                  }
                }
                JOINT leftLittleProximal
                {
                  OFFSET 0.6720313867214986 0.0817059792423902 -0.3230034999786495
                  CHANNELS 3 Yrotation Xrotation Zrotation
                  JOINT leftLittleIntermediate
                  {
                    OFFSET 0.3458364459000005 5.4765410650858826e-8 2.495506794542024e-7
                    CHANNELS 3 Yrotation Xrotation Zrotation
                    JOINT leftLittleDistal
                    {
                      OFFSET 0.19925722030351722 0.003096736260194355 0.0038306323169590983
                      CHANNELS 3 Yrotation Xrotation Zrotation
                      End Site
                      {
                        OFFSET 0.19925722030351722 0.003096736260194355 0.0038306323169590983
                      }
                    }
                  }
                }
                JOINT leftMiddleProximal
                {
                  OFFSET 0.7300446999180792 0.08170730820222194 0.0226618663244387
                  CHANNELS 3 Yrotation Xrotation Zrotation
                  JOINT leftMiddleIntermediate
                  {
                    OFFSET 0.40758107610000327 -0.0000012383582372876845 3.721937498757377e-7
                    CHANNELS 3 Yrotation Xrotation Zrotation
                    JOINT leftMiddleDistal
                    {
                      OFFSET 0.2514495697999991 7.561061998728746e-8 -1.6055895105115958e-7
                      CHANNELS 3 Yrotation Xrotation Zrotation
                      End Site
                      {
                        OFFSET 0.2514495697999991 7.561061998728746e-8 -1.6055895105115958e-7
                      }
                    }
                  }
                }
                JOINT leftRingProximal
                {
                  OFFSET 0.7217264995692599 0.08170598771388815 -0.1504338786787948
                  CHANNELS 3 Yrotation Xrotation Zrotation
                  JOINT leftRingIntermediate
                  {
                    OFFSET 0.3780872700000014 6.409956210262635e-8 3.723059401883333e-7
                    CHANNELS 3 Yrotation Xrotation Zrotation
                    JOINT leftRingDistal
                    {
                      OFFSET 0.21812031524459563 -0.00271347557699686 -0.004991351593452126
                      CHANNELS 3 Yrotation Xrotation Zrotation
                      End Site
                      {
                        OFFSET 0.21812031524459563 -0.00271347557699686 -0.004991351593452126
                      }
                    }
                  }
                }
                JOINT leftThumbProximal
                {
                  OFFSET 0.10793670302222891 -0.165278914300383 -0.07775358168875651
                  CHANNELS 3 Yrotation Xrotation Zrotation
                  JOINT leftThumbIntermediate
                  {
                    OFFSET 0.40355763830204994 -0.017484092948475194 0.31777731504028983
                    CHANNELS 3 Yrotation Xrotation Zrotation
                    JOINT leftThumbDistal
                    {
                      OFFSET 0.2318770514136803 -0.018507879151339335 0.21396002480314588
                      CHANNELS 3 Yrotation Xrotation Zrotation
                      End Site
                      {
                        OFFSET 0.2318770514136803 -0.018507879151339335 0.21396002480314588
                      }
                    }
                  }
                }
              }
            }
          }
        }
        JOINT rightShoulder
        {
          OFFSET -0.4148696499235712 1.1670497283493415 0
          CHANNELS 3 Yrotation Xrotation Zrotation
          JOINT rightUpperArm
          {
            OFFSET -0.9737923520503168 0 0
            CHANNELS 3 Yrotation Xrotation Zrotation
            JOINT rightLowerArm
            {
              OFFSET -2.5269335630020175 0 0
              CHANNELS 3 Yrotation Xrotation Zrotation
              JOINT rightHand
              {
                OFFSET -2.4263767061081274 0 0
                CHANNELS 3 Yrotation Xrotation Zrotation
                JOINT rightIndexProximal
                {
                  OFFSET -0.7243194303238094 0.08170604153373495 0.2036005707489045
                  CHANNELS 3 Yrotation Xrotation Zrotation
                  JOINT rightIndexIntermediate
                  {
                    OFFSET -0.365490110639793 -0.010566615565509085 -0.014147873305413783
                    CHANNELS 3 Yrotation Xrotation Zrotation
                    JOINT rightIndexDistal
                    {
                      OFFSET -0.22502693978020916 -0.007863122621388996 -0.007567729919505994
                      CHANNELS 3 Yrotation Xrotation Zrotation
                      End Site
                      {
                        OFFSET -0.22502693978020916 -0.007863122621388996 -0.007567729919505994
                      }
                    }
                  }
                }
                JOINT rightLittleProximal
                {
                  OFFSET -0.6720313867214986 0.0817059792423902 -0.3230034999786495
                  CHANNELS 3 Yrotation Xrotation Zrotation
                  JOINT rightLittleIntermediate
                  {
                    OFFSET -0.3458364459000005 5.4765410650858826e-8 2.495506794542024e-7
                    CHANNELS 3 Yrotation Xrotation Zrotation
                    JOINT rightLittleDistal
                    {
                      OFFSET -0.19925722030351722 0.003096736260194355 0.0038306323169590983
                      CHANNELS 3 Yrotation Xrotation Zrotation
                      End Site
                      {
                        OFFSET -0.19925722030351722 0.003096736260194355 0.0038306323169590983
                      }
                    }
                  }
                }
                JOINT rightMiddleProximal
                {
                  OFFSET -0.7300446999180792 0.08170730820222194 0.0226618663244387
                  CHANNELS 3 Yrotation Xrotation Zrotation
                  JOINT rightMiddleIntermediate
                  {
                    OFFSET -0.40758107610000327 -0.0000012383582372876845 3.721937498757377e-7
                    CHANNELS 3 Yrotation Xrotation Zrotation
                    JOINT rightMiddleDistal
                    {
                      OFFSET -0.2514495697999991 7.561061998728746e-8 -1.6055895105115958e-7
                      CHANNELS 3 Yrotation Xrotation Zrotation
                      End Site
                      {
                        OFFSET -0.2514495697999991 7.561061998728746e-8 -1.6055895105115958e-7
                      }
                    }
                  }
                }
                JOINT rightRingProximal
                {
                  OFFSET -0.7217264995692599 0.08170598771388815 -0.1504338786787948
                  CHANNELS 3 Yrotation Xrotation Zrotation
                  JOINT rightRingIntermediate
                  {
                    OFFSET -0.3780872700000014 6.409956210262635e-8 3.723059401883333e-7
                    CHANNELS 3 Yrotation Xrotation Zrotation
                    JOINT rightRingDistal
                    {
                      OFFSET -0.21812031524459563 -0.00271347557699686 -0.004991351593452126
                      CHANNELS 3 Yrotation Xrotation Zrotation
                      End Site
                      {
                        OFFSET -0.21812031524459563 -0.00271347557699686 -0.004991351593452126
                      }
                    }
                  }
                }
                JOINT rightThumbProximal
                {
                  OFFSET -0.10793670302222891 -0.165278914300383 -0.07775358168875651
                  CHANNELS 3 Yrotation Xrotation Zrotation
                  JOINT rightThumbIntermediate
                  {
                    OFFSET -0.40355763830204994 -0.017484092948475194 0.31777731504028983
                    CHANNELS 3 Yrotation Xrotation Zrotation
                    JOINT rightThumbDistal
                    {
                      OFFSET -0.2318770514136803 -0.018507879151339335 0.21396002480314588
                      CHANNELS 3 Yrotation Xrotation Zrotation
                      End Site
                      {
                        OFFSET -0.2318770514136803 -0.018507879151339335 0.21396002480314588
                      }
                    }
                  }
                }
              }
            }
          }
        }
      }
    }
  }
  JOINT leftUpperLeg
  {
    OFFSET 0.8486251400000001 -0.44215692923454897 0
    CHANNELS 3 Yrotation Xrotation Zrotation
    JOINT leftLowerLeg
    {
      OFFSET 0 -4.1014783730019015 0
      CHANNELS 3 Yrotation Xrotation Zrotation
      JOINT leftFoot
      {
        OFFSET -0.0002543926242001143 -4.7729227580453255 0.007402839656626761
        CHANNELS 3 Yrotation Xrotation Zrotation
        JOINT leftToes
        {
          OFFSET 0 -0.7027876860119923 1.2062921852216233
          CHANNELS 3 Yrotation Xrotation Zrotation
          End Site
          {
            OFFSET 0 -0.7027876860119923 1.2062921852216233
          }
        }
      }
    }
  }
  JOINT rightUpperLeg
  {
    OFFSET -0.8486251400000001 -0.44215692923454897 0
    CHANNELS 3 Yrotation Xrotation Zrotation
    JOINT rightLowerLeg
    {
      OFFSET 0 -4.1014783730019015 0
      CHANNELS 3 Yrotation Xrotation Zrotation
      JOINT rightFoot
      {
        OFFSET 0.0002543926242001143 -4.7729227580453255 0.007402839656626761
        CHANNELS 3 Yrotation Xrotation Zrotation
        JOINT rightToes
        {
          OFFSET 0 -0.7027876860119923 1.2062921852216233
          CHANNELS 3 Yrotation Xrotation Zrotation
          End Site
          {
            OFFSET 0 -0.7027876860119923 1.2062921852216233
          }
        }
      }
    }
  }
}
MOTION
Frames: 25
Frame Time: 0.03333333333333333
-0.127265 -4.165365 -0.29319 -6.243817 -9.446315 -4.507538 -1.469617 -8.189776 5.266172 -3.883335 -3.724661 13.255666 0 -2 0 0.393866 5.205426 -2.709111 4.108479 4.488029 -10.147712 0 0 0 0 0 0 2.436254 0.61155 -9.252674 -8.455646 -9.907351 -106.950106 -10.202414 -39.148114 -7.695861 -11.473749 0.68349 -3.43033 0.050398 -0.112372 -7.390756 2.685625 0.615552 -25.815582 1.726594 0.246685 -16.262007 4.025365 0.888167 -20.644447 -0.973583 0.840604 -30.562561 4.935749 2.467071 -53.095435 1.220418 0.121036 -11.511016 2.957645 0.755577 -28.655965 2.347142 0.464184 -22.37245 1.243028 0.065507 -15.880519 4.053898 1.519159 -41.074051 3.366919 1.000162 -33.081724 12.807951 2.333457 9.419525 20.415874 0.538605 9.69099 19.121726 3.983046 4.028004 5.45758 0.506649 12.688681 -5.989243 -3.431216 82.684338 8.153628 -38.975054 7.760273 -1.312914 -11.200975 2.954449 -0.168472 -0.109156 8.350031 -2.160859 0.386531 20.280957 -1.128944 0.103093 10.435347 -2.243145 0.36816 24.460303 -3.274174 0.928942 31.671551 -5.224896 2.828946 56.841654 -1.032635 0.085197 9.629588 -3.302605 0.946583 31.978723 -2.065078 0.360421 19.377809 -2.508611 0.554 18.813988 -3.848751 1.329492 38.101753 -3.838231 1.330336 38.036558 -8.288905 -3.703672 -6.074452 -23.144311 8.672824 -11.912 -12.785699 5.85213 -4.199655 21.811117 -85.200375 6.312541 -4.391717 88.1294 6.54643 1.020598 -4.504035 -8.527944 0.000006 -2.744247 -0.000009 -15.572211 -66.764132 12.82751 -8.099267 94.406871 -5.780553 -0.621799 -26.056274 -3.887817 -0.000003 -5.315938 0
-0.127265 -4.071619 -0.270387 -6.243817 -8.887037 -4.507538 -1.469617 -8.189776 5.266172 -3.885298 -3.545792 13.228796 0.001478 -1.409717 -0.088488 0.404985 4.847704 -2.656301 4.107391 4.4818 -10.089132 0 0 0 0 0 0 2.436258 0.611538 -9.252674 -10.572729 -7.932625 -107.644456 -11.246986 -38.491447 -7.68101 -13.463929 1.612756 -4.492122 0.050398 -0.112372 -7.390756 2.685625 0.615552 -25.815582 1.726594 0.246685 -16.262007 4.025365 0.888167 -20.644447 -0.973583 0.840604 -30.562561 4.935749 2.467071 -53.095435 1.220418 0.121036 -11.511016 2.957645 0.755577 -28.655965 2.347142 0.464184 -22.37245 1.243028 0.065507 -15.880519 4.053898 1.519159 -41.074051 3.366919 1.000162 -33.081724 12.807951 2.333457 9.419525 20.415874 0.538605 9.69099 19.121726 3.983046 4.028004 5.457576 0.506639 12.688687 -5.034762 -3.023849 83.848792 9.442276 -38.766292 7.755771 -1.350851 -11.186712 3.358404 -0.168472 -0.109156 8.350031 -2.160859 0.386531 20.280957 -1.128944 0.103093 10.435347 -2.243145 0.36816 24.460303 -3.274174 0.928942 31.671551 -5.224896 2.828946 56.841654 -1.032635 0.085197 9.629588 -3.302605 0.946583 31.978723 -2.065078 0.360421 19.377809 -2.508611 0.554 18.813988 -3.848751 1.329492 38.101753 -3.838231 1.330336 38.036558 -8.288905 -3.703672 -6.074452 -23.144311 8.672824 -11.912 -12.785699 5.85213 -4.199655 21.664184 -86.396045 6.369229 -4.364618 88.07611 6.642771 1.076808 -4.388946 -8.497525 0.000013 -2.744247 -0.000009 -15.565071 -67.944247 12.7441 -8.078776 94.355824 -5.703321 -0.695264 -25.954664 -3.95722 -0.000003 -5.315937 -0.000001
-0.127265 -3.972237 -0.246197 -6.243817 -7.564167 -4.507538 -1.469617 -8.189779 5.266172 -3.886639 -3.110335 13.162993 0.021063 0.027536 -0.30361 0.429498 3.976699 -2.526886 4.092052 4.494165 -9.946002 0 0 0 0 0 0 2.436253 0.611547 -9.252675 -14.544927 -4.315782 -109.422324 -13.743986 -37.005466 -7.649674 -17.412265 3.704293 -7.354243 0.050398 -0.112372 -7.390756 2.685625 0.615552 -25.815582 1.726594 0.246685 -16.262007 4.025365 0.888167 -20.644447 -0.973583 0.840604 -30.562561 4.935749 2.467071 -53.095435 1.220418 0.121036 -11.511016 2.957645 0.755577 -28.655965 2.347142 0.464184 -22.37245 1.243028 0.065507 -15.880519 4.053898 1.519159 -41.074051 3.366919 1.000162 -33.081724 12.807951 2.333457 9.419525 20.415874 0.538605 9.69099 19.121726 3.983046 4.028004 5.457579 0.50664 12.688683 -3.136631 -2.454235 86.780645 12.551726 -38.399629 7.748981 -1.553015 -10.972374 4.30015 -0.168472 -0.109156 8.350031 -2.160859 0.386531 20.280957 -1.128944 0.103093 10.435347 -2.243145 0.36816 24.460303 -3.274174 0.928942 31.671551 -5.224896 2.828946 56.841654 -1.032635 0.085197 9.629588 -3.302605 0.946583 31.978723 -2.065078 0.360421 19.377809 -2.508611 0.554 18.813988 -3.848751 1.329492 38.101753 -3.838231 1.330336 38.036558 -8.288905 -3.703672 -6.074452 -23.144311 8.672824 -11.912 -12.785699 5.85213 -4.199655 21.320708 -89.166929 6.505615 -4.289849 87.900676 6.870943 1.210182 -4.125283 -8.421424 0.00001 -2.744249 -0.000009 -15.557086 -70.679025 12.549286 -8.023705 94.186421 -5.517381 -0.875607 -25.72379 -4.121457 -0.000003 -5.315938 -0.000001
-0.127265 -3.865215 -0.221445 -6.243817 -5.759018 -4.507538 -1.469617 -8.189777 5.266172 -3.880282 -2.490444 13.068742 0.087297 2.074283 -0.606384 0.458511 2.736635 -2.340671 4.042901 4.567818 -9.743306 0 0 0 0 0 0 2.436255 0.611545 -9.252674 -18.356661 -1.024791 -112.093381 -17.191101 -35.137165 -7.618294 -20.999952 6.429737 -11.642934 0.050398 -0.112372 -7.390756 2.685625 0.615552 -25.815582 1.726594 0.246685 -16.262007 4.025365 0.888167 -20.644447 -0.973583 0.840604 -30.562561 4.935749 2.467071 -53.095435 1.220418 0.121036 -11.511016 2.957645 0.755577 -28.655965 2.347142 0.464184 -22.37245 1.243028 0.065507 -15.880519 4.053898 1.519159 -41.074051 3.366919 1.000162 -33.081724 12.807951 2.333457 9.419525 20.415874 0.538605 9.69099 19.121726 3.983046 4.028004 5.457579 0.506641 12.688683 -1.191459 -2.371245 91.154781 16.944449 -38.185713 7.747418 -2.13073 -10.223062 5.508101 -0.168472 -0.109156 8.350031 -2.160859 0.386531 20.280957 -1.128944 0.103093 10.435347 -2.243145 0.36816 24.460303 -3.274174 0.928942 31.671551 -5.224896 2.828946 56.841654 -1.032635 0.085197 9.629588 -3.302605 0.946583 31.978723 -2.065078 0.360421 19.377809 -2.508611 0.554 18.813988 -3.848751 1.329492 38.101753 -3.838231 1.330336 38.036558 -8.288905 -3.703672 -6.074452 -23.144311 8.672824 -11.912 -12.785699 5.85213 -4.199655 20.860557 -92.826918 6.697121 -4.163927 87.557049 7.182208 1.393296 -3.784043 -8.308906 0.000011 -2.744246 -0.000009 -15.565587 -74.291195 12.289207 -7.933247 93.852433 -5.256045 -1.136254 -25.429209 -4.345559 -0.000003 -5.315939 0
-0.127265 -3.749024 -0.196944 -6.243817 -3.752974 -4.507538 -1.469617 -8.189776 5.266172 -3.860196 -1.758217 12.957273 0.222893 4.493627 -0.952933 0.483901 1.271796 -2.117652 3.945368 4.724754 -9.509842 0 0 0 0 0 0 2.436257 0.611542 -9.252679 -21.322568 1.311 -115.344072 -21.068016 -33.255201 -7.596335 -22.093982 9.534632 -16.18165 0.050398 -0.112372 -7.390756 2.685625 0.615552 -25.815582 1.726594 0.246685 -16.262007 4.025365 0.888167 -20.644447 -0.973583 0.840604 -30.562561 4.935749 2.467071 -53.095435 1.220418 0.121036 -11.511016 2.957645 0.755577 -28.655965 2.347142 0.464184 -22.37245 1.243028 0.065507 -15.880519 4.053898 1.519159 -41.074051 3.366919 1.000162 -33.081724 12.807951 2.333457 9.419525 20.415874 0.538605 9.69099 19.121726 3.983046 4.028004 5.457581 0.506639 12.688688 0.392623 -2.935676 96.570525 22.032081 -38.369997 7.750996 -3.261536 -8.699815 6.636899 -0.168472 -0.109156 8.350031 -2.160859 0.386531 20.280957 -1.128944 0.103093 10.435347 -2.243145 0.36816 24.460303 -3.274174 0.928942 31.671551 -5.224896 2.828946 56.841654 -1.032635 0.085197 9.629588 -3.302605 0.946583 31.978723 -2.065078 0.360421 19.377809 -2.508611 0.554 18.813988 -3.848751 1.329492 38.101753 -3.838231 1.330336 38.036558 -8.288905 -3.703672 -6.074452 -23.144311 8.672824 -11.912 -12.785699 5.85213 -4.199655 20.310292 -96.699845 6.868963 -3.979082 87.00231 7.544797 1.464312 -3.430695 -8.137285 0.000008 -2.744246 -0.000009 -15.598553 -78.114829 12.012131 -7.809139 93.326555 -4.961424 -1.448998 -25.143221 -4.591694 -0.000003 -5.315939 -0.000001
-0.127265 -3.621419 -0.173743 -6.243817 -1.887578 -4.507537 -1.469617 -8.189778 5.266172 -3.822243 -0.990856 12.841462 0.436951 7.031925 -1.293361 0.495854 -0.263057 -1.879466 3.804087 4.831029 -9.279109 0 0 0 0 0 0 2.436258 0.611547 -9.252682 -23.676645 2.913929 -118.71108 -24.647979 -31.681797 -7.565222 -19.337506 12.349658 -19.346599 0.050398 -0.112372 -7.390756 2.685625 0.615552 -25.815582 1.726594 0.246685 -16.262007 4.025365 0.888167 -20.644447 -0.973583 0.840604 -30.562561 4.935749 2.467071 -53.095435 1.220418 0.121036 -11.511016 2.957645 0.755577 -28.655965 2.347142 0.464184 -22.37245 1.243028 0.065507 -15.880519 4.053898 1.519159 -41.074051 3.366919 1.000162 -33.081724 12.807951 2.333457 9.419525 20.415874 0.538605 9.69099 19.121726 3.983046 4.028004 5.457578 0.506639 12.688685 1.547656 -3.991271 102.561115 27.005469 -39.149987 7.76966 -4.908704 -6.542619 7.246955 -0.168472 -0.109156 8.350031 -2.160859 0.386531 20.280957 -1.128944 0.103093 10.435347 -2.243145 0.36816 24.460303 -3.274174 0.928942 31.671551 -5.224896 2.828946 56.841654 -1.032635 0.085197 9.629588 -3.302605 0.946583 31.978723 -2.065078 0.360421 19.377809 -2.508611 0.554 18.813988 -3.848751 1.329492 38.101753 -3.838231 1.330336 38.036558 -8.288905 -3.703672 -6.074452 -23.144311 8.672824 -11.912 -12.785699 5.85213 -4.199655 19.669269 -99.952091 6.897099 -3.722773 86.185732 7.928705 1.152398 -3.15843 -7.856637 0.000009 -2.744247 -0.000009 -15.641307 -81.33237 11.782364 -7.661663 92.588587 -4.711977 -1.777204 -24.973457 -4.805152 -0.000003 -5.315938 0
-0.127265 -3.484492 -0.152418 -6.243817 -0.464227 -4.507537 -1.469617 -8.189777 5.266172 -3.773025 -0.275289 12.735484 0.694678 9.402111 -1.582897 0.496901 -1.693855 -1.653907 3.653362 4.688642 -9.075082 0 0 0 0 0 0 2.436254 0.611542 -9.252679 -26.188926 4.339849 -121.819021 -27.090196 -30.661042 -7.551351 -15.235139 14.990501 -21.396225 0.050398 -0.112372 -7.390756 2.685625 0.615552 -25.815582 1.726594 0.246685 -16.262007 4.025365 0.888167 -20.644447 -0.973583 0.840604 -30.562561 4.935749 2.467071 -53.095435 1.220418 0.121036 -11.511016 2.957645 0.755577 -28.655965 2.347142 0.464184 -22.37245 1.243028 0.065507 -15.880519 4.053898 1.519159 -41.074051 3.366919 1.000162 -33.081724 12.807951 2.333457 9.419525 20.415874 0.538605 9.69099 19.121726 3.983046 4.028004 5.45758 0.506638 12.688686 2.614884 -5.171702 108.470245 30.917216 -40.408995 7.790811 -6.524191 -4.666914 7.290983 -0.168472 -0.109156 8.350031 -2.160859 0.386531 20.280957 -1.128944 0.103093 10.435347 -2.243145 0.36816 24.460303 -3.274174 0.928942 31.671551 -5.224896 2.828946 56.841654 -1.032635 0.085197 9.629588 -3.302605 0.946583 31.978723 -2.065078 0.360421 19.377809 -2.508611 0.554 18.813988 -3.848751 1.329492 38.101753 -3.838231 1.330336 38.036558 -8.288905 -3.703672 -6.074452 -23.144311 8.672824 -11.912 -12.785699 5.85213 -4.199655 19.080584 -101.957276 6.788922 -3.42533 85.192608 8.256594 0.539992 -3.062069 -7.520719 0.00001 -2.744247 -0.000009 -15.659606 -83.329548 11.653131 -7.522571 91.71398 -4.599642 -2.070056 -24.995831 -4.934891 -0.000003 -5.315937 -0.000001
-0.127265 -3.339165 -0.133563 -6.243817 0.235717 -4.507537 -1.469617 -8.189778 5.266172 -3.722141 0.317027 12.649944 0.948406 11.366469 -1.797071 0.490222 -2.877744 -1.464595 3.525184 4.111566 -8.908105 0 0 0 0 0 0 2.436256 0.611546 -9.252674 -29.5188 5.959297 -124.607502 -27.941346 -30.403427 -7.549137 -11.178029 17.581226 -22.159891 0.050398 -0.112372 -7.390756 2.685625 0.615552 -25.815582 1.726594 0.246685 -16.262007 4.025365 0.888167 -20.644447 -0.973583 0.840604 -30.562561 4.935749 2.467071 -53.095435 1.220418 0.121036 -11.511016 2.957645 0.755577 -28.655965 2.347142 0.464184 -22.37245 1.243028 0.065507 -15.880519 4.053898 1.519159 -41.074051 3.366919 1.000162 -33.081724 12.807951 2.333457 9.419525 20.415874 0.538605 9.69099 19.121726 3.983046 4.028004 5.457577 0.506646 12.688688 3.957091 -6.25379 113.806866 32.811447 -42.006357 7.81022 -7.503429 -4.08557 7.068934 -0.168472 -0.109156 8.350031 -2.160859 0.386531 20.280957 -1.128944 0.103093 10.435347 -2.243145 0.36816 24.460303 -3.274174 0.928942 31.671551 -5.224896 2.828946 56.841654 -1.032635 0.085197 9.629588 -3.302605 0.946583 31.978723 -2.065078 0.360421 19.377809 -2.508611 0.554 18.813988 -3.848751 1.329492 38.101753 -3.838231 1.330336 38.036558 -8.288905 -3.703672 -6.074452 -23.144311 8.672824 -11.912 -12.785699 5.85213 -4.199655 18.685461 -102.103747 6.519184 -3.114346 84.07614 8.463581 -0.336752 -3.228838 -7.182709 0.000009 -2.744248 -0.000009 -15.618528 -83.505291 11.674345 -7.42806 90.749667 -4.71516 -2.278526 -25.28355 -4.931614 -0.000003 -5.315937 0
-0.127265 -3.180163 -0.120007 -6.243817 -0.017391 -4.507537 -1.469617 -8.189777 5.266172 -3.682696 0.714803 12.593935 1.138587 12.686857 -1.92571 0.481611 -3.672493 -1.336074 3.445342 3.294549 -8.790714 0 0 0 0 0 0 2.436261 0.611543 -9.25268 -33.732628 7.822244 -126.699264 -26.588906 -30.880866 -7.556971 -8.106538 19.208333 -21.264892 0.050398 -0.112372 -7.390756 2.685625 0.615552 -25.815582 1.726594 0.246685 -16.262007 4.025365 0.888167 -20.644447 -0.973583 0.840604 -30.562561 4.935749 2.467071 -53.095435 1.220418 0.121036 -11.511016 2.957645 0.755577 -28.655965 2.347142 0.464184 -22.37245 1.243028 0.065507 -15.880519 4.053898 1.519159 -41.074051 3.366919 1.000162 -33.081724 12.807951 2.333457 9.419525 20.415874 0.538605 9.69099 19.121726 3.983046 4.028004 5.457568 0.506639 12.688685 5.929996 -6.897735 117.440876 31.280043 -43.403479 7.830103 -7.135496 -5.35781 7.217336 -0.168472 -0.109156 8.350031 -2.160859 0.386531 20.280957 -1.128944 0.103093 10.435347 -2.243145 0.36816 24.460303 -3.274174 0.928942 31.671551 -5.224896 2.828946 56.841654 -1.032635 0.085197 9.629588 -3.302605 0.946583 31.978723 -2.065078 0.360421 19.377809 -2.508611 0.554 18.813988 -3.848751 1.329492 38.101753 -3.838231 1.330336 38.036558 -8.288905 -3.703672 -6.074452 -23.144311 8.672824 -11.912 -12.785699 5.85213 -4.199655 18.627877 -99.735169 6.04508 -2.859312 83.041332 8.494522 -1.460148 -4.012202 -6.85767 0.000006 -2.744247 -0.00001 -15.520154 -81.20854 11.885903 -7.426136 89.887385 -5.0975 -2.384462 -26.185993 -4.765767 -0.000003 -5.315939 -0.000001
-0.127265 -2.993959 -0.115838 -6.243817 -1.060296 -4.507537 -1.469617 -8.189777 5.266172 -3.675967 0.792937 12.588358 1.168869 12.945768 -1.934013 0.478661 -3.828583 -1.321556 3.438279 2.990652 -8.775652 0 0 0 0 0 0 2.436264 0.611541 -9.252676 -37.566227 9.693082 -126.695062 -22.663798 -31.596001 -7.563193 -7.406421 19.385291 -19.452126 0.050398 -0.112372 -7.390756 2.685625 0.615552 -25.815582 1.726594 0.246685 -16.262007 4.025365 0.888167 -20.644447 -0.973583 0.840604 -30.562561 4.935749 2.467071 -53.095435 1.220418 0.121036 -11.511016 2.957645 0.755577 -28.655965 2.347142 0.464184 -22.37245 1.243028 0.065507 -15.880519 4.053898 1.519159 -41.074051 3.366919 1.000162 -33.081724 12.807951 2.333457 9.419525 20.415874 0.538605 9.69099 19.121726 3.983046 4.028004 5.457574 0.506644 12.688684 8.587276 -6.300683 117.042487 25.114036 -43.610002 7.838199 -4.517061 -8.176454 8.172219 -0.168472 -0.109156 8.350031 -2.160859 0.386531 20.280957 -1.128944 0.103093 10.435347 -2.243145 0.36816 24.460303 -3.274174 0.928942 31.671551 -5.224896 2.828946 56.841654 -1.032635 0.085197 9.629588 -3.302605 0.946583 31.978723 -2.065078 0.360421 19.377809 -2.508611 0.554 18.813988 -3.848751 1.329492 38.101753 -3.838231 1.330336 38.036558 -8.288905 -3.703672 -6.074452 -23.144311 8.672824 -11.912 -12.785699 5.85213 -4.199655 18.950361 -94.786129 5.370628 -2.681161 82.149168 8.366244 -2.759434 -5.816985 -6.490016 0.00001 -2.744248 -0.000009 -15.433747 -76.364829 12.267511 -7.508561 89.172426 -5.65725 -2.454951 -28.122836 -4.47688 -0.000003 -5.315939 -0.000001
-0.127265 -2.785071 -0.117348 -6.243817 -2.180937 -4.507538 -1.469617 -8.189776 5.266172 -3.711785 0.563754 12.66249 0.985986 12.180646 -1.738893 0.478589 -3.370794 -1.482844 3.530008 3.277826 -8.926653 0 0 0 0 0 0 2.436256 0.611544 -9.252672 -40.379928 11.69121 -124.281668 -16.256889 -32.528967 -7.567548 -10.446871 16.988077 -20.022788 0.050398 -0.112372 -7.390756 2.685625 0.615552 -25.815582 1.726594 0.246685 -16.262007 4.025365 0.888167 -20.644447 -0.973583 0.840604 -30.562561 4.935749 2.467071 -53.095435 1.220418 0.121036 -11.511016 2.957645 0.755577 -28.655965 2.347142 0.464184 -22.37245 1.243028 0.065507 -15.880519 4.053898 1.519159 -41.074051 3.366919 1.000162 -33.081724 12.807951 2.333457 9.419525 20.415874 0.538605 9.69099 19.121726 3.983046 4.028004 5.457577 0.506644 12.688683 11.27409 -4.265849 112.925665 17.064847 -43.117188 7.833712 0.108617 -11.280612 8.788823 -0.168472 -0.109156 8.350031 -2.160859 0.386531 20.280957 -1.128944 0.103093 10.435347 -2.243145 0.36816 24.460303 -3.274174 0.928942 31.671551 -5.224896 2.828946 56.841654 -1.032635 0.085197 9.629588 -3.302605 0.946583 31.978723 -2.065078 0.360421 19.377809 -2.508611 0.554 18.813988 -3.848751 1.329492 38.101753 -3.838231 1.330336 38.036558 -8.288905 -3.703672 -6.074452 -23.144311 8.672824 -11.912 -12.785699 5.85213 -4.199655 19.476905 -88.864074 4.665558 -2.438591 80.930738 8.201334 -4.021951 -8.057169 -6.06074 0.000009 -2.744247 -0.000008 -15.414284 -70.563093 12.698046 -7.580747 88.129989 -6.236535 -2.56768 -30.511519 -4.167898 -0.000003 -5.315937 0
-0.127265 -2.556071 -0.121835 -6.243817 -2.835184 -4.507538 -1.469617 -8.189777 5.266172 -3.773389 0.098329 12.807298 0.662896 10.631268 -1.342756 0.473046 -2.44059 -1.792258 3.693585 4.013185 -9.223949 0 0 0 0 0 0 2.436254 0.611543 -9.252674 -42.657587 14.115486 -120.277427 -7.768752 -34.242107 -7.588132 -19.670165 8.743781 -23.209264 0.050398 -0.112372 -7.390756 2.685625 0.615552 -25.815582 1.726594 0.246685 -16.262007 4.025365 0.888167 -20.644447 -0.973583 0.840604 -30.562561 4.935749 2.467071 -53.095435 1.220418 0.121036 -11.511016 2.957645 0.755577 -28.655965 2.347142 0.464184 -22.37245 1.243028 0.065507 -15.880519 4.053898 1.519159 -41.074051 3.366919 1.000162 -33.081724 12.807951 2.333457 9.419525 20.415874 0.538605 9.69099 19.121726 3.983046 4.028004 5.457579 0.50664 12.688685 13.598658 -1.413564 107.470964 10.260486 -42.958591 7.822051 4.387159 -13.137766 7.555028 -0.168472 -0.109156 8.350031 -2.160859 0.386531 20.280957 -1.128944 0.103093 10.435347 -2.243145 0.36816 24.460303 -3.274174 0.928942 31.671551 -5.224896 2.828946 56.841654 -1.032635 0.085197 9.629588 -3.302605 0.946583 31.978723 -2.065078 0.360421 19.377809 -2.508611 0.554 18.813988 -3.848751 1.329492 38.101753 -3.838231 1.330336 38.036558 -8.288905 -3.703672 -6.074452 -23.144311 8.672824 -11.912 -12.785699 5.85213 -4.199655 20.072815 -83.207651 4.075188 -2.027557 79.057283 8.076116 -5.06889 -10.308588 -5.580179 0.00001 -2.744249 -0.000009 -15.456013 -65.031442 13.092419 -7.602065 86.426589 -6.772656 -2.778025 -32.919355 -3.888973 -0.000003 -5.315938 0
-0.127265 -2.312809 -0.127403 -6.243817 -2.919393 -4.507538 -1.469617 -8.189777 5.266172 -3.833034 -0.510113 12.983987 0.333608 8.6131 -0.833883 0.45604 -1.22388 -2.160545 3.871885 5.00618 -9.586668 0 0 0 0 0 0 2.436255 0.611534 -9.252679 -44.580641 16.606376 -116.484731 1.231692 -37.32621 -7.664839 -34.342202 -5.50514 -22.902077 0.050398 -0.112372 -7.390756 2.685625 0.615552 -25.815582 1.726594 0.246685 -16.262007 4.025365 0.888167 -20.644447 -0.973583 0.840604 -30.562561 4.935749 2.467071 -53.095435 1.220418 0.121036 -11.511016 2.957645 0.755577 -28.655965 2.347142 0.464184 -22.37245 1.243028 0.065507 -15.880519 4.053898 1.519159 -41.074051 3.366919 1.000162 -33.081724 12.807951 2.333457 9.419525 20.415874 0.538605 9.69099 19.121726 3.983046 4.028004 5.457579 0.506635 12.688688 15.695548 1.173424 103.38466 6.386864 -43.723496 7.835248 6.139526 -13.524022 3.729432 -0.168472 -0.109156 8.350031 -2.160859 0.386531 20.280957 -1.128944 0.103093 10.435347 -2.243145 0.36816 24.460303 -3.274174 0.928942 31.671551 -5.224896 2.828946 56.841654 -1.032635 0.085197 9.629588 -3.302605 0.946583 31.978723 -2.065078 0.360421 19.377809 -2.508611 0.554 18.813988 -3.848751 1.329492 38.101753 -3.838231 1.330336 38.036558 -8.288905 -3.703672 -6.074452 -23.144311 8.672824 -11.912 -12.785699 5.85213 -4.199655 20.71282 -78.198264 3.682168 -1.404716 76.381819 7.978162 -5.792979 -12.289987 -5.109769 0.00001 -2.744248 -0.000009 -15.533319 -60.146716 13.429229 -7.578617 83.903023 -7.277988 -3.074092 -35.04034 -3.633534 -0.000003 -5.315937 -0.000001
-0.127265 -2.065041 -0.133105 -6.243817 -2.919393 -4.507538 -1.469617 -8.189777 5.266172 -3.869121 -1.159628 13.142232 0.110503 6.465489 -0.354746 0.426146 0.075319 -2.481857 4.006425 6.038241 -9.913579 0 0 0 0 0 0 2.436256 0.611542 -9.252674 -43.743938 16.750471 -114.466309 8.27277 -41.632827 -7.717616 -39.27774 -11.73076 -17.067028 0.050398 -0.112372 -7.390756 2.685625 0.615552 -25.815582 1.726594 0.246685 -16.262007 4.025365 0.888167 -20.644447 -0.973583 0.840604 -30.562561 4.935749 2.467071 -53.095435 1.220418 0.121036 -11.511016 2.957645 0.755577 -28.655965 2.347142 0.464184 -22.37245 1.243028 0.065507 -15.880519 4.053898 1.519159 -41.074051 3.366919 1.000162 -33.081724 12.807951 2.333457 9.419525 20.415874 0.538605 9.69099 19.121726 3.983046 4.028004 5.457571 0.506643 12.688686 16.565245 3.53161 99.269869 4.433807 -44.35891 7.845926 6.564201 -12.864707 -1.439341 -0.168472 -0.109156 8.350031 -2.160859 0.386531 20.280957 -1.128944 0.103093 10.435347 -2.243145 0.36816 24.460303 -3.274174 0.928942 31.671551 -5.224896 2.828946 56.841654 -1.032635 0.085197 9.629588 -3.302605 0.946583 31.978723 -2.065078 0.360421 19.377809 -2.508611 0.554 18.813988 -3.848751 1.329492 38.101753 -3.838231 1.330336 38.036558 -8.288905 -3.703672 -6.074452 -23.144311 8.672824 -11.912 -12.785699 5.85213 -4.199655 21.551796 -72.979289 3.51895 -0.576555 72.790655 7.774177 -6.154681 -13.793219 -4.752153 0.000006 -2.744247 -0.000009 -15.66048 -55.05362 13.754199 -7.545088 80.415893 -7.802166 -3.355579 -36.625108 -3.357577 -0.000003 -5.315938 0
-0.127265 -1.798154 -0.134593 -6.243817 -2.927638 -4.507538 -1.469617 -8.095889 5.266172 -3.882663 -1.703515 13.23564 0.01322 4.49458 -0.062607 0.403166 1.288322 -2.668749 4.075457 6.806162 -10.107583 0 0 0 0 0 0 2.436257 0.611537 -9.252678 -36.947022 12.330465 -113.161913 10.647868 -44.764499 -7.669602 -36.155749 -12.510323 -10.2037 0.050398 -0.112372 -7.390756 2.685625 0.615552 -25.815582 1.726594 0.246685 -16.262007 4.025365 0.888167 -20.644447 -0.973583 0.840604 -30.562561 4.935749 2.467071 -53.095435 1.220418 0.121036 -11.511016 2.957645 0.755577 -28.655965 2.347142 0.464184 -22.37245 1.243028 0.065507 -15.880519 4.053898 1.519159 -41.074051 3.366919 1.000162 -33.081724 12.807951 2.333457 9.419525 20.415874 0.538605 9.69099 19.121726 3.983046 4.028004 5.457578 0.50664 12.688686 13.994447 5.343385 92.744061 3.68284 -43.171757 7.711683 7.5306 -12.100243 -4.918176 -0.168472 -0.109156 8.350031 -2.160859 0.386531 20.280957 -1.128944 0.103093 10.435347 -2.243145 0.36816 24.460303 -3.274174 0.928942 31.671551 -5.224896 2.828946 56.841654 -1.032635 0.085197 9.629588 -3.302605 0.946583 31.978723 -2.065078 0.360421 19.377809 -2.508611 0.554 18.813988 -3.848751 1.329492 38.101753 -3.838231 1.330336 38.036558 -8.288905 -3.703672 -6.074452 -23.144311 8.672824 -11.912 -12.785699 5.85213 -4.199655 22.379163 -66.941936 3.682077 0.304033 67.612253 7.300751 -6.234104 -14.368883 -4.528816 0.000006 -2.666008 -0.000009 -15.622481 -49.143754 14.101109 -7.714951 75.300013 -8.505107 -3.282965 -37.186203 -2.995671 -0.000003 -5.237698 0
-0.127265 -1.496171 -0.125696 -6.243817 -2.958424 -4.507538 -1.469617 -7.745333 5.266172 -3.884168 -1.998326 13.254818 -0.001471 2.867263 -0.001786 0.397002 2.345365 -2.706929 4.087742 7.03835 -10.147572 0 0 0 0 0 0 2.436253 0.611546 -9.252676 -29.882607 7.997719 -110.755865 9.821919 -44.951702 -7.249697 -29.6146 -12.094044 -4.421475 0.050398 -0.112372 -7.390756 2.685625 0.615552 -25.815582 1.726594 0.246685 -16.262007 4.025365 0.888167 -20.644447 -0.973583 0.840604 -30.562561 4.935749 2.467071 -53.095435 1.220418 0.121036 -11.511016 2.957645 0.755577 -28.655965 2.347142 0.464184 -22.37245 1.243028 0.065507 -15.880519 4.053898 1.519159 -41.074051 3.366919 1.000162 -33.081724 12.807951 2.333457 9.419525 20.415874 0.538605 9.69099 19.121726 3.983046 4.028004 5.457579 0.506641 12.688683 8.388464 5.000581 86.057276 3.408909 -40.041616 7.229428 7.78874 -12.885068 -6.564484 -0.168472 -0.109156 8.350031 -2.160859 0.386531 20.280957 -1.128944 0.103093 10.435347 -2.243145 0.36816 24.460303 -3.274174 0.928942 31.671551 -5.224896 2.828946 56.841654 -1.032635 0.085197 9.629588 -3.302605 0.946583 31.978723 -2.065078 0.360421 19.377809 -2.508611 0.554 18.813988 -3.848751 1.329492 38.101753 -3.838231 1.330336 38.036558 -8.288905 -3.703672 -6.074452 -23.144311 8.672824 -11.912 -12.785699 5.85213 -4.199655 22.826568 -59.453723 4.346242 0.951689 59.936869 6.429095 -5.933297 -13.354927 -4.577567 0.000006 -2.373875 -0.000009 -15.005627 -41.773849 14.625757 -8.73163 67.610616 -9.817335 -2.008926 -35.935319 -2.417597 -0.000003 -4.945566 0
-0.127265 -1.201041 -0.106891 -6.243817 -3.00728 -4.507538 -1.469617 -7.189015 5.266172 -3.883897 -2.064135 13.255104 -0.000996 1.611622 -0.001133 0.395978 3.218737 -2.707609 4.08886 6.841574 -10.147979 0 0 0 0 0 0 2.436254 0.611547 -9.252674 -26.374339 6.519798 -106.898447 8.162146 -42.472722 -6.526443 -22.419009 -11.010157 -1.150124 0.050398 -0.112372 -7.390756 2.685625 0.615552 -25.815582 1.726594 0.246685 -16.262007 4.025365 0.888167 -20.644447 -0.973583 0.840604 -30.562561 4.935749 2.467071 -53.095435 1.220418 0.121036 -11.511016 2.957645 0.755577 -28.655965 2.347142 0.464184 -22.37245 1.243028 0.065507 -15.880519 4.053898 1.519159 -41.074051 3.366919 1.000162 -33.081724 12.807951 2.333457 9.419525 20.415874 0.538605 9.69099 19.121726 3.983046 4.028004 5.457576 0.506641 12.688683 2.675378 3.497895 80.927561 3.027316 -35.940288 6.4779 6.773477 -15.320611 -7.119294 -0.168472 -0.109156 8.350031 -2.160859 0.386531 20.280957 -1.128944 0.103093 10.435347 -2.243145 0.36816 24.460303 -3.274174 0.928942 31.671551 -5.224896 2.828946 56.841654 -1.032635 0.085197 9.629588 -3.302605 0.946583 31.978723 -2.065078 0.360421 19.377809 -2.508611 0.554 18.813988 -3.848751 1.329492 38.101753 -3.838231 1.330336 38.036558 -8.288905 -3.703672 -6.074452 -23.144311 8.672824 -11.912 -12.785699 5.85213 -4.199655 22.782161 -51.677482 5.358008 1.228396 51.08058 5.349581 -5.337355 -11.011026 -4.910556 0.000006 -1.910279 -0.000008 -14.041493 -34.02469 15.122552 -10.648043 58.587379 -11.237783 0.263889 -33.201999 -1.789993 -0.000003 -4.481969 0
-0.127265 -0.946199 -0.079257 -6.243817 -3.069187 -4.507538 -1.469617 -6.484092 5.266172 -3.883718 -1.929746 13.255274 -0.000696 0.739272 -0.000813 0.395281 3.889852 -2.708064 4.091999 6.325574 -10.148025 0 0 0 0 0 0 2.436256 0.611549 -9.252672 -26.207632 7.624907 -102.651136 6.676446 -37.990058 -5.58305 -16.856823 -9.625262 -0.069971 0.050398 -0.112372 -7.390756 2.685625 0.615552 -25.815582 1.726594 0.246685 -16.262007 4.025365 0.888167 -20.644447 -0.973583 0.840604 -30.562561 4.935749 2.467071 -53.095435 1.220418 0.121036 -11.511016 2.957645 0.755577 -28.655965 2.347142 0.464184 -22.37245 1.243028 0.065507 -15.880519 4.053898 1.519159 -41.074051 3.366919 1.000162 -33.081724 12.807951 2.333457 9.419525 20.415874 0.538605 9.69099 19.121726 3.983046 4.028004 5.457576 0.506643 12.688682 -0.857494 2.988368 76.672239 2.86957 -31.346369 5.534902 4.794699 -18.230208 -6.872384 -0.168472 -0.109156 8.350031 -2.160859 0.386531 20.280957 -1.128944 0.103093 10.435347 -2.243145 0.36816 24.460303 -3.274174 0.928942 31.671551 -5.224896 2.828946 56.841654 -1.032635 0.085197 9.629588 -3.302605 0.946583 31.978723 -2.065078 0.360421 19.377809 -2.508611 0.554 18.813988 -3.848751 1.329492 38.101753 -3.838231 1.330336 38.036558 -8.288905 -3.703672 -6.074452 -23.144311 8.672824 -11.912 -12.785699 5.85213 -4.199655 22.194 -44.625046 6.514995 1.079559 42.354611 4.312904 -4.576676 -7.748223 -5.515067 0.000007 -1.322844 -0.000009 -12.858429 -27.557734 15.305009 -12.6163 52.602651 -12.258167 1.915876 -30.973327 -1.084131 0.031845 -4.38946 -0.00086
-0.127204 -0.743246 -0.048262 -6.300603 -3.227824 -4.522028 -1.469617 -5.687718 5.266172 -3.883603 -1.645306 13.255381 -0.000519 0.191354 -0.000645 0.394814 4.382807 -2.708379 4.096139 5.624451 -10.147932 0 0 0 0 0 0 2.436254 0.611545 -9.252675 -26.323175 9.030503 -98.240454 4.552097 -31.735556 -4.501546 -13.272791 -8.164508 -0.166034 0.050398 -0.112372 -7.390756 2.685625 0.615552 -25.815582 1.726594 0.246685 -16.262007 4.025365 0.888167 -20.644447 -0.973583 0.840604 -30.562561 4.935749 2.467071 -53.095435 1.220418 0.121036 -11.511016 2.957645 0.755577 -28.655965 2.347142 0.464184 -22.37245 1.243028 0.065507 -15.880519 4.053898 1.519159 -41.074051 3.366919 1.000162 -33.081724 12.807951 2.333457 9.419525 20.415874 0.538605 9.69099 19.121726 3.983046 4.028004 5.457576 0.506643 12.688682 -1.903246 4.10751 72.461007 3.300278 -26.160945 4.47026 2.345945 -20.221652 -5.873363 -0.168472 -0.109156 8.350031 -2.160859 0.386531 20.280957 -1.128944 0.103093 10.435347 -2.243145 0.36816 24.460303 -3.274174 0.928942 31.671551 -5.224896 2.828946 56.841654 -1.032635 0.085197 9.629588 -3.302605 0.946583 31.978723 -2.065078 0.360421 19.377809 -2.508611 0.554 18.813988 -3.848751 1.329492 38.101753 -3.838231 1.330336 38.036558 -8.288905 -3.703672 -6.074452 -23.144311 8.672824 -11.912 -12.785699 5.85213 -4.199655 21.168542 -38.404877 7.63415 0.487726 34.715615 3.469348 -3.624609 -4.311339 -6.254713 0.000006 -0.659198 -0.000009 -11.563809 -21.853766 15.21821 -13.471089 48.992215 -12.837846 2.347799 -29.442618 -0.582957 0.08426 -4.541552 -0.006353
-0.126999 -0.591615 -0.020646 -6.506371 -3.619806 -4.566211 -1.469617 -4.857053 5.266172 -3.883529 -1.260838 13.255454 -0.000412 -0.090476 -0.000534 0.394506 4.721423 -2.7086 4.100398 4.846762 -10.147816 0 0 0 0 0 0 2.436254 0.611549 -9.252674 -25.631628 9.863471 -93.674087 2.330142 -24.550061 -3.363095 -11.659801 -6.619131 -0.860527 0.050398 -0.112372 -7.390756 2.685625 0.615552 -25.815582 1.726594 0.246685 -16.262007 4.025365 0.888167 -20.644447 -0.973583 0.840604 -30.562561 4.935749 2.467071 -53.095435 1.220418 0.121036 -11.511016 2.957645 0.755577 -28.655965 2.347142 0.464184 -22.37245 1.243028 0.065507 -15.880519 4.053898 1.519159 -41.074051 3.366919 1.000162 -33.081724 12.807951 2.333457 9.419525 20.415874 0.538605 9.69099 19.121726 3.983046 4.028004 5.457579 0.506645 12.688683 -0.948212 6.580799 67.895707 3.988995 -20.585379 3.35813 0.046586 -20.459166 -4.208675 -0.168472 -0.109156 8.350031 -2.160859 0.386531 20.280957 -1.128944 0.103093 10.435347 -2.243145 0.36816 24.460303 -3.274174 0.928942 31.671551 -5.224896 2.828946 56.841654 -1.032635 0.085197 9.629588 -3.302605 0.946583 31.978723 -2.065078 0.360421 19.377809 -2.508611 0.554 18.813988 -3.848751 1.329492 38.101753 -3.838231 1.330336 38.036558 -8.288905 -3.703672 -6.074452 -23.144311 8.672824 -11.912 -12.785699 5.85213 -4.199655 19.902001 -32.528412 8.581271 -0.453661 28.468421 2.864335 -2.381962 -1.300176 -6.954153 0.000006 0.033023 -0.000009 -10.568679 -15.527692 14.687274 -13.227879 44.303968 -12.387487 2.333147 -27.374605 -0.639875 0.120024 -4.409193 -0.016353
-0.126844 -0.485517 0.000617 -6.708279 -3.998084 -4.586106 -1.469617 -4.049249 5.266172 -3.883474 -0.831525 13.255514 -0.000323 -0.181641 -0.000421 0.394291 4.939859 -2.708767 4.104022 4.089207 -10.147737 0 0 0 0 0 0 2.436254 0.611548 -9.252675 -23.779878 9.864104 -88.981936 -0.549432 -17.293461 -2.249533 -11.391016 -4.89656 -1.681974 0.050398 -0.112372 -7.390756 2.685625 0.615552 -25.815582 1.726594 0.246685 -16.262007 4.025365 0.888167 -20.644447 -0.973583 0.840604 -30.562561 4.935749 2.467071 -53.095435 1.220418 0.121036 -11.511016 2.957645 0.755577 -28.655965 2.347142 0.464184 -22.37245 1.243028 0.065507 -15.880519 4.053898 1.519159 -41.074051 3.366919 1.000162 -33.081724 12.807951 2.333457 9.419525 20.415874 0.538605 9.69099 19.121726 3.983046 4.028004 5.457579 0.506644 12.688683 0.624355 9.442176 63.163214 5.137971 -14.897164 2.273765 -1.518676 -18.957126 -2.081247 -0.168472 -0.109156 8.350031 -2.160859 0.386531 20.280957 -1.128944 0.103093 10.435347 -2.243145 0.36816 24.460303 -3.274174 0.928942 31.671551 -5.224896 2.828946 56.841654 -1.032635 0.085197 9.629588 -3.302605 0.946583 31.978723 -2.065078 0.360421 19.377809 -2.508611 0.554 18.813988 -3.848751 1.329492 38.101753 -3.838231 1.330336 38.036558 -8.288905 -3.703672 -6.074452 -23.144311 8.672824 -11.912 -12.785699 5.85213 -4.199655 18.532374 -27.50918 9.387242 -1.553698 23.621431 2.514465 -1.180583 1.138358 -7.616003 0.000006 0.706193 -0.000009 -10.036853 -9.335021 13.489074 -12.447008 37.869194 -10.482711 2.091606 -24.430949 -1.264423 0.121097 -3.757429 -0.023759
-0.126889 -0.418419 0.015067 -6.748521 -4.116572 -4.55584 -1.469617 -3.321463 5.266172 -3.883426 -0.412032 13.255568 -0.000223 -0.155846 -0.000287 0.394126 5.071255 -2.708901 4.106558 3.428521 -10.147709 0 0 0 0 0 0 2.436254 0.611549 -9.252675 -20.696949 9.019888 -84.291894 -4.713295 -10.610414 -1.245233 -11.492026 -3.004363 -2.393368 0.050398 -0.112372 -7.390756 2.685625 0.615552 -25.815582 1.726594 0.246685 -16.262007 4.025365 0.888167 -20.644447 -0.973583 0.840604 -30.562561 4.935749 2.467071 -53.095435 1.220418 0.121036 -11.511016 2.957645 0.755577 -28.655965 2.347142 0.464184 -22.37245 1.243028 0.065507 -15.880519 4.053898 1.519159 -41.074051 3.366919 1.000162 -33.081724 12.807951 2.333457 9.419525 20.415874 0.538605 9.69099 19.121726 3.983046 4.028004 5.457579 0.506647 12.688682 0.874979 11.34912 58.69265 6.964603 -9.48165 1.29065 -1.908271 -16.206553 -0.027982 -0.168472 -0.109156 8.350031 -2.160859 0.386531 20.280957 -1.128944 0.103093 10.435347 -2.243145 0.36816 24.460303 -3.274174 0.928942 31.671551 -5.224896 2.828946 56.841654 -1.032635 0.085197 9.629588 -3.302605 0.946583 31.978723 -2.065078 0.360421 19.377809 -2.508611 0.554 18.813988 -3.848751 1.329492 38.101753 -3.838231 1.330336 38.036558 -8.288905 -3.703672 -6.074452 -23.144311 8.672824 -11.912 -12.785699 5.85213 -4.199655 17.180176 -23.968046 10.093933 -2.631357 20.120603 2.393014 -0.346377 3.021175 -8.269726 0.000007 1.312681 -0.000009 -9.774511 -4.679693 11.600731 -11.614699 30.725609 -7.425834 1.663432 -20.962786 -2.094718 0.088034 -2.636493 -0.020785
-0.127058 -0.381863 0.023195 -6.593639 -3.928865 -4.516031 -1.469617 -2.730852 5.266172 -3.883381 -0.057272 13.255617 -0.000117 -0.087609 -0.000148 0.393992 5.149215 -2.70901 4.107921 2.921018 -10.147708 0 0 0 0 0 0 2.436254 0.61155 -9.252674 -17.870016 8.14012 -80.369437 -9.102742 -5.371342 -0.429955 -11.470854 -1.194804 -2.947978 0.050398 -0.112372 -7.390756 2.685625 0.615552 -25.815582 1.726594 0.246685 -16.262007 4.025365 0.888167 -20.644447 -0.973583 0.840604 -30.562561 4.935749 2.467071 -53.095435 1.220418 0.121036 -11.511016 2.957645 0.755577 -28.655965 2.347142 0.464184 -22.37245 1.243028 0.065507 -15.880519 4.053898 1.519159 -41.074051 3.366919 1.000162 -33.081724 12.807951 2.333457 9.419525 20.415874 0.538605 9.69099 19.121726 3.983046 4.028004 5.45758 0.506648 12.688681 0.670497 12.529245 55.362286 9.001211 -5.02232 0.491644 -1.668181 -13.542963 1.537821 -0.168472 -0.109156 8.350031 -2.160859 0.386531 20.280957 -1.128944 0.103093 10.435347 -2.243145 0.36816 24.460303 -3.274174 0.928942 31.671551 -5.224896 2.828946 56.841654 -1.032635 0.085197 9.629588 -3.302605 0.946583 31.978723 -2.065078 0.360421 19.377809 -2.508611 0.554 18.813988 -3.848751 1.329492 38.101753 -3.838231 1.330336 38.036558 -8.288905 -3.703672 -6.074452 -23.144311 8.672824 -11.912 -12.785699 5.85213 -4.199655 15.992092 -22.024411 10.702824 -3.539324 17.804874 2.418177 0.020583 4.381133 -8.879361 0.000007 1.804857 -0.000009 -9.361698 -2.587444 9.617496 -10.383049 25.434109 -4.371947 1.113987 -18.188957 -2.692293 0.040502 -1.400205 -0.009217
-0.12721 -0.367525 0.026375 -6.362656 -3.613091 -4.503102 -1.469617 -2.334571 5.266172 -3.883348 0.185789 13.255653 -0.000033 -0.025231 -0.000041 0.3939 5.191466 -2.709084 4.10841 2.599968 -10.147712 0 0 0 0 0 0 2.436254 0.61155 -9.252674 -16.564874 7.921724 -77.846263 -12.165399 -2.18245 0.109481 -11.457385 0.157852 -3.306577 0.050398 -0.112372 -7.390756 2.685625 0.615552 -25.815582 1.726594 0.246685 -16.262007 4.025365 0.888167 -20.644447 -0.973583 0.840604 -30.562561 4.935749 2.467071 -53.095435 1.220418 0.121036 -11.511016 2.957645 0.755577 -28.655965 2.347142 0.464184 -22.37245 1.243028 0.065507 -15.880519 4.053898 1.519159 -41.074051 3.366919 1.000162 -33.081724 12.807951 2.333457 9.419525 20.415874 0.538605 9.69099 19.121726 3.983046 4.028004 5.45758 0.506648 12.688681 1.356383 13.819901 53.386364 10.548866 -2.056455 -0.044051 -1.398353 -11.793403 2.566528 -0.168472 -0.109156 8.350031 -2.160859 0.386531 20.280957 -1.128944 0.103093 10.435347 -2.243145 0.36816 24.460303 -3.274174 0.928942 31.671551 -5.224896 2.828946 56.841654 -1.032635 0.085197 9.629588 -3.302605 0.946583 31.978723 -2.065078 0.360421 19.377809 -2.508611 0.554 18.813988 -3.848751 1.329492 38.101753 -3.838231 1.330336 38.036558 -8.288905 -3.703672 -6.074452 -23.144311 8.672824 -11.912 -12.785699 5.85213 -4.199655 15.138535 -21.306147 11.142586 -4.161611 16.528192 2.500503 0.061335 5.211611 -9.343215 0.000007 2.135091 -0.000009 -8.832427 -2.456436 8.253171 -8.87836 22.924659 -2.366021 0.599625 -16.588953 -2.910462 0.006903 -0.544177 -0.001017
-0.127265 -0.365365 0.02681 -6.243817 -3.446315 -4.507538 -1.469617 -2.189776 5.266172 -3.883335 0.275339 13.255666 0 0 0 0.393866 5.205426 -2.709111 4.108479 2.488029 -10.147712 0 0 0 0 0 0 2.436254 0.61155 -9.252674 -16.455646 8.092649 -76.950106 -13.202414 -1.148114 0.304139 -11.473749 0.68349 -3.43033 0.050398 -0.112372 -7.390756 2.685625 0.615552 -25.815582 1.726594 0.246685 -16.262007 4.025365 0.888167 -20.644447 -0.973583 0.840604 -30.562561 4.935749 2.467071 -53.095435 1.220418 0.121036 -11.511016 2.957645 0.755577 -28.655965 2.347142 0.464184 -22.37245 1.243028 0.065507 -15.880519 4.053898 1.519159 -41.074051 3.366919 1.000162 -33.081724 12.807951 2.333457 9.419525 20.415874 0.538605 9.69099 19.121726 3.983046 4.028004 5.45758 0.506649 12.688681 2.010757 14.568784 52.684338 11.153628 -0.975054 -0.239727 -1.312914 -11.200975 2.954449 -0.168472 -0.109156 8.350031 -2.160859 0.386531 20.280957 -1.128944 0.103093 10.435347 -2.243145 0.36816 24.460303 -3.274174 0.928942 31.671551 -5.224896 2.828946 56.841654 -1.032635 0.085197 9.629588 -3.302605 0.946583 31.978723 -2.065078 0.360421 19.377809 -2.508611 0.554 18.813988 -3.848751 1.329492 38.101753 -3.838231 1.330336 38.036558 -8.288905 -3.703672 -6.074452 -23.144311 8.672824 -11.912 -12.785699 5.85213 -4.199655 14.811117 -21.200375 11.312541 -4.391717 16.1294 2.54643 0.020598 5.495965 -9.527944 0.000006 2.255753 -0.000009 -8.572211 -2.764132 7.82751 -8.099267 22.406871 -1.780553 0.378201 -16.056274 -2.887817 -0.000003 -0.315938 0
