HIERARCHY
ROOT hips
{
  OFFSET 0 10.432787522119774 1.3615615910897314
  CHANNELS 6 Xposition Yposition Zposition Yrotation Xrotation Zrotation
  JOINT spine
  {
    OFFSET -7.042016674e-31 0.605849736412771 0
    CHANNELS 3 Yrotation Xrotation Zrotation
    JOINT chest
    {
      OFFSET 0 1.2699780403367527 0
      CHANNELS 3 Yrotation Xrotation Zrotation
      JOINT upperChest
      {
        OFFSET 0 1.217802795781373 0
        CHANNELS 3 Yrotation Xrotation Zrotation
        JOINT neck
        {
          OFFSET 0 1.524881793055447 0
          CHANNELS 3 Yrotation Xrotation Zrotation
          JOINT head
          {
            OFFSET 0 0.8197776686196176 0
            CHANNELS 3 Yrotation Xrotation Zrotation
            JOINT leftEye
            {
              OFFSET 0.27991711184325396 0.7377279215890094 0.1770057770610815
              CHANNELS 3 Yrotation Xrotation Zrotation
              End Site
              {
                OFFSET 0.27991711184325396 0.7377279215890094 0.1770057770610815
              }
            }
            JOINT rightEye
            {
              OFFSET -0.27991715118228666 0.7377278742074458 0.1770060973723161
              CHANNELS 3 Yrotation Xrotation Zrotation
              End Site
              {
                OFFSET -0.27991715118228666 0.7377278742074458 0.1770060973723161
              }
            }
          }
        }
        JOINT leftShoulder
        {
          OFFSET 0.4148696499235711 1.1670497283493415 0
          CHANNELS 3 Yrotation Xrotation Zrotation
          JOINT leftUpperArm
          {
            OFFSET 0.9737923520503171 0 0
            CHANNELS 3 Yrotation Xrotation Zrotation
            JOINT leftLowerArm
            {
              OFFSET 2.526933563002016 0 0
              CHANNELS 3 Yrotation Xrotation Zrotation
              JOINT leftHand
              {
                OFFSET 2.4263767061081287 0 0
                CHANNELS 3 Yrotation Xrotation Zrotation
                JOINT leftIndexProximal
                {
                  OFFSET 0.7243194303238094 0.08170604153373495 0.2036005707489045
                  CHANNELS 3 Yrotation Xrotation Zrotation
                  JOINT leftIndexIntermediate
                  {
                    OFFSET 0.365490110639793 -0.010566615565509085 -0.014147873305413783
                    CHANNELS 3 Yrotation Xrotation Zrotation
                    JOINT leftIndexDistal
                    {
                      OFFSET 0.22502693978020916 -0.007863122621388996 -0.007567729919505994
                      CHANNELS 3 Yrotation Xrotation Zrotation
                      End Site
                      {
                        OFFSET 0.22502693978020916 -0.007863122621388996 -0.007567729919505994
                      }
                    }
                  }
                }
                JOINT leftLittleProximal
                {
                  OFFSET 0.6720313867214986 0.0817059792423902 -0.3230034999786495
                  CHANNELS 3 Yrotation Xrotation Zrotation
                  JOINT leftLittleIntermediate
                  {
                    OFFSET 0.3458364459000005 5.4765410650858826e-8 2.495506794542024e-7
                    CHANNELS 3 Yrotation Xrotation Zrotation
                    JOINT leftLittleDistal
                    {
                      OFFSET 0.19925722030351722 0.003096736260194355 0.0038306323169590983
                      CHANNELS 3 Yrotation Xrotation Zrotation
                      End Site
                      {
                        OFFSET 0.19925722030351722 0.003096736260194355 0.0038306323169590983
                      }
                    }
                  }
                }
                JOINT leftMiddleProximal
                {
                  OFFSET 0.7300446999180792 0.08170730820222194 0.0226618663244387
                  CHANNELS 3 Yrotation Xrotation Zrotation
                  JOINT leftMiddleIntermediate
                  {
                    OFFSET 0.40758107610000327 -0.0000012383582372876845 3.721937498757377e-7
                    CHANNELS 3 Yrotation Xrotation Zrotation
                    JOINT leftMiddleDistal
                    {
                      OFFSET 0.2514495697999991 7.561061998728746e-8 -1.6055895105115958e-7
                      CHANNELS 3 Yrotation Xrotation Zrotation
                      End Site
                      {
                        OFFSET 0.2514495697999991 7.561061998728746e-8 -1.6055895105115958e-7
                      }
                    }
                  }
                }
                JOINT leftRingProximal
                {
                  OFFSET 0.7217264995692599 0.08170598771388815 -0.1504338786787948
                  CHANNELS 3 Yrotation Xrotation Zrotation
                  JOINT leftRingIntermediate
                  {
                    OFFSET 0.3780872700000014 6.409956210262635e-8 3.723059401883333e-7
                    CHANNELS 3 Yrotation Xrotation Zrotation
                    JOINT leftRingDistal
                    {
                      OFFSET 0.21812031524459563 -0.00271347557699686 -0.004991351593452126
                      CHANNELS 3 Yrotation Xrotation Zrotation
                      End Site
                      {
                        OFFSET 0.21812031524459563 -0.00271347557699686 -0.004991351593452126
                      }
                    }
                  }
                }
                JOINT leftThumbProximal
                {
                  OFFSET 0.10793670302222891 -0.165278914300383 -0.07775358168875651
                  CHANNELS 3 Yrotation Xrotation Zrotation
                  JOINT leftThumbIntermediate
                  {
                    OFFSET 0.40355763830204994 -0.017484092948475194 0.31777731504028983
                    CHANNELS 3 Yrotation Xrotation Zrotation
                    JOINT leftThumbDistal
                    {
                      OFFSET 0.2318770514136803 -0.018507879151339335 0.21396002480314588
                      CHANNELS 3 Yrotation Xrotation Zrotation
                      End Site
                      {
                        OFFSET 0.2318770514136803 -0.018507879151339335 0.21396002480314588
                      }
                    }
                  }
                }
              }
            }
          }
        }
        JOINT rightShoulder
        {
          OFFSET -0.4148696499235712 1.1670497283493415 0
          CHANNELS 3 Yrotation Xrotation Zrotation
          JOINT rightUpperArm
          {
            OFFSET -0.9737923520503168 0 0
            CHANNELS 3 Yrotation Xrotation Zrotation
            JOINT rightLowerArm
            {
              OFFSET -2.5269335630020175 0 0
              CHANNELS 3 Yrotation Xrotation Zrotation
              JOINT rightHand
              {
                OFFSET -2.4263767061081274 0 0
                CHANNELS 3 Yrotation Xrotation Zrotation
                JOINT rightIndexProximal
                {
                  OFFSET -0.7243194303238094 0.08170604153373495 0.2036005707489045
                  CHANNELS 3 Yrotation Xrotation Zrotation
                  JOINT rightIndexIntermediate
                  {
                    OFFSET -0.365490110639793 -0.010566615565509085 -0.014147873305413783
                    CHANNELS 3 Yrotation Xrotation Zrotation
                    JOINT rightIndexDistal
                    {
                      OFFSET -0.22502693978020916 -0.007863122621388996 -0.007567729919505994
                      CHANNELS 3 Yrotation Xrotation Zrotation
                      End Site
                      {
                        OFFSET -0.22502693978020916 -0.007863122621388996 -0.007567729919505994
                      }
                    }
                  }
                }
                JOINT rightLittleProximal
                {
                  OFFSET -0.6720313867214986 0.0817059792423902 -0.3230034999786495
                  CHANNELS 3 Yrotation Xrotation Zrotation
                  JOINT rightLittleIntermediate
                  {
                    OFFSET -0.3458364459000005 5.4765410650858826e-8 2.495506794542024e-7
                    CHANNELS 3 Yrotation Xrotation Zrotation
                    JOINT rightLittleDistal
                    {
                      OFFSET -0.19925722030351722 0.003096736260194355 0.0038306323169590983
                      CHANNELS 3 Yrotation Xrotation Zrotation
                      End Site
                      {
                        OFFSET -0.19925722030351722 0.003096736260194355 0.0038306323169590983
                      }
                    }
                  }
                }
                JOINT rightMiddleProximal
                {
                  OFFSET -0.7300446999180792 0.08170730820222194 0.0226618663244387
                  CHANNELS 3 Yrotation Xrotation Zrotation
                  JOINT rightMiddleIntermediate
                  {
                    OFFSET -0.40758107610000327 -0.0000012383582372876845 3.721937498757377e-7
                    CHANNELS 3 Yrotation Xrotation Zrotation
                    JOINT rightMiddleDistal
                    {
                      OFFSET -0.2514495697999991 7.561061998728746e-8 -1.6055895105115958e-7
                      CHANNELS 3 Yrotation Xrotation Zrotation
                      End Site
                      {
                        OFFSET -0.2514495697999991 7.561061998728746e-8 -1.6055895105115958e-7
                      }
                    }
                  }
                }
                JOINT rightRingProximal
                {
                  OFFSET -0.7217264995692599 0.08170598771388815 -0.1504338786787948
                  CHANNELS 3 Yrotation Xrotation Zrotation
                  JOINT rightRingIntermediate
                  {
                    OFFSET -0.3780872700000014 6.409956210262635e-8 3.723059401883333e-7
                    CHANNELS 3 Yrotation Xrotation Zrotation
                    JOINT rightRingDistal
                    {
                      OFFSET -0.21812031524459563 -0.00271347557699686 -0.004991351593452126
                      CHANNELS 3 Yrotation Xrotation Zrotation
                      End Site
                      {
                        OFFSET -0.21812031524459563 -0.00271347557699686 -0.004991351593452126
                      }
                    }
                  }
                }
                JOINT rightThumbProximal
                {
                  OFFSET -0.10793670302222891 -0.165278914300383 -0.07775358168875651
                  CHANNELS 3 Yrotation Xrotation Zrotation
                  JOINT rightThumbIntermediate
                  {
                    OFFSET -0.40355763830204994 -0.017484092948475194 0.31777731504028983
                    CHANNELS 3 Yrotation Xrotation Zrotation
                    JOINT rightThumbDistal
                    {
                      OFFSET -0.2318770514136803 -0.018507879151339335 0.21396002480314588
                      CHANNELS 3 Yrotation Xrotation Zrotation
                      End Site
                      {
                        OFFSET -0.2318770514136803 -0.018507879151339335 0.21396002480314588
                      }
                    }
                  }
                }
              }
            }
          }
        }
      }
    }
  }
  JOINT leftUpperLeg
  {
    OFFSET 0.8486251400000001 -0.44215692923454897 0
    CHANNELS 3 Yrotation Xrotation Zrotation
    JOINT leftLowerLeg
    {
      OFFSET 0 -4.1014783730019015 0
      CHANNELS 3 Yrotation Xrotation Zrotation
      JOINT leftFoot
      {
        OFFSET -0.0002543926242001143 -4.7729227580453255 0.007402839656626761
        CHANNELS 3 Yrotation Xrotation Zrotation
        JOINT leftToes
        {
          OFFSET 0 -0.7027876860119923 1.2062921852216233
          CHANNELS 3 Yrotation Xrotation Zrotation
          End Site
          {
            OFFSET 0 -0.7027876860119923 1.2062921852216233
          }
        }
      }
    }
  }
  JOINT rightUpperLeg
  {
    OFFSET -0.8486251400000001 -0.44215692923454897 0
    CHANNELS 3 Yrotation Xrotation Zrotation
    JOINT rightLowerLeg
    {
      OFFSET 0 -4.1014783730019015 0
      CHANNELS 3 Yrotation Xrotation Zrotation
      JOINT rightFoot
      {
        OFFSET 0.0002543926242001143 -4.7729227580453255 0.007402839656626761
        CHANNELS 3 Yrotation Xrotation Zrotation
        JOINT rightToes
        {
          OFFSET 0 -0.7027876860119923 1.2062921852216233
          CHANNELS 3 Yrotation Xrotation Zrotation
          End Site
          {
            OFFSET 0 -0.7027876860119923 1.2062921852216233
          }
        }
      }
    }
  }
}
MOTION
Frames: 33
Frame Time: 0.03333333333333333
-0.127265 -0.365365 0.02681 -6.243817 -3.446315 -4.507538 -1.469617 -2.189776 5.266172 -3.883335 0.275339 13.255666 0 0 0 0.393866 5.205426 -2.709111 4.108479 2.488029 -10.147712 0 0 0 0 0 0 2.436254 0.61155 -9.252674 -16.455646 8.092649 -76.950106 -13.202414 -1.148114 0.304139 -11.473749 0.68349 -3.43033 0.050398 -0.112372 -7.390756 2.685625 0.615552 -25.815582 1.726594 0.246685 -16.262007 4.025365 0.888167 -20.644447 -0.973583 0.840604 -30.562561 4.935749 2.467071 -53.095435 1.220418 0.121036 -11.511016 2.957645 0.755577 -28.655965 2.347142 0.464184 -22.37245 1.243028 0.065507 -15.880519 4.053898 1.519159 -41.074051 3.366919 1.000162 -33.081724 12.807951 2.333457 9.419525 20.415874 0.538605 9.69099 19.121726 3.983046 4.028004 5.45758 0.506649 12.688681 2.010757 14.568784 52.684338 11.153628 -0.975054 -0.239727 -1.312914 -11.200975 2.954449 -0.168472 -0.109156 8.350031 -2.160859 0.386531 20.280957 -1.128944 0.103093 10.435347 -2.243145 0.36816 24.460303 -3.274174 0.928942 31.671551 -5.224896 2.828946 56.841654 -1.032635 0.085197 9.629588 -3.302605 0.946583 31.978723 -2.065078 0.360421 19.377809 -2.508611 0.554 18.813988 -3.848751 1.329492 38.101753 -3.838231 1.330336 38.036558 -8.288905 -3.703672 -6.074452 -23.144311 8.672824 -11.912 -12.785699 5.85213 -4.199655 14.811117 -21.200375 11.312541 -4.391717 16.1294 2.54643 0.020598 5.495965 -9.527944 0.000006 2.255753 -0.000009 -8.572211 -2.764132 7.82751 -8.099267 22.406871 -1.780553 0.378201 -16.056274 -2.887817 -0.000003 -0.315938 0
-0.124092 -0.357603 0.026826 -6.25962 -3.444985 -4.526926 -1.469617 -2.189774 5.266172 -3.847255 0.312834 13.276939 0.116822 0.123558 0.029304 0.321677 5.129781 -2.711357 4.026377 2.404983 -10.140925 0 0 0 0 0 0 2.411631 0.611532 -9.25268 -16.438598 8.081555 -76.93899 -12.825637 -1.263562 0.302457 -11.473746 0.683489 -3.430329 0.050398 -0.112372 -7.390756 2.685625 0.615552 -25.815582 1.726594 0.246685 -16.262007 4.025365 0.888167 -20.644447 -0.973583 0.840604 -30.562561 4.935749 2.467071 -53.095435 1.220418 0.121036 -11.511016 2.957645 0.755577 -28.655965 2.347142 0.464184 -22.37245 1.243028 0.065507 -15.880519 4.053898 1.519159 -41.074051 3.366919 1.000162 -33.081724 12.807951 2.333457 9.419525 20.415874 0.538605 9.69099 19.121726 3.983046 4.028004 5.414246 0.506668 12.688666 2.040735 14.590662 52.704146 12.010704 -0.862309 -0.242021 -1.312914 -11.200975 2.954449 -0.168472 -0.109156 8.350031 -2.160859 0.386531 20.280957 -1.128944 0.103093 10.435347 -2.243145 0.36816 24.460303 -3.274174 0.928942 31.671551 -5.224896 2.828946 56.841654 -1.032635 0.085197 9.629588 -3.302605 0.946583 31.978723 -2.065078 0.360421 19.377809 -2.508611 0.554 18.813988 -3.848751 1.329492 38.101753 -3.838231 1.330336 38.036558 -8.288905 -3.703672 -6.074452 -23.144311 8.672824 -11.912 -12.785699 5.85213 -4.199655 14.796069 -23.171188 11.414521 -4.458713 23.731299 2.508301 0.04237 2.967265 -9.675062 0.000006 2.255753 -0.00001 -8.466478 1.140604 7.871317 -8.067875 19.761324 -1.743769 0.271791 -12.054442 -2.668258 -0.094228 2.045563 0.137713
-0.120408 -0.338941 0.026866 -6.300188 -3.441742 -4.57672 -1.469617 -2.189775 5.266172 -3.846425 0.372451 13.318254 0.120684 0.320262 0.043519 0.318512 5.010674 -2.706495 4.016201 2.274607 -10.107787 0 0 0 0 0 0 2.348389 0.611502 -9.252699 -16.394102 8.052543 -76.91014 -12.391373 -1.559803 0.297879 -11.473749 0.68349 -3.43033 0.050398 -0.112372 -7.390756 2.685625 0.615552 -25.815582 1.726594 0.246685 -16.262007 4.025365 0.888167 -20.644447 -0.973583 0.840604 -30.562561 4.935749 2.467071 -53.095435 1.220418 0.121036 -11.511016 2.957645 0.755577 -28.655965 2.347142 0.464184 -22.37245 1.243028 0.065507 -15.880519 4.053898 1.519159 -41.074051 3.366919 1.000162 -33.081724 12.807951 2.333457 9.419525 20.415874 0.538605 9.69099 19.121726 3.983046 4.028004 5.302987 0.506735 12.688641 2.116734 14.645923 52.754739 12.840315 -0.572656 -0.247355 -1.312914 -11.200975 2.954451 -0.168472 -0.109156 8.350031 -2.160859 0.386531 20.280957 -1.128944 0.103093 10.435347 -2.243145 0.36816 24.460303 -3.274174 0.928942 31.671551 -5.224896 2.828946 56.841654 -1.032635 0.085197 9.629588 -3.302605 0.946583 31.978723 -2.065078 0.360421 19.377809 -2.508611 0.554 18.813988 -3.848751 1.329492 38.101753 -3.838231 1.330336 38.036558 -8.288905 -3.703672 -6.074452 -23.144311 8.672824 -11.912 -12.785699 5.85213 -4.199655 14.8383 -22.776039 11.555819 -4.464463 26.811998 2.492151 0.107647 4.94852 -9.931292 0.000006 2.255752 -0.00001 -8.404017 4.011996 7.977156 -8.044264 18.597042 -1.726539 0.131046 -10.977718 -2.01294 -0.288726 6.806985 0.323477
-0.116353 -0.312843 0.026921 -6.362167 -3.437207 -4.652845 -1.469617 -2.189775 5.266172 -3.852098 0.443006 13.379835 0.106851 0.55314 0.0582 0.325612 4.869878 -2.697849 4.015887 2.120426 -10.066903 0 0 0 0 0 0 2.251748 0.611454 -9.252729 -16.324361 8.006906 -76.865299 -11.919568 -2.012077 0.290514 -11.473748 0.68349 -3.43033 0.050398 -0.112372 -7.390756 2.685625 0.615552 -25.815582 1.726594 0.246685 -16.262007 4.025365 0.888167 -20.644447 -0.973583 0.840604 -30.562561 4.935749 2.467071 -53.095435 1.220418 0.121036 -11.511016 2.957645 0.755577 -28.655965 2.347142 0.464184 -22.37245 1.243028 0.065507 -15.880519 4.053898 1.519159 -41.074051 3.366919 1.000162 -33.081724 12.807951 2.333457 9.419525 20.415874 0.538605 9.69099 19.121726 3.983046 4.028004 5.132939 0.506828 12.688595 2.230679 14.728376 52.831278 13.618349 -0.129642 -0.254872 -1.312913 -11.200976 2.954453 -0.168472 -0.109156 8.350031 -2.160859 0.386531 20.280957 -1.128944 0.103093 10.435347 -2.243145 0.36816 24.460303 -3.274174 0.928942 31.671551 -5.224896 2.828946 56.841654 -1.032635 0.085197 9.629588 -3.302605 0.946583 31.978723 -2.065078 0.360421 19.377809 -2.508611 0.554 18.813988 -3.848751 1.329492 38.101753 -3.838231 1.330336 38.036558 -8.288905 -3.703672 -6.074452 -23.144311 8.672824 -11.912 -12.785699 5.85213 -4.199655 14.905853 -21.371501 11.749816 -4.44238 27.989099 2.495751 0.254121 7.725205 -10.17825 0.000006 2.255752 -0.00001 -8.399725 6.285145 8.248375 -7.981443 15.415918 -1.68806 0.241522 -13.92555 -1.326713 -0.485818 11.577891 0.411929
-0.112067 -0.282781 0.026983 -6.442201 -3.432092 -4.751223 -1.469617 -2.189774 5.266172 -3.870027 0.513675 13.457094 0.0577 0.78655 0.066748 0.353961 4.729095 -2.684898 4.037194 1.966281 -10.015588 0 0 0 0 0 0 2.126876 0.611381 -9.252768 -16.231114 7.945601 -76.806024 -11.430201 -2.59554 0.280508 -11.473748 0.683487 -3.430331 0.050398 -0.112372 -7.390756 2.685625 0.615552 -25.815582 1.726594 0.246685 -16.262007 4.025365 0.888167 -20.644447 -0.973583 0.840604 -30.562561 4.935749 2.467071 -53.095435 1.220418 0.121036 -11.511016 2.957645 0.755577 -28.655965 2.347142 0.464184 -22.37245 1.243028 0.065507 -15.880519 4.053898 1.519159 -41.074051 3.366919 1.000162 -33.081724 12.807951 2.333457 9.419525 20.415874 0.538605 9.69099 19.121726 3.983046 4.028004 4.913252 0.50694 12.688532 2.373956 14.831341 52.928808 14.320692 0.443277 -0.263969 -1.312915 -11.200975 2.954448 -0.168472 -0.109156 8.350031 -2.160859 0.386531 20.280957 -1.128944 0.103093 10.435347 -2.243145 0.36816 24.460303 -3.274174 0.928942 31.671551 -5.224896 2.828946 56.841654 -1.032635 0.085197 9.629588 -3.302605 0.946583 31.978723 -2.065078 0.360421 19.377809 -2.508611 0.554 18.813988 -3.848751 1.329492 38.101753 -3.838231 1.330336 38.036558 -8.288905 -3.703672 -6.074452 -23.144311 8.672824 -11.912 -12.785699 5.85213 -4.199655 14.983839 -19.302522 12.000329 -4.403303 27.889604 2.512715 0.449233 8.453511 -10.330455 0.000006 2.255754 -0.00001 -8.550522 2.605162 8.656231 -7.971091 20.677178 -1.710033 0.461965 -17.177698 -1.125778 -0.583326 13.951424 0.424376
-0.107693 -0.252709 0.027044 -6.538864 -3.427134 -4.870138 -1.469617 -2.189775 5.266172 -3.90027 0.569919 13.548011 -0.025632 0.972521 0.066133 0.402997 4.617282 -2.667333 4.079528 1.843917 -9.954255 0 0 0 0 0 0 1.976032 0.611304 -9.252815 -16.11314 7.867575 -76.731978 -10.94694 -3.298968 0.269556 -11.473749 0.683491 -3.430327 0.050398 -0.112372 -7.390756 2.685625 0.615552 -25.815582 1.726594 0.246685 -16.262007 4.025365 0.888167 -20.644447 -0.973583 0.840604 -30.562561 4.935749 2.467071 -53.095435 1.220418 0.121036 -11.511016 2.957645 0.755577 -28.655965 2.347142 0.464184 -22.37245 1.243028 0.065507 -15.880519 4.053898 1.519159 -41.074051 3.366919 1.000162 -33.081724 12.807951 2.333457 9.419525 20.415874 0.538605 9.69099 19.121726 3.983046 4.028004 4.647832 0.507087 12.688458 2.540796 14.950222 53.044133 14.902568 1.136487 -0.276481 -1.312914 -11.200974 2.95445 -0.168472 -0.109156 8.350031 -2.160859 0.386531 20.280957 -1.128944 0.103093 10.435347 -2.243145 0.36816 24.460303 -3.274174 0.928942 31.671551 -5.224896 2.828946 56.841654 -1.032635 0.085197 9.629588 -3.302605 0.946583 31.978723 -2.065078 0.360421 19.377809 -2.508611 0.554 18.813988 -3.848751 1.329492 38.101753 -3.838231 1.330336 38.036558 -8.288905 -3.703672 -6.074452 -23.144311 8.672824 -11.912 -12.785699 5.85213 -4.199655 15.060666 -16.66563 12.314768 -4.354262 26.655107 2.535178 0.650306 7.123221 -10.423112 0.000007 2.255755 -0.00001 -8.723707 -6.541748 9.190146 -7.925001 34.329509 -1.749002 0.684688 -16.144732 -1.331312 -0.583327 13.951425 0.424376
-0.103403 -0.226601 0.027093 -6.645906 -3.423098 -5.001936 -1.469617 -2.189775 5.266172 -3.938031 0.60133 13.64706 -0.128534 1.076582 0.057892 0.463951 4.555138 -2.646601 4.133993 1.775987 -9.8872 0 0 0 0 0 0 1.808844 0.611213 -9.252863 -15.976374 7.776495 -76.647215 -10.491742 -4.076997 0.256855 -11.473749 0.68349 -3.430328 0.050398 -0.112372 -7.390756 2.685625 0.615552 -25.815582 1.726594 0.246685 -16.262007 4.025365 0.888167 -20.644447 -0.973583 0.840604 -30.562561 4.935749 2.467071 -53.095435 1.220418 0.121036 -11.511016 2.957645 0.755577 -28.655965 2.347142 0.464184 -22.37245 1.243028 0.065507 -15.880519 4.053898 1.519159 -41.074051 3.366919 1.000162 -33.081724 12.807951 2.333457 9.419525 20.415874 0.538605 9.69099 19.121726 3.983046 4.028004 4.353677 0.507247 12.688374 2.718261 15.075436 53.169206 15.353648 1.906031 -0.289622 -1.312914 -11.200976 2.95445 -0.168472 -0.109156 8.350031 -2.160859 0.386531 20.280957 -1.128944 0.103093 10.435347 -2.243145 0.36816 24.460303 -3.274174 0.928942 31.671551 -5.224896 2.828946 56.841654 -1.032635 0.085197 9.629588 -3.302605 0.946583 31.978723 -2.065078 0.360421 19.377809 -2.508611 0.554 18.813988 -3.848751 1.329492 38.101753 -3.838231 1.330336 38.036558 -8.288905 -3.703672 -6.074452 -23.144311 8.672824 -11.912 -12.785699 5.85213 -4.199655 15.120118 -13.629815 12.678497 -4.304744 24.591998 2.554025 0.853052 6.174839 -10.530857 0.000008 2.255754 -0.00001 -8.756297 -14.945579 9.758324 -7.826908 45.582248 -1.661136 1.027001 -11.816354 -1.458677 -0.583327 13.951429 0.424376
-0.099335 -0.20792 0.027125 -6.76005 -3.420469 -5.142553 -1.469617 -2.189775 5.266172 -3.981117 0.600113 13.751432 -0.245543 1.072847 0.043302 0.533562 4.558173 -2.623506 4.197389 1.779523 -9.816655 0 0 0 0 0 0 1.63052 0.611117 -9.252914 -15.823621 7.674024 -76.553702 -10.08455 -4.905112 0.242766 -11.473749 0.68349 -3.430327 0.050398 -0.112372 -7.390756 2.685625 0.615552 -25.815582 1.726594 0.246685 -16.262007 4.025365 0.888167 -20.644447 -0.973583 0.840604 -30.562561 4.935749 2.467071 -53.095435 1.220418 0.121036 -11.511016 2.957645 0.755577 -28.655965 2.347142 0.464184 -22.37245 1.243028 0.065507 -15.880519 4.053898 1.519159 -41.074051 3.366919 1.000162 -33.081724 12.807951 2.333457 9.419525 20.415874 0.538605 9.69099 19.121726 3.983046 4.028004 4.039926 0.507417 12.688281 2.899084 15.201677 53.299463 15.649779 2.728367 -0.303181 -1.312913 -11.200975 2.95445 -0.168472 -0.109156 8.350031 -2.160859 0.386531 20.280957 -1.128944 0.103093 10.435347 -2.243145 0.36816 24.460303 -3.274174 0.928942 31.671551 -5.224896 2.828946 56.841654 -1.032635 0.085197 9.629588 -3.302605 0.946583 31.978723 -2.065078 0.360421 19.377809 -2.508611 0.554 18.813988 -3.848751 1.329492 38.101753 -3.838231 1.330336 38.036558 -8.288905 -3.703672 -6.074452 -23.144311 8.672824 -11.912 -12.785699 5.85213 -4.199655 15.149739 -10.221401 13.081331 -4.262807 21.743639 2.563996 1.049292 5.593567 -10.649115 0.000006 2.255754 -0.00001 -8.669851 -22.636743 10.278507 -7.761971 54.05073 -1.449892 1.424271 -6.314436 -1.438807 -0.583327 13.951423 0.424376
-0.095631 -0.200144 0.027137 -6.877981 -3.419565 -5.287876 -1.469617 -2.189774 5.266172 -4.027577 0.569671 13.858586 -0.372727 0.972503 0.025011 0.609415 4.6195 -2.599066 4.267497 1.846886 -9.744954 0 0 0 0 0 0 1.446263 0.611018 -9.252968 -15.658403 7.562335 -76.453658 -9.745255 -5.759002 0.227827 -11.473749 0.683487 -3.43033 0.050398 -0.112372 -7.390756 2.685625 0.615552 -25.815582 1.726594 0.246685 -16.262007 4.025365 0.888167 -20.644447 -0.973583 0.840604 -30.562561 4.935749 2.467071 -53.095435 1.220418 0.121036 -11.511016 2.957645 0.755577 -28.655965 2.347142 0.464184 -22.37245 1.243028 0.065507 -15.880519 4.053898 1.519159 -41.074051 3.366919 1.000162 -33.081724 12.807951 2.333457 9.419525 20.415874 0.538605 9.69099 19.121726 3.983046 4.028004 3.715727 0.507585 12.688185 3.076909 15.324452 53.430657 15.766784 3.579823 -0.317179 -1.312915 -11.200973 2.95445 -0.168472 -0.109156 8.350031 -2.160859 0.386531 20.280957 -1.128944 0.103093 10.435347 -2.243145 0.36816 24.460303 -3.274174 0.928942 31.671551 -5.224896 2.828946 56.841654 -1.032635 0.085197 9.629588 -3.302605 0.946583 31.978723 -2.065078 0.360421 19.377809 -2.508611 0.554 18.813988 -3.848751 1.329492 38.101753 -3.838231 1.330336 38.036558 -8.288905 -3.703672 -6.074452 -23.144311 8.672824 -11.912 -12.785699 5.85213 -4.199655 15.137286 -6.379206 13.508338 -4.238391 17.99563 2.562884 1.232088 5.427481 -10.772338 0.00001 2.255754 -0.00001 -8.509525 -29.515624 10.690907 -7.750186 59.119684 -1.18194 1.768809 -1.664775 -1.305575 -0.583327 13.951428 0.424376
-0.092533 -0.207905 0.027123 -6.995913 -3.420662 -5.433198 -1.469617 -2.189775 5.266172 -4.075898 0.515749 13.965537 -0.507688 0.794533 0.00559 0.690065 4.72748 -2.574489 4.34335 1.965275 -9.675125 0 0 0 0 0 0 1.26199 0.610922 -9.253023 -15.484923 7.444096 -76.349567 -9.511575 -6.610892 0.213698 -11.473749 0.68349 -3.430329 0.050398 -0.112372 -7.390756 2.685625 0.615552 -25.815582 1.726594 0.246685 -16.262007 4.025365 0.888167 -20.644447 -0.973583 0.840604 -30.562561 4.935749 2.467071 -53.095435 1.220418 0.121036 -11.511016 2.957645 0.755577 -28.655965 2.347142 0.464184 -22.37245 1.243028 0.065507 -15.880519 4.053898 1.519159 -41.074051 3.366919 1.000162 -33.081724 12.807951 2.333457 9.419525 20.415874 0.538605 9.69099 19.121726 3.983046 4.028004 3.391528 0.507759 12.688081 3.244799 15.439022 53.55773 15.655113 4.433454 -0.331141 -1.312913 -11.200975 2.954452 -0.168472 -0.109156 8.350031 -2.160859 0.386531 20.280957 -1.128944 0.103093 10.435347 -2.243145 0.36816 24.460303 -3.274174 0.928942 31.671551 -5.224896 2.828946 56.841654 -1.032635 0.085197 9.629588 -3.302605 0.946583 31.978723 -2.065078 0.360421 19.377809 -2.508611 0.554 18.813988 -3.848751 1.329492 38.101753 -3.838231 1.330336 38.036558 -8.288905 -3.703672 -6.074452 -23.144311 8.672824 -11.912 -12.785699 5.85213 -4.199655 15.110351 -4.38456 13.934671 -4.207392 17.701134 2.566713 1.455049 4.838623 -10.805975 -0.027456 1.58339 0.001004 -8.340029 -34.995503 10.960913 -7.736089 59.996825 -0.957616 1.972584 -1.074771 -1.223569 -0.583327 13.951429 0.424376
-0.090114 -0.226577 0.027089 -7.11006 -3.423483 -5.573812 -1.469617 -2.189775 5.266172 -4.124371 0.450575 14.069172 -0.646319 0.579235 -0.012738 0.77299 4.857689 -2.550766 4.422625 2.107859 -9.60964 0 0 0 0 0 0 1.083671 0.610824 -9.253072 -15.310094 7.323963 -76.24555 -9.391111 -7.433764 0.199621 -11.473749 0.68349 -3.43033 0.050398 -0.112372 -7.390756 2.685625 0.615552 -25.815582 1.726594 0.246685 -16.262007 4.025365 0.888167 -20.644447 -0.973583 0.840604 -30.562561 4.935749 2.467071 -53.095435 1.220418 0.121036 -11.511016 2.957645 0.755577 -28.655965 2.347142 0.464184 -22.37245 1.243028 0.065507 -15.880519 4.053898 1.519159 -41.074051 3.366919 1.000162 -33.081724 12.807951 2.333457 9.419525 20.415874 0.538605 9.69099 19.121726 3.983046 4.028004 3.077779 0.507921 12.687982 3.398689 15.542872 53.67743 15.364149 5.261434 -0.344584 -1.312914 -11.200974 2.954451 -0.168472 -0.109156 8.350031 -2.160859 0.386531 20.280957 -1.128944 0.103093 10.435347 -2.243145 0.36816 24.460303 -3.274174 0.928942 31.671551 -5.224896 2.828946 56.841654 -1.032635 0.085197 9.629588 -3.302605 0.946583 31.978723 -2.065078 0.360421 19.377809 -2.508611 0.554 18.813988 -3.848751 1.329492 38.101753 -3.838231 1.330336 38.036558 -8.288905 -3.703672 -6.074452 -23.144311 8.672824 -11.912 -12.785699 5.85213 -4.199655 15.116131 -4.880708 14.331481 -4.131337 22.088514 2.598605 1.732366 3.708974 -10.679806 -0.093544 -0.032621 0.010047 -8.196266 -38.811763 11.138378 -7.676624 57.942245 -0.834288 2.072981 -4.221409 -1.261196 -0.583327 13.951427 0.424376
-0.088503 -0.25268 0.027037 -7.217107 -3.427697 -5.705604 -1.469618 -2.189775 5.266172 -4.172039 0.381904 14.166535 -0.786136 0.352267 -0.029096 0.856719 4.994625 -2.528633 4.504237 2.257608 -9.551239 0 0 0 0 0 0 0.916488 0.610732 -9.253118 -15.139876 7.206071 -76.145097 -9.395813 -8.203925 0.186349 -11.473749 0.683487 -3.430329 0.050398 -0.112372 -7.390756 2.685625 0.615552 -25.815582 1.726594 0.246685 -16.262007 4.025365 0.888167 -20.644447 -0.973583 0.840604 -30.562561 4.935749 2.467071 -53.095435 1.220418 0.121036 -11.511016 2.957645 0.755577 -28.655965 2.347142 0.464184 -22.37245 1.243028 0.065507 -15.880519 4.053898 1.519159 -41.074051 3.366919 1.000162 -33.081724 12.807951 2.333457 9.419525 20.415874 0.538605 9.69099 19.121726 3.983046 4.028004 2.783618 0.508074 12.687887 3.535341 15.634087 53.786706 14.917916 6.039443 -0.357549 -1.312915 -11.200975 2.954449 -0.168472 -0.109156 8.350031 -2.160859 0.386531 20.280957 -1.128944 0.103093 10.435347 -2.243145 0.36816 24.460303 -3.274174 0.928942 31.671551 -5.224896 2.828946 56.841654 -1.032635 0.085197 9.629588 -3.302605 0.946583 31.978723 -2.065078 0.360421 19.377809 -2.508611 0.554 18.813988 -3.848751 1.329492 38.101753 -3.838231 1.330336 38.036558 -8.288905 -3.703672 -6.074452 -23.144311 8.672824 -11.912 -12.785699 5.85213 -4.199655 15.137224 -5.747862 14.672138 -4.041288 27.018265 2.659868 2.001513 3.383803 -10.390178 -0.185914 -2.290805 0.038436 -8.097703 -40.553506 11.271918 -7.57294 53.314786 -0.840466 2.095333 -9.658387 -1.384446 -0.583326 13.951429 0.424375
-0.08774 -0.282742 0.026976 -7.313782 -3.432814 -5.82452 -1.469617 -2.189774 5.266172 -4.218113 0.31753 14.254541 -0.924611 0.139322 -0.043409 0.939794 5.122743 -2.508699 4.587252 2.397514 -9.503386 0 0 0 0 0 0 0.765629 0.610652 -9.253161 -14.981074 7.095277 -76.051994 -9.514314 -8.897809 0.174584 -11.473749 0.68349 -3.430327 0.050398 -0.112372 -7.390756 2.685625 0.615552 -25.815582 1.726594 0.246685 -16.262007 4.025365 0.888167 -20.644447 -0.973583 0.840604 -30.562561 4.935749 2.467071 -53.095435 1.220418 0.121036 -11.511016 2.957645 0.755577 -28.655965 2.347142 0.464184 -22.37245 1.243028 0.065507 -15.880519 4.053898 1.519159 -41.074051 3.366919 1.000162 -33.081724 12.807951 2.333457 9.419525 20.415874 0.538605 9.69099 19.121726 3.983046 4.028004 2.518206 0.508209 12.687798 3.652243 15.711303 53.882843 14.340415 6.742925 -0.369857 -1.312914 -11.200974 2.95445 -0.168472 -0.109156 8.350031 -2.160859 0.386531 20.280957 -1.128944 0.103093 10.435347 -2.243145 0.36816 24.460303 -3.274174 0.928942 31.671551 -5.224896 2.828946 56.841654 -1.032635 0.085197 9.629588 -3.302605 0.946583 31.978723 -2.065078 0.360421 19.377809 -2.508611 0.554 18.813988 -3.848751 1.329492 38.101753 -3.838231 1.330336 38.036558 -8.288905 -3.703672 -6.074452 -23.144311 8.672824 -11.912 -12.785699 5.85213 -4.199655 15.155167 -6.287462 14.937429 -3.963055 31.14342 2.736436 2.19358 3.991256 -9.9604 -0.291893 -4.889592 0.095086 -8.049605 -40.130021 11.398187 -7.467513 46.567322 -0.96696 2.071463 -15.726552 -1.539704 -0.583326 13.951422 0.424375
-0.087933 -0.312795 0.026911 -7.393824 -3.438064 -5.922895 -1.469617 -2.189774 5.266172 -4.261593 0.268513 14.327109 -1.057939 -0.022876 -0.056558 1.020045 5.219882 -2.492029 4.670428 2.503315 -9.471957 0 0 0 0 0 0 0.640765 0.61058 -9.253192 -14.845638 7.000179 -75.972863 -9.744586 -9.471339 0.164534 -11.473748 0.68349 -3.43033 0.050398 -0.112372 -7.390756 2.685625 0.615552 -25.815582 1.726594 0.246685 -16.262007 4.025365 0.888167 -20.644447 -0.973583 0.840604 -30.562561 4.935749 2.467071 -53.095435 1.220418 0.121036 -11.511016 2.957645 0.755577 -28.655965 2.347142 0.464184 -22.37245 1.243028 0.065507 -15.880519 4.053898 1.519159 -41.074051 3.366919 1.000162 -33.081724 12.807951 2.333457 9.419525 20.415874 0.538605 9.69099 19.121726 3.983046 4.028004 2.298522 0.508322 12.687726 3.743984 15.77134 53.960366 13.641708 7.326541 -0.378728 -1.312914 -11.200975 2.954451 -0.168472 -0.109156 8.350031 -2.160859 0.386531 20.280957 -1.128944 0.103093 10.435347 -2.243145 0.36816 24.460303 -3.274174 0.928942 31.671551 -5.224896 2.828946 56.841654 -1.032635 0.085197 9.629588 -3.302605 0.946583 31.978723 -2.065078 0.360421 19.377809 -2.508611 0.554 18.813988 -3.848751 1.329492 38.101753 -3.838231 1.330336 38.036558 -8.288905 -3.703672 -6.074452 -23.144311 8.672824 -11.912 -12.785699 5.85213 -4.199655 15.151674 -6.112475 15.106976 -3.913167 33.756557 2.8001 2.240287 5.308934 -9.451062 -0.398693 -7.485048 0.183479 -8.061162 -37.497126 11.528111 -7.417198 37.905164 -1.174362 2.041566 -20.341409 -1.679814 -0.583327 13.951428 0.424374
-0.088903 -0.338888 0.026854 -7.455811 -3.442705 -5.999016 -1.469617 -2.189775 5.266172 -4.302106 0.241616 14.382509 -1.183384 -0.1121 -0.070212 1.09585 5.272697 -2.478484 4.751164 2.560455 -9.452994 0 0 0 0 0 0 0.544117 0.610528 -9.253218 -14.73856 6.924583 -75.910555 -10.054709 -9.914881 0.156893 -11.473749 0.683491 -3.430329 0.050398 -0.112372 -7.390756 2.685625 0.615552 -25.815582 1.726594 0.246685 -16.262007 4.025365 0.888167 -20.644447 -0.973583 0.840604 -30.562561 4.935749 2.467071 -53.095435 1.220418 0.121036 -11.511016 2.957645 0.755577 -28.655965 2.347142 0.464184 -22.37245 1.243028 0.065507 -15.880519 4.053898 1.519159 -41.074051 3.366919 1.000162 -33.081724 12.807951 2.333457 9.419525 20.415874 0.538605 9.69099 19.121726 3.983046 4.028004 2.128467 0.50841 12.687669 3.812222 15.815667 54.019324 12.866483 7.778965 -0.386055 -1.312914 -11.200974 2.954451 -0.168472 -0.109156 8.350031 -2.160859 0.386531 20.280957 -1.128944 0.103093 10.435347 -2.243145 0.36816 24.460303 -3.274174 0.928942 31.671551 -5.224896 2.828946 56.841654 -1.032635 0.085197 9.629588 -3.302605 0.946583 31.978723 -2.065078 0.360421 19.377809 -2.508611 0.554 18.813988 -3.848751 1.329492 38.101753 -3.838231 1.330336 38.036558 -8.288905 -3.703672 -6.074452 -23.144311 8.672824 -11.912 -12.785699 5.85213 -4.199655 15.118225 -5.100133 15.200164 -3.891069 34.745861 2.829455 2.165737 6.820027 -8.97087 -0.490867 -9.735631 0.287677 -8.124755 -33.539711 11.639992 -7.451165 27.966776 -1.391657 2.021173 -22.692258 -1.782992 -0.58333 13.951427 0.424375
-0.090617 -0.357545 0.026814 -7.496385 -3.44601 -6.048809 -1.469617 -2.189774 5.266172 -4.338865 0.24355 14.417177 -1.297272 -0.10619 -0.086282 1.165097 5.267843 -2.468359 4.826794 2.554361 -9.444881 0 0 0 0 0 0 0.480878 0.610493 -9.253236 -14.667387 6.874136 -75.869288 -10.430672 -10.204905 0.152084 -11.47375 0.683489 -3.43033 0.050398 -0.112372 -7.390756 2.685625 0.615552 -25.815582 1.726594 0.246685 -16.262007 4.025365 0.888167 -20.644447 -0.973583 0.840604 -30.562561 4.935749 2.467071 -53.095435 1.220418 0.121036 -11.511016 2.957645 0.755577 -28.655965 2.347142 0.464184 -22.37245 1.243028 0.065507 -15.880519 4.053898 1.519159 -41.074051 3.366919 1.000162 -33.081724 12.807951 2.333457 9.419525 20.415874 0.538605 9.69099 19.121726 3.983046 4.028004 2.017209 0.508465 12.68763 3.85553 15.843645 54.057414 12.038707 8.075298 -0.391259 -1.312914 -11.200976 2.95445 -0.168472 -0.109156 8.350031 -2.160859 0.386531 20.280957 -1.128944 0.103093 10.435347 -2.243145 0.36816 24.460303 -3.274174 0.928942 31.671551 -5.224896 2.828946 56.841654 -1.032635 0.085197 9.629588 -3.302605 0.946583 31.978723 -2.065078 0.360421 19.377809 -2.508611 0.554 18.813988 -3.848751 1.329492 38.101753 -3.838231 1.330336 38.036558 -8.288905 -3.703672 -6.074452 -23.144311 8.672824 -11.912 -12.785699 5.85213 -4.199655 15.044693 -2.966069 15.226898 -3.897385 33.6716 2.808654 2.025346 8.217304 -8.603946 -0.556252 -11.343402 0.380525 -8.235152 -28.708179 11.70601 -7.565465 17.164056 -1.561071 2.021097 -22.363688 -1.826559 -0.58333 13.951426 0.424375
-0.093039 -0.365307 0.026798 -7.512189 -3.44736 -6.068196 -1.469617 -2.189775 5.266172 -4.370509 0.273663 14.427735 -1.395119 -0.007326 -0.105883 1.225207 5.206773 -2.462089 4.894337 2.486679 -9.447132 0 0 0 0 0 0 0.456252 0.610483 -9.253244 -14.639421 6.854275 -75.853091 -10.858526 -10.317808 0.150322 -11.473748 0.683491 -3.430328 0.050398 -0.112372 -7.390756 2.685625 0.615552 -25.815582 1.726594 0.246685 -16.262007 4.025365 0.888167 -20.644447 -0.973583 0.840604 -30.562561 4.935749 2.467071 -53.095435 1.220418 0.121036 -11.511016 2.957645 0.755577 -28.655965 2.347142 0.464184 -22.37245 1.243028 0.065507 -15.880519 4.053898 1.519159 -41.074051 3.366919 1.000162 -33.081724 12.807951 2.333457 9.419525 20.415874 0.538605 9.69099 19.121726 3.983046 4.028004 1.973881 0.508489 12.687611 3.872114 15.854306 54.072124 11.182352 8.190778 -0.393509 -1.312914 -11.200974 2.954448 -0.168472 -0.109156 8.350031 -2.160859 0.386531 20.280957 -1.128944 0.103093 10.435347 -2.243145 0.36816 24.460303 -3.274174 0.928942 31.671551 -5.224896 2.828946 56.841654 -1.032635 0.085197 9.629588 -3.302605 0.946583 31.978723 -2.065078 0.360421 19.377809 -2.508611 0.554 18.813988 -3.848751 1.329492 38.101753 -3.838231 1.330336 38.036558 -8.288905 -3.703672 -6.074452 -23.144311 8.672824 -11.912 -12.785699 5.85213 -4.199655 14.916717 0.827741 15.191378 -3.94485 29.56693 2.726833 1.899712 9.433696 -8.416126 -0.583322 -12.01161 0.424366 -8.344444 -24.794627 11.6852 -7.682534 8.910075 -1.631732 2.045559 -20.424869 -1.784086 -0.58333 13.951428 0.424375
-0.096212 -0.357545 0.026814 -7.496385 -3.446015 -6.048809 -1.469617 -2.189774 5.266172 -4.393263 0.327235 14.407878 -1.466192 0.169122 -0.128431 1.269856 5.099042 -2.460959 4.947183 2.368005 -9.461866 0 0 0 0 0 0 0.480882 0.610492 -9.253237 -14.667402 6.874151 -75.869281 -11.328304 -10.204912 0.152466 -11.473748 0.68349 -3.43033 0.050398 -0.112372 -7.390756 2.685625 0.615552 -25.815582 1.726594 0.246685 -16.262007 4.025365 0.888167 -20.644447 -0.973583 0.840604 -30.562561 4.935749 2.467071 -53.095435 1.220418 0.121036 -11.511016 2.957645 0.755577 -28.655965 2.347142 0.464184 -22.37245 1.243028 0.065507 -15.880519 4.053898 1.519159 -41.074051 3.366919 1.000162 -33.081724 12.807951 2.333457 9.419525 20.415874 0.538605 9.69099 19.121726 3.983046 4.028004 2.017206 0.508466 12.68763 3.855554 15.843653 54.057421 10.324726 8.075289 -0.392017 -1.312913 -11.200976 2.954451 -0.168472 -0.109156 8.350031 -2.160859 0.386531 20.280957 -1.128944 0.103093 10.435347 -2.243145 0.36816 24.460303 -3.274174 0.928942 31.671551 -5.224896 2.828946 56.841654 -1.032635 0.085197 9.629588 -3.302605 0.946583 31.978723 -2.065078 0.360421 19.377809 -2.508611 0.554 18.813988 -3.848751 1.329492 38.101753 -3.838231 1.330336 38.036558 -8.288905 -3.703672 -6.074452 -23.144311 8.672824 -11.912 -12.785699 5.85213 -4.199655 14.86855 2.498527 15.108076 -3.987284 26.916877 2.680131 2.060002 10.093705 -8.697129 -0.489095 -9.650108 0.286653 -8.320335 -26.769754 11.574764 -7.594541 16.519658 -1.577537 2.040135 -22.878255 -1.642908 -0.583329 13.95143 0.424375
-0.099895 -0.338888 0.026854 -7.455811 -3.442705 -5.999017 -1.469617 -2.189775 5.266172 -4.404801 0.392147 14.364917 -1.503786 0.383156 -0.15001 1.294766 4.969006 -2.464468 4.980342 2.22516 -9.488234 0 0 0 0 0 0 0.544118 0.610524 -9.253218 -14.738567 6.924589 -75.910552 -11.818145 -9.914895 0.157672 -11.473747 0.68349 -3.430329 0.050398 -0.112372 -7.390756 2.685625 0.615552 -25.815582 1.726594 0.246685 -16.262007 4.025365 0.888167 -20.644447 -0.973583 0.840604 -30.562561 4.935749 2.467071 -53.095435 1.220418 0.121036 -11.511016 2.957645 0.755577 -28.655965 2.347142 0.464184 -22.37245 1.243028 0.065507 -15.880519 4.053898 1.519159 -41.074051 3.366919 1.000162 -33.081724 12.807951 2.333457 9.419525 20.415874 0.538605 9.69099 19.121726 3.983046 4.028004 2.128467 0.508408 12.687668 3.812239 15.815689 54.019341 9.493768 7.778931 -0.387577 -1.312914 -11.200974 2.954449 -0.168472 -0.109156 8.350031 -2.160859 0.386531 20.280957 -1.128944 0.103093 10.435347 -2.243145 0.36816 24.460303 -3.274174 0.928942 31.671551 -5.224896 2.828946 56.841654 -1.032635 0.085197 9.629588 -3.302605 0.946583 31.978723 -2.065078 0.360421 19.377809 -2.508611 0.554 18.813988 -3.848751 1.329492 38.101753 -3.838231 1.330336 38.036558 -8.288905 -3.703672 -6.074452 -23.144311 8.672824 -11.912 -12.785699 5.85213 -4.199655 14.791908 5.34996 14.98448 -4.054148 22.808235 2.622472 2.219811 11.694437 -9.353836 -0.294597 -4.88869 0.100888 -8.365018 -26.377815 11.432388 -7.581717 19.609679 -1.552451 2.018282 -20.743154 -1.390778 -0.58333 13.951427 0.424375
-0.10395 -0.312795 0.026911 -7.393825 -3.438064 -5.922895 -1.469617 -2.189774 5.266172 -4.40212 0.460682 14.302939 -1.499149 0.609394 -0.166331 1.294365 4.832174 -2.472753 4.987743 2.075206 -9.527092 0 0 0 0 0 0 0.640765 0.610577 -9.253195 -14.84567 7.000194 -75.97286 -12.314161 -9.47136 0.165244 -11.473749 0.683488 -3.430327 0.050398 -0.112372 -7.390756 2.685625 0.615552 -25.815582 1.726594 0.246685 -16.262007 4.025365 0.888167 -20.644447 -0.973583 0.840604 -30.562561 4.935749 2.467071 -53.095435 1.220418 0.121036 -11.511016 2.957645 0.755577 -28.655965 2.347142 0.464184 -22.37245 1.243028 0.065507 -15.880519 4.053898 1.519159 -41.074051 3.366919 1.000162 -33.081724 12.807951 2.333457 9.419525 20.415874 0.538605 9.69099 19.121726 3.983046 4.028004 2.298515 0.50832 12.687728 3.744001 15.771358 53.960372 8.713848 7.326506 -0.380136 -1.312915 -11.200975 2.95445 -0.168472 -0.109156 8.350031 -2.160859 0.386531 20.280957 -1.128944 0.103093 10.435347 -2.243145 0.36816 24.460303 -3.274174 0.928942 31.671551 -5.224896 2.828946 56.841654 -1.032635 0.085197 9.629588 -3.302605 0.946583 31.978723 -2.065078 0.360421 19.377809 -2.508611 0.554 18.813988 -3.848751 1.329492 38.101753 -3.838231 1.330336 38.036558 -8.288905 -3.703672 -6.074452 -23.144311 8.672824 -11.912 -12.785699 5.85213 -4.199655 14.82974 5.316714 14.735678 -4.059306 24.808824 2.635546 2.10054 12.635151 -9.922806 -0.097505 -0.117794 0.012434 -8.439894 -24.976407 11.240335 -7.601667 20.798253 -1.55239 1.91393 -17.814651 -1.141525 -0.58333 13.951428 0.424374
-0.108237 -0.282742 0.026976 -7.313782 -3.432814 -5.82452 -1.469617 -2.189775 5.266172 -4.387203 0.52502 14.225357 -1.459618 0.822012 -0.176199 1.272929 4.704111 -2.485395 4.97376 1.935088 -9.576379 0 0 0 0 0 0 0.765632 0.610651 -9.253161 -14.981083 7.095293 -76.051994 -12.802522 -8.897807 0.174583 -11.473748 0.683487 -3.430329 0.050398 -0.112372 -7.390756 2.685625 0.615552 -25.815582 1.726594 0.246685 -16.262007 4.025365 0.888167 -20.644447 -0.973583 0.840604 -30.562561 4.935749 2.467071 -53.095435 1.220418 0.121036 -11.511016 2.957645 0.755577 -28.655965 2.347142 0.464184 -22.37245 1.243028 0.065507 -15.880519 4.053898 1.519159 -41.074051 3.366919 1.000162 -33.081724 12.807951 2.333457 9.419525 20.415874 0.538605 9.69099 19.121726 3.983046 4.028004 2.518204 0.508211 12.687796 3.652273 15.711332 53.882832 8.009386 6.74293 -0.369861 -1.312914 -11.200975 2.954452 -0.168472 -0.109156 8.350031 -2.160859 0.386531 20.280957 -1.128944 0.103093 10.435347 -2.243145 0.36816 24.460303 -3.274174 0.928942 31.671551 -5.224896 2.828946 56.841654 -1.032635 0.085197 9.629588 -3.302605 0.946583 31.978723 -2.065078 0.360421 19.377809 -2.508611 0.554 18.813988 -3.848751 1.329492 38.101753 -3.838231 1.330336 38.036558 -8.288905 -3.703672 -6.074452 -23.144311 8.672824 -11.912 -12.785699 5.85213 -4.199655 14.997354 0.462407 14.339409 -4.032411 35.386077 2.742562 1.850826 13.988026 -10.033047 0.00001 2.255754 -0.000009 -8.528586 -22.91103 10.993317 -7.641445 20.712671 -1.569866 1.7335 -17.01585 -0.985912 -0.58333 13.951428 0.424374
-0.112611 -0.25268 0.027037 -7.217107 -3.427699 -5.705604 -1.469617 -2.189776 5.266172 -4.362049 0.573979 14.13373 -1.392738 0.984081 -0.178704 1.234841 4.607023 -2.502343 4.942996 1.829103 -9.634363 0 0 0 0 0 0 0.916482 0.610734 -9.253116 -15.139855 7.206058 -76.145101 -13.263429 -8.203932 0.187022 -11.473749 0.683492 -3.43033 0.050398 -0.112372 -7.390756 2.685625 0.615552 -25.815582 1.726594 0.246685 -16.262007 4.025365 0.888167 -20.644447 -0.973583 0.840604 -30.562561 4.935749 2.467071 -53.095435 1.220418 0.121036 -11.511016 2.957645 0.755577 -28.655965 2.347142 0.464184 -22.37245 1.243028 0.065507 -15.880519 4.053898 1.519159 -41.074051 3.366919 1.000162 -33.081724 12.807951 2.333457 9.419525 20.415874 0.538605 9.69099 19.121726 3.983046 4.028004 2.783618 0.50808 12.687887 3.535293 15.63404 53.786713 7.425429 6.039429 -0.358961 -1.312913 -11.200974 2.954452 -0.168472 -0.109156 8.350031 -2.160859 0.386531 20.280957 -1.128944 0.103093 10.435347 -2.243145 0.36816 24.460303 -3.274174 0.928942 31.671551 -5.224896 2.828946 56.841654 -1.032635 0.085197 9.629588 -3.302605 0.946583 31.978723 -2.065078 0.360421 19.377809 -2.508611 0.554 18.813988 -3.848751 1.329492 38.101753 -3.838231 1.330336 38.036558 -8.288905 -3.703672 -6.074452 -23.144311 8.672824 -11.912 -12.785699 5.85213 -4.199655 15.139368 -6.222889 13.813613 -4.10947 46.758397 2.804771 1.614487 17.852505 -9.853945 0.000009 2.255753 -0.000008 -8.619214 -20.279814 10.683186 -7.693607 19.497163 -1.596425 1.521638 -18.356659 -0.891499 -0.583327 13.951426 0.424374
-0.116901 -0.226577 0.027089 -7.11006 -3.423483 -5.573812 -1.469617 -2.189775 5.266172 -4.33022 0.60082 14.033726 -1.308989 1.07323 -0.174796 1.186215 4.554247 -2.522288 4.901543 1.771819 -9.697543 0 0 0 0 0 0 1.083669 0.610824 -9.253071 -15.310047 7.323926 -76.245558 -13.685 -7.433769 0.200298 -11.47375 0.683492 -3.43033 0.050398 -0.112372 -7.390756 2.685625 0.615552 -25.815582 1.726594 0.246685 -16.262007 4.025365 0.888167 -20.644447 -0.973583 0.840604 -30.562561 4.935749 2.467071 -53.095435 1.220418 0.121036 -11.511016 2.957645 0.755577 -28.655965 2.347142 0.464184 -22.37245 1.243028 0.065507 -15.880519 4.053898 1.519159 -41.074051 3.366919 1.000162 -33.081724 12.807951 2.333457 9.419525 20.415874 0.538605 9.69099 19.121726 3.983046 4.028004 3.077775 0.507927 12.687984 3.39867 15.54285 53.677423 6.972648 5.261419 -0.346095 -1.312914 -11.200975 2.954452 -0.168472 -0.109156 8.350031 -2.160859 0.386531 20.280957 -1.128944 0.103093 10.435347 -2.243145 0.36816 24.460303 -3.274174 0.928942 31.671551 -5.224896 2.828946 56.841654 -1.032635 0.085197 9.629588 -3.302605 0.946583 31.978723 -2.065078 0.360421 19.377809 -2.508611 0.554 18.813988 -3.848751 1.329492 38.101753 -3.838231 1.330336 38.036558 -8.288905 -3.703672 -6.074452 -23.144311 8.672824 -11.912 -12.785699 5.85213 -4.199655 15.181277 -12.883633 13.259055 -4.221372 55.81996 2.738974 1.329802 21.602924 -9.787445 0.000009 2.255753 -0.000008 -8.694867 -17.253228 10.323708 -7.748238 17.459936 -1.621453 1.308404 -19.318675 -0.780978 -0.58333 13.951428 0.424374
-0.120968 -0.207905 0.027123 -6.995913 -3.420663 -5.433198 -1.469617 -2.189776 5.266172 -4.293336 0.599414 13.928291 -1.21214 1.069121 -0.165116 1.129143 4.557977 -2.544538 4.851373 1.776567 -9.764099 0 0 0 0 0 0 1.261994 0.610919 -9.253024 -15.484921 7.444083 -76.349574 -14.053324 -6.610891 0.213988 -11.473748 0.683488 -3.430327 0.050398 -0.112372 -7.390756 2.685625 0.615552 -25.815582 1.726594 0.246685 -16.262007 4.025365 0.888167 -20.644447 -0.973583 0.840604 -30.562561 4.935749 2.467071 -53.095435 1.220418 0.121036 -11.511016 2.957645 0.755577 -28.655965 2.347142 0.464184 -22.37245 1.243028 0.065507 -15.880519 4.053898 1.519159 -41.074051 3.366919 1.000162 -33.081724 12.807951 2.333457 9.419525 20.415874 0.538605 9.69099 19.121726 3.983046 4.028004 3.391529 0.507759 12.688082 3.244794 15.439024 53.557727 6.6754 4.433438 -0.331881 -1.312914 -11.200974 2.954451 -0.168472 -0.109156 8.350031 -2.160859 0.386531 20.280957 -1.128944 0.103093 10.435347 -2.243145 0.36816 24.460303 -3.274174 0.928942 31.671551 -5.224896 2.828946 56.841654 -1.032635 0.085197 9.629588 -3.302605 0.946583 31.978723 -2.065078 0.360421 19.377809 -2.508611 0.554 18.813988 -3.848751 1.329492 38.101753 -3.838231 1.330336 38.036558 -8.288905 -3.703672 -6.074452 -23.144311 8.672824 -11.912 -12.785699 5.85213 -4.199655 15.127888 -19.642337 12.739308 -4.301913 62.699902 2.563758 1.037326 25.204233 -9.824903 0.000009 2.255754 -0.000008 -8.743088 -13.862461 9.924535 -7.797562 14.653321 -1.638824 1.102038 -19.920513 -0.659281 -0.583327 13.951427 0.424374
-0.124673 -0.200144 0.027137 -6.877981 -3.419565 -5.287875 -1.469617 -2.189774 5.266172 -4.252811 0.571585 13.820178 -1.104628 0.977635 -0.151338 1.06509 4.614505 -2.568233 4.793728 1.839233 -9.832099 0 0 0 0 0 0 1.446253 0.611023 -9.252969 -15.658334 7.562272 -76.453658 -14.354464 -5.758995 0.22782 -11.47375 0.683488 -3.430328 0.050398 -0.112372 -7.390756 2.685625 0.615552 -25.815582 1.726594 0.246685 -16.262007 4.025365 0.888167 -20.644447 -0.973583 0.840604 -30.562561 4.935749 2.467071 -53.095435 1.220418 0.121036 -11.511016 2.957645 0.755577 -28.655965 2.347142 0.464184 -22.37245 1.243028 0.065507 -15.880519 4.053898 1.519159 -41.074051 3.366919 1.000162 -33.081724 12.807951 2.333457 9.419525 20.415874 0.538605 9.69099 19.121726 3.983046 4.028004 3.715732 0.507592 12.688184 3.07687 15.324399 53.430643 6.558008 3.579833 -0.317179 -1.312914 -11.200974 2.95445 -0.168472 -0.109156 8.350031 -2.160859 0.386531 20.280957 -1.128944 0.103093 10.435347 -2.243145 0.36816 24.460303 -3.274174 0.928942 31.671551 -5.224896 2.828946 56.841654 -1.032635 0.085197 9.629588 -3.302605 0.946583 31.978723 -2.065078 0.360421 19.377809 -2.508611 0.554 18.813988 -3.848751 1.329492 38.101753 -3.838231 1.330336 38.036558 -8.288905 -3.703672 -6.074452 -23.144311 8.672824 -11.912 -12.785699 5.85213 -4.199655 15.001953 -26.231005 12.31098 -4.332211 67.063229 2.329632 0.774991 28.686319 -9.947747 0.000008 2.255751 -0.000008 -8.752201 -10.060422 9.500152 -7.832497 10.99007 -1.64557 0.909479 -20.125988 -0.532267 -0.58333 13.951428 0.424374
-0.12777 -0.20792 0.027125 -6.760051 -3.420469 -5.142553 -1.469616 -2.189775 5.266172 -4.20949 0.522042 13.71257 -0.986792 0.814481 -0.135136 0.994265 4.714224 -2.592326 4.728289 1.949184 -9.898996 0 0 0 0 0 0 1.630518 0.611122 -9.252915 -15.823594 7.674016 -76.553692 -14.558544 -4.9051 0.242374 -11.473748 0.68349 -3.430329 0.050398 -0.112372 -7.390756 2.685625 0.615552 -25.815582 1.726594 0.246685 -16.262007 4.025365 0.888167 -20.644447 -0.973583 0.840604 -30.562561 4.935749 2.467071 -53.095435 1.220418 0.121036 -11.511016 2.957645 0.755577 -28.655965 2.347142 0.464184 -22.37245 1.243028 0.065507 -15.880519 4.053898 1.519159 -41.074051 3.366919 1.000162 -33.081724 12.807951 2.333457 9.419525 20.415874 0.538605 9.69099 19.121726 3.983046 4.028004 4.039927 0.507417 12.688282 2.899064 15.201652 53.299467 6.670069 2.728385 -0.30244 -1.312914 -11.200974 2.954452 -0.168472 -0.109156 8.350031 -2.160859 0.386531 20.280957 -1.128944 0.103093 10.435347 -2.243145 0.36816 24.460303 -3.274174 0.928942 31.671551 -5.224896 2.828946 56.841654 -1.032635 0.085197 9.629588 -3.302605 0.946583 31.978723 -2.065078 0.360421 19.377809 -2.508611 0.554 18.813988 -3.848751 1.329492 38.101753 -3.838231 1.330336 38.036558 -8.288905 -3.703672 -6.074452 -23.144311 8.672824 -11.912 -12.785699 5.85213 -4.199655 14.853997 -31.779994 12.016637 -4.346482 67.980412 2.112415 0.58242 28.604652 -10.058374 0.000009 2.255755 -0.000008 -8.737028 -8.079803 9.074661 -7.865119 10.727987 -1.650167 0.686466 -20.731258 -0.498515 -0.555864 13.279059 0.42336
-0.130189 -0.226597 0.027093 -6.645907 -3.423098 -5.001936 -1.469617 -2.189774 5.266172 -4.164719 0.462105 13.608619 -0.861447 0.616829 -0.118477 0.918569 4.834524 -2.61584 4.656718 2.081577 -9.96248 0 0 0 0 0 0 1.808839 0.611213 -9.252862 -15.976373 7.776499 -76.647208 -14.663461 -4.07699 0.256087 -11.47375 0.68349 -3.43033 0.050398 -0.112372 -7.390756 2.685625 0.615552 -25.815582 1.726594 0.246685 -16.262007 4.025365 0.888167 -20.644447 -0.973583 0.840604 -30.562561 4.935749 2.467071 -53.095435 1.220418 0.121036 -11.511016 2.957645 0.755577 -28.655965 2.347142 0.464184 -22.37245 1.243028 0.065507 -15.880519 4.053898 1.519159 -41.074051 3.366919 1.000162 -33.081724 12.807951 2.333457 9.419525 20.415874 0.538605 9.69099 19.121726 3.983046 4.028004 4.35368 0.507249 12.688374 2.71825 15.075436 53.169206 6.962143 1.906059 -0.288128 -1.312914 -11.200976 2.954452 -0.168472 -0.109156 8.350031 -2.160859 0.386531 20.280957 -1.128944 0.103093 10.435347 -2.243145 0.36816 24.460303 -3.274174 0.928942 31.671551 -5.224896 2.828946 56.841654 -1.032635 0.085197 9.629588 -3.302605 0.946583 31.978723 -2.065078 0.360421 19.377809 -2.508611 0.554 18.813988 -3.848751 1.329492 38.101753 -3.838231 1.330336 38.036558 -8.288905 -3.703672 -6.074452 -23.144311 8.672824 -11.912 -12.785699 5.85213 -4.199655 14.721152 -35.672753 11.818328 -4.390875 65.992455 1.973839 0.4315 23.966893 -10.059485 0.000009 2.255755 -0.000008 -8.740033 -8.531355 8.678478 -7.92974 15.033038 -1.673536 0.422622 -21.827027 -0.629276 -0.489777 11.663051 0.414318
-0.131801 -0.252709 0.027044 -6.538864 -3.427134 -4.870139 -1.469617 -2.189775 5.266172 -4.119028 0.398932 13.511309 -0.72955 0.408367 -0.102092 0.838664 4.961052 -2.638054 4.579235 2.220607 -10.020028 0 0 0 0 0 0 1.976026 0.611305 -9.252815 -16.113122 7.867554 -76.731978 -14.676514 -3.298952 0.268882 -11.473749 0.683488 -3.43033 0.050398 -0.112372 -7.390756 2.685625 0.615552 -25.815582 1.726594 0.246685 -16.262007 4.025365 0.888167 -20.644447 -0.973583 0.840604 -30.562561 4.935749 2.467071 -53.095435 1.220418 0.121036 -11.511016 2.957645 0.755577 -28.655965 2.347142 0.464184 -22.37245 1.243028 0.065507 -15.880519 4.053898 1.519159 -41.074051 3.366919 1.000162 -33.081724 12.807951 2.333457 9.419525 20.415874 0.538605 9.69099 19.121726 3.983046 4.028004 4.647835 0.507087 12.688459 2.540794 14.950211 53.044126 7.410081 1.136516 -0.275092 -1.312914 -11.200976 2.954451 -0.168472 -0.109156 8.350031 -2.160859 0.386531 20.280957 -1.128944 0.103093 10.435347 -2.243145 0.36816 24.460303 -3.274174 0.928942 31.671551 -5.224896 2.828946 56.841654 -1.032635 0.085197 9.629588 -3.302605 0.946583 31.978723 -2.065078 0.360421 19.377809 -2.508611 0.554 18.813988 -3.848751 1.329492 38.101753 -3.838231 1.330336 38.036558 -8.288905 -3.703672 -6.074452 -23.144311 8.672824 -11.912 -12.785699 5.85213 -4.199655 14.625374 -37.473456 11.674079 -4.472667 61.424313 1.945269 0.31386 16.81149 -9.959127 0.00001 2.255753 -0.000009 -8.756131 -9.370652 8.339098 -8.008344 19.914055 -1.72192 0.176973 -22.132836 -0.924723 -0.397407 9.404868 0.385928
-0.132563 -0.282781 0.026983 -6.442201 -3.432092 -4.751222 -1.469617 -2.189775 5.266172 -4.072754 0.339692 13.423727 -0.59197 0.212833 -0.086061 0.755131 5.07944 -2.65835 4.49583 2.350509 -10.068384 0 0 0 0 0 0 2.126881 0.611383 -9.252767 -16.231089 7.945578 -76.806034 -14.635989 -2.59553 0.28051 -11.473749 0.683489 -3.430331 0.050398 -0.112372 -7.390756 2.685625 0.615552 -25.815582 1.726594 0.246685 -16.262007 4.025365 0.888167 -20.644447 -0.973583 0.840604 -30.562561 4.935749 2.467071 -53.095435 1.220418 0.121036 -11.511016 2.957645 0.755577 -28.655965 2.347142 0.464184 -22.37245 1.243028 0.065507 -15.880519 4.053898 1.519159 -41.074051 3.366919 1.000162 -33.081724 12.807951 2.333457 9.419525 20.415874 0.538605 9.69099 19.121726 3.983046 4.028004 4.913251 0.506947 12.688534 2.373954 14.831334 52.928801 7.98966 0.443281 -0.263966 -1.312914 -11.200973 2.954451 -0.168472 -0.109156 8.350031 -2.160859 0.386531 20.280957 -1.128944 0.103093 10.435347 -2.243145 0.36816 24.460303 -3.274174 0.928942 31.671551 -5.224896 2.828946 56.841654 -1.032635 0.085197 9.629588 -3.302605 0.946583 31.978723 -2.065078 0.360421 19.377809 -2.508611 0.554 18.813988 -3.848751 1.329492 38.101753 -3.838231 1.330336 38.036558 -8.288905 -3.703672 -6.074452 -23.144311 8.672824 -11.912 -12.785699 5.85213 -4.199655 14.57395 -37.063484 11.548447 -4.560802 54.688533 2.024527 0.229478 9.394291 -9.800495 0.00001 2.255755 -0.00001 -8.770858 -9.894168 8.075728 -8.078627 24.013267 -1.785112 0.014596 -21.515197 -1.358502 -0.291429 6.806082 0.329279
-0.132372 -0.312843 0.026921 -6.362167 -3.437209 -4.652845 -1.469617 -2.189775 5.266172 -4.025863 0.294628 13.351975 -0.44882 0.064072 -0.069312 0.668053 5.169147 -2.675691 4.406537 2.448786 -10.107475 0 0 0 0 0 0 2.25174 0.611451 -9.252727 -16.324338 8.006892 -76.865296 -14.538898 -2.012068 0.289942 -11.473748 0.683489 -3.43033 0.050398 -0.112372 -7.390756 2.685625 0.615552 -25.815582 1.726594 0.246685 -16.262007 4.025365 0.888167 -20.644447 -0.973583 0.840604 -30.562561 4.935749 2.467071 -53.095435 1.220418 0.121036 -11.511016 2.957645 0.755577 -28.655965 2.347142 0.464184 -22.37245 1.243028 0.065507 -15.880519 4.053898 1.519159 -41.074051 3.366919 1.000162 -33.081724 12.807951 2.333457 9.419525 20.415874 0.538605 9.69099 19.121726 3.983046 4.028004 5.132941 0.506829 12.688594 2.230672 14.728357 52.831271 8.690499 -0.129612 -0.2535 -1.312914 -11.200974 2.954452 -0.168472 -0.109156 8.350031 -2.160859 0.386531 20.280957 -1.128944 0.103093 10.435347 -2.243145 0.36816 24.460303 -3.274174 0.928942 31.671551 -5.224896 2.828946 56.841654 -1.032635 0.085197 9.629588 -3.302605 0.946583 31.978723 -2.065078 0.360421 19.377809 -2.508611 0.554 18.813988 -3.848751 1.329492 38.101753 -3.838231 1.330336 38.036558 -8.288905 -3.703672 -6.074452 -23.144311 8.672824 -11.912 -12.785699 5.85213 -4.199655 14.576136 -34.360603 11.428952 -4.606661 45.921647 2.182415 0.165738 4.41276 -9.647541 0.000006 2.255755 -0.00001 -8.768123 -9.709106 7.908542 -8.124408 26.610539 -1.838963 -0.001523 -20.190399 -1.867631 -0.184631 4.210619 0.240886
-0.1314 -0.338936 0.026866 -6.300188 -3.441742 -4.57672 -1.469617 -2.189776 5.266172 -3.97848 0.269963 13.297738 -0.301779 -0.017391 -0.050385 0.578514 5.21783 -2.690177 4.313332 2.501877 -10.141167 0 0 0 0 0 0 2.348392 0.611504 -9.2527 -16.394111 8.052549 -76.910147 -14.384863 -1.559795 0.297277 -11.473748 0.68349 -3.430329 0.050398 -0.112372 -7.390756 2.685625 0.615552 -25.815582 1.726594 0.246685 -16.262007 4.025365 0.888167 -20.644447 -0.973583 0.840604 -30.562561 4.935749 2.467071 -53.095435 1.220418 0.121036 -11.511016 2.957645 0.755577 -28.655965 2.347142 0.464184 -22.37245 1.243028 0.065507 -15.880519 4.053898 1.519159 -41.074051 3.366919 1.000162 -33.081724 12.807951 2.333457 9.419525 20.415874 0.538605 9.69099 19.121726 3.983046 4.028004 5.302983 0.506735 12.688639 2.116752 14.645939 52.754739 9.467604 -0.572629 -0.245871 -1.312914 -11.200973 2.95445 -0.168472 -0.109156 8.350031 -2.160859 0.386531 20.280957 -1.128944 0.103093 10.435347 -2.243145 0.36816 24.460303 -3.274174 0.928942 31.671551 -5.224896 2.828946 56.841654 -1.032635 0.085197 9.629588 -3.302605 0.946583 31.978723 -2.065078 0.360421 19.377809 -2.508611 0.554 18.813988 -3.848751 1.329492 38.101753 -3.838231 1.330336 38.036558 -8.288905 -3.703672 -6.074452 -23.144311 8.672824 -11.912 -12.785699 5.85213 -4.199655 14.625547 -30.27866 11.331469 -4.582186 35.786292 2.355436 0.11295 2.326172 -9.533659 0.000006 2.255749 -0.00001 -8.740197 -8.690639 7.817689 -8.145139 27.589387 -1.864314 0.098317 -18.673567 -2.344054 -0.092457 1.96004 0.136688
-0.129687 -0.357603 0.026826 -6.25962 -3.444985 -4.526926 -1.469617 -2.189775 5.266172 -3.930796 0.26576 13.26452 -0.151809 -0.031387 -0.027604 0.486973 5.225441 -2.701465 4.213999 2.50995 -10.155496 0 0 0 0 0 0 2.41163 0.611533 -9.252681 -16.438587 8.081561 -76.938987 -14.166423 -1.263554 0.302157 -11.473748 0.68349 -3.43033 0.050398 -0.112372 -7.390756 2.685625 0.615552 -25.815582 1.726594 0.246685 -16.262007 4.025365 0.888167 -20.644447 -0.973583 0.840604 -30.562561 4.935749 2.467071 -53.095435 1.220418 0.121036 -11.511016 2.957645 0.755577 -28.655965 2.347142 0.464184 -22.37245 1.243028 0.065507 -15.880519 4.053898 1.519159 -41.074051 3.366919 1.000162 -33.081724 12.807951 2.333457 9.419525 20.415874 0.538605 9.69099 19.121726 3.983046 4.028004 5.414246 0.506669 12.688669 2.040721 14.590648 52.704149 10.296722 -0.862295 -0.241288 -1.312914 -11.200975 2.95445 -0.168472 -0.109156 8.350031 -2.160859 0.386531 20.280957 -1.128944 0.103093 10.435347 -2.243145 0.36816 24.460303 -3.274174 0.928942 31.671551 -5.224896 2.828946 56.841654 -1.032635 0.085197 9.629588 -3.302605 0.946583 31.978723 -2.065078 0.360421 19.377809 -2.508611 0.554 18.813988 -3.848751 1.329492 38.101753 -3.838231 1.330336 38.036558 -8.288905 -3.703672 -6.074452 -23.144311 8.672824 -11.912 -12.785699 5.85213 -4.199655 14.717445 -25.280896 11.280912 -4.488959 24.696269 2.49143 0.063804 3.177721 -9.485587 0.000006 2.255753 -0.00001 -8.67865 -6.554025 7.792596 -8.140187 26.508782 -1.847611 0.253353 -17.272131 -2.705394 -0.027073 0.352272 0.043841
-0.127265 -0.365365 0.02681 -6.243817 -3.446315 -4.507538 -1.469617 -2.189776 5.266172 -3.883335 0.275339 13.255666 0 0 0 0.393866 5.205426 -2.709111 4.108479 2.488029 -10.147712 0 0 0 0 0 0 2.436254 0.61155 -9.252674 -16.455646 8.092649 -76.950106 -13.876163 -1.148116 0.30414 -11.473748 0.683488 -3.430329 0.050398 -0.112372 -7.390756 2.685625 0.615552 -25.815582 1.726594 0.246685 -16.262007 4.025365 0.888167 -20.644447 -0.973583 0.840604 -30.562561 4.935749 2.467071 -53.095435 1.220418 0.121036 -11.511016 2.957645 0.755577 -28.655965 2.347142 0.464184 -22.37245 1.243028 0.065507 -15.880519 4.053898 1.519159 -41.074051 3.366919 1.000162 -33.081724 12.807951 2.333457 9.419525 20.415874 0.538605 9.69099 19.121726 3.983046 4.028004 5.45758 0.506649 12.688681 2.010757 14.568784 52.684338 11.153628 -0.975054 -0.239727 -1.312914 -11.200975 2.954449 -0.168472 -0.109156 8.350031 -2.160859 0.386531 20.280957 -1.128944 0.103093 10.435347 -2.243145 0.36816 24.460303 -3.274174 0.928942 31.671551 -5.224896 2.828946 56.841654 -1.032635 0.085197 9.629588 -3.302605 0.946583 31.978723 -2.065078 0.360421 19.377809 -2.508611 0.554 18.813988 -3.848751 1.329492 38.101753 -3.838231 1.330336 38.036558 -8.288905 -3.703672 -6.074452 -23.144311 8.672824 -11.912 -12.785699 5.85213 -4.199655 14.811117 -21.200375 11.312541 -4.391717 16.1294 2.54643 0.020598 5.495965 -9.527944 0.000006 2.255753 -0.000009 -8.572211 -2.764132 7.82751 -8.099267 22.406871 -1.780553 0.378201 -16.056274 -2.887817 -0.000003 -0.315938 0
