HIERARCHY
ROOT hips
{
  OFFSET 0 10.432787522119774 1.3615615910897314
  CHANNELS 6 Xposition Yposition Zposition Yrotation Xrotation Zrotation
  JOINT spine
  {
    OFFSET -7.042016674e-31 0.605849736412771 0
    CHANNELS 3 Yrotation Xrotation Zrotation
    JOINT chest
    {
      OFFSET 0 1.2699780403367527 0
      CHANNELS 3 Yrotation Xrotation Zrotation
      JOINT upperChest
      {
        OFFSET 0 1.217802795781373 0
        CHANNELS 3 Yrotation Xrotation Zrotation
        JOINT neck
        {
          OFFSET 0 1.524881793055447 0
          CHANNELS 3 Yrotation Xrotation Zrotation
          JOINT head
          {
            OFFSET 0 0.8197776686196176 0
            CHANNELS 3 Yrotation Xrotation Zrotation
            JOINT leftEye
            {
              OFFSET 0.27991711184325396 0.7377279215890094 0.1770057770610815
              CHANNELS 3 Yrotation Xrotation Zrotation
              End Site
              {
                OFFSET 0.27991711184325396 0.7377279215890094 0.1770057770610815
              }
            }
            JOINT rightEye
            {
              OFFSET -0.27991715118228666 0.7377278742074458 0.1770060973723161
              CHANNELS 3 Yrotation Xrotation Zrotation
              End Site
              {
                OFFSET -0.27991715118228666 0.7377278742074458 0.1770060973723161
              }
            }
          }
        }
        JOINT leftShoulder
        {
          OFFSET 0.4148696499235711 1.1670497283493415 0
          CHANNELS 3 Yrotation Xrotation Zrotation
          JOINT leftUpperArm
          {
            OFFSET 0.9737923520503171 0 0
            CHANNELS 3 Yrotation Xrotation Zrotation
            JOINT leftLowerArm
            {
              OFFSET 2.526933563002016 0 0
              CHANNELS 3 Yrotation Xrotation Zrotation
              JOINT leftHand
              {
                OFFSET 2.4263767061081287 0 0
                CHANNELS 3 Yrotation Xrotation Zrotation
                JOINT leftIndexProximal
                {
                  OFFSET 0.7243194303238094 0.08170604153373495 0.2036005707489045
                  CHANNELS 3 Yrotation Xrotation Zrotation
                  JOINT leftIndexIntermediate
                  {
                    OFFSET 0.365490110639793 -0.010566615565509085 -0.014147873305413783
                    CHANNELS 3 Yrotation Xrotation Zrotation
                    JOINT leftIndexDistal
                    {
                      OFFSET 0.22502693978020916 -0.007863122621388996 -0.007567729919505994
                      CHANNELS 3 Yrotation Xrotation Zrotation
                      End Site
                      {
                        OFFSET 0.22502693978020916 -0.007863122621388996 -0.007567729919505994
                      }
                    }
                  }
                }
                JOINT leftLittleProximal
                {
                  OFFSET 0.6720313867214986 0.0817059792423902 -0.3230034999786495
                  CHANNELS 3 Yrotation Xrotation Zrotation
                  JOINT leftLittleIntermediate
                  {
                    OFFSET 0.3458364459000005 5.4765410650858826e-8 2.495506794542024e-7
                    CHANNELS 3 Yrotation Xrotation Zrotation
                    JOINT leftLittleDistal
                    {
                      OFFSET 0.19925722030351722 0.003096736260194355 0.0038306323169590983
                      CHANNELS 3 Yrotation Xrotation Zrotation
                      End Site
                      {
                        OFFSET 0.19925722030351722 0.003096736260194355 0.0038306323169590983
                      }
                    }
                  }
                }
                JOINT leftMiddleProximal
                {
                  OFFSET 0.7300446999180792 0.08170730820222194 0.0226618663244387
                  CHANNELS 3 Yrotation Xrotation Zrotation
                  JOINT leftMiddleIntermediate
                  {
                    OFFSET 0.40758107610000327 -0.0000012383582372876845 3.721937498757377e-7
                    CHANNELS 3 Yrotation Xrotation Zrotation
                    JOINT leftMiddleDistal
                    {
                      OFFSET 0.2514495697999991 7.561061998728746e-8 -1.6055895105115958e-7
                      CHANNELS 3 Yrotation Xrotation Zrotation
                      End Site
                      {
                        OFFSET 0.2514495697999991 7.561061998728746e-8 -1.6055895105115958e-7
                      }
                    }
                  }
                }
                JOINT leftRingProximal
                {
                  OFFSET 0.7217264995692599 0.08170598771388815 -0.1504338786787948
                  CHANNELS 3 Yrotation Xrotation Zrotation
                  JOINT leftRingIntermediate
                  {
                    OFFSET 0.3780872700000014 6.409956210262635e-8 3.723059401883333e-7
                    CHANNELS 3 Yrotation Xrotation Zrotation
                    JOINT leftRingDistal
                    {
                      OFFSET 0.21812031524459563 -0.00271347557699686 -0.004991351593452126
                      CHANNELS 3 Yrotation Xrotation Zrotation
                      End Site
                      {
                        OFFSET 0.21812031524459563 -0.00271347557699686 -0.004991351593452126
                      }
                    }
                  }
                }
                JOINT leftThumbProximal
                {
                  OFFSET 0.10793670302222891 -0.165278914300383 -0.07775358168875651
                  CHANNELS 3 Yrotation Xrotation Zrotation
                  JOINT leftThumbIntermediate
                  {
                    OFFSET 0.40355763830204994 -0.017484092948475194 0.31777731504028983
                    CHANNELS 3 Yrotation Xrotation Zrotation
                    JOINT leftThumbDistal
                    {
                      OFFSET 0.2318770514136803 -0.018507879151339335 0.21396002480314588
                      CHANNELS 3 Yrotation Xrotation Zrotation
                      End Site
                      {
                        OFFSET 0.2318770514136803 -0.018507879151339335 0.21396002480314588
                      }
                    }
                  }
                }
              }
            }
          }
        }
        JOINT rightShoulder
        {
          OFFSET -0.4148696499235712 1.1670497283493415 0
          CHANNELS 3 Yrotation Xrotation Zrotation
          JOINT rightUpperArm
          {
            OFFSET -0.9737923520503168 0 0
            CHANNELS 3 Yrotation Xrotation Zrotation
            JOINT rightLowerArm
            {
              OFFSET -2.5269335630020175 0 0
              CHANNELS 3 Yrotation Xrotation Zrotation
              JOINT rightHand
              {
                OFFSET -2.4263767061081274 0 0
                CHANNELS 3 Yrotation Xrotation Zrotation
                JOINT rightIndexProximal
                {
                  OFFSET -0.7243194303238094 0.08170604153373495 0.2036005707489045
                  CHANNELS 3 Yrotation Xrotation Zrotation
                  JOINT rightIndexIntermediate
                  {
                    OFFSET -0.365490110639793 -0.010566615565509085 -0.014147873305413783
                    CHANNELS 3 Yrotation Xrotation Zrotation
                    JOINT rightIndexDistal
                    {
                      OFFSET -0.22502693978020916 -0.007863122621388996 -0.007567729919505994
                      CHANNELS 3 Yrotation Xrotation Zrotation
                      End Site
                      {
                        OFFSET -0.22502693978020916 -0.007863122621388996 -0.007567729919505994
                      }
                    }
                  }
                }
                JOINT rightLittleProximal
                {
                  OFFSET -0.6720313867214986 0.0817059792423902 -0.3230034999786495
                  CHANNELS 3 Yrotation Xrotation Zrotation
                  JOINT rightLittleIntermediate
                  {
                    OFFSET -0.3458364459000005 5.4765410650858826e-8 2.495506794542024e-7
                    CHANNELS 3 Yrotation Xrotation Zrotation
                    JOINT rightLittleDistal
                    {
                      OFFSET -0.19925722030351722 0.003096736260194355 0.0038306323169590983
                      CHANNELS 3 Yrotation Xrotation Zrotation
                      End Site
                      {
                        OFFSET -0.19925722030351722 0.003096736260194355 0.0038306323169590983
                      }
                    }
                  }
                }
                JOINT rightMiddleProximal
                {
                  OFFSET -0.7300446999180792 0.08170730820222194 0.0226618663244387
                  CHANNELS 3 Yrotation Xrotation Zrotation
                  JOINT rightMiddleIntermediate
                  {
                    OFFSET -0.40758107610000327 -0.0000012383582372876845 3.721937498757377e-7
                    CHANNELS 3 Yrotation Xrotation Zrotation
                    JOINT rightMiddleDistal
                    {
                      OFFSET -0.2514495697999991 7.561061998728746e-8 -1.6055895105115958e-7
                      CHANNELS 3 Yrotation Xrotation Zrotation
                      End Site
                      {
                        OFFSET -0.2514495697999991 7.561061998728746e-8 -1.6055895105115958e-7
                      }
                    }
                  }
                }
                JOINT rightRingProximal
                {
                  OFFSET -0.7217264995692599 0.08170598771388815 -0.1504338786787948
                  CHANNELS 3 Yrotation Xrotation Zrotation
                  JOINT rightRingIntermediate
                  {
                    OFFSET -0.3780872700000014 6.409956210262635e-8 3.723059401883333e-7
                    CHANNELS 3 Yrotation Xrotation Zrotation
                    JOINT rightRingDistal
                    {
                      OFFSET -0.21812031524459563 -0.00271347557699686 -0.004991351593452126
                      CHANNELS 3 Yrotation Xrotation Zrotation
                      End Site
                      {
                        OFFSET -0.21812031524459563 -0.00271347557699686 -0.004991351593452126
                      }
                    }
                  }
                }
                JOINT rightThumbProximal
                {
                  OFFSET -0.10793670302222891 -0.165278914300383 -0.07775358168875651
                  CHANNELS 3 Yrotation Xrotation Zrotation
                  JOINT rightThumbIntermediate
                  {
                    OFFSET -0.40355763830204994 -0.017484092948475194 0.31777731504028983
                    CHANNELS 3 Yrotation Xrotation Zrotation
                    JOINT rightThumbDistal
                    {
                      OFFSET -0.2318770514136803 -0.018507879151339335 0.21396002480314588
                      CHANNELS 3 Yrotation Xrotation Zrotation
                      End Site
                      {
                        OFFSET -0.2318770514136803 -0.018507879151339335 0.21396002480314588
                      }
                    }
                  }
                }
              }
            }
          }
        }
      }
    }
  }
  JOINT leftUpperLeg
  {
    OFFSET 0.8486251400000001 -0.44215692923454897 0
    CHANNELS 3 Yrotation Xrotation Zrotation
    JOINT leftLowerLeg
    {
      OFFSET 0 -4.1014783730019015 0
      CHANNELS 3 Yrotation Xrotation Zrotation
      JOINT leftFoot
      {
        OFFSET -0.0002543926242001143 -4.7729227580453255 0.007402839656626761
        CHANNELS 3 Yrotation Xrotation Zrotation
        JOINT leftToes
        {
          OFFSET 0 -0.7027876860119923 1.2062921852216233
          CHANNELS 3 Yrotation Xrotation Zrotation
          End Site
          {
            OFFSET 0 -0.7027876860119923 1.2062921852216233
          }
        }
      }
    }
  }
  JOINT rightUpperLeg
  {
    OFFSET -0.8486251400000001 -0.44215692923454897 0
    CHANNELS 3 Yrotation Xrotation Zrotation
    JOINT rightLowerLeg
    {
      OFFSET 0 -4.1014783730019015 0
      CHANNELS 3 Yrotation Xrotation Zrotation
      JOINT rightFoot
      {
        OFFSET 0.0002543926242001143 -4.7729227580453255 0.007402839656626761
        CHANNELS 3 Yrotation Xrotation Zrotation
        JOINT rightToes
        {
          OFFSET 0 -0.7027876860119923 1.2062921852216233
          CHANNELS 3 Yrotation Xrotation Zrotation
          End Site
          {
            OFFSET 0 -0.7027876860119923 1.2062921852216233
          }
        }
      }
    }
  }
}
MOTION
Frames: 33
Frame Time: 0.03333333333333333
-0.127265 -0.365365 0.02681 -6.243817 -3.446315 -4.507538 -1.469617 -2.189776 5.266172 -3.883335 0.275339 13.255666 0 0 0 0.393866 5.205426 -2.709111 4.108479 2.488029 -10.147712 0 0 0 0 0 0 2.436254 0.61155 -9.252674 -16.455646 8.092649 -76.950106 -13.202414 -1.148114 0.304139 -11.473749 0.68349 -3.43033 0.050398 -0.112372 -7.390756 2.685625 0.615552 -25.815582 1.726594 0.246685 -16.262007 4.025365 0.888167 -20.644447 -0.973583 0.840604 -30.562561 4.935749 2.467071 -53.095435 1.220418 0.121036 -11.511016 2.957645 0.755577 -28.655965 2.347142 0.464184 -22.37245 1.243028 0.065507 -15.880519 4.053898 1.519159 -41.074051 3.366919 1.000162 -33.081724 12.807951 2.333457 9.419525 20.415874 0.538605 9.69099 19.121726 3.983046 4.028004 5.45758 0.506649 12.688681 2.010757 14.568784 52.684338 11.153628 -0.975054 -0.239727 -1.312914 -11.200975 2.954449 -0.168472 -0.109156 8.350031 -2.160859 0.386531 20.280957 -1.128944 0.103093 10.435347 -2.243145 0.36816 24.460303 -3.274174 0.928942 31.671551 -5.224896 2.828946 56.841654 -1.032635 0.085197 9.629588 -3.302605 0.946583 31.978723 -2.065078 0.360421 19.377809 -2.508611 0.554 18.813988 -3.848751 1.329492 38.101753 -3.838231 1.330336 38.036558 -8.288905 -3.703672 -6.074452 -23.144311 8.672824 -11.912 -12.785699 5.85213 -4.199655 14.811117 -21.200375 11.312541 -4.391717 16.1294 2.54643 0.020598 5.495965 -9.527944 0.000006 2.255753 -0.000009 -8.572211 -2.764132 7.82751 -8.099267 22.406871 -1.780553 0.378201 -16.056274 -2.887817 -0.000003 -0.315938 0
-0.120794 -0.386417 0.026824 -6.256193 -3.445109 -4.52747 -1.469617 -2.189775 5.266172 -3.808918 0.306168 13.280404 0.241509 0.097447 0.051296 0.242219 5.13921 -2.705849 3.945455 2.49822 -10.168284 0 0 0 0 0 0 2.41095 0.611536 -9.252681 -16.147309 7.855502 -76.957854 -13.06525 -1.062244 0.185872 -10.854806 0.710685 -3.416446 0.050398 -0.112372 -7.390756 2.685625 0.615552 -25.815582 1.726594 0.246685 -16.262007 4.025365 0.888167 -20.644447 -0.973583 0.840604 -30.562561 4.935749 2.467071 -53.095435 1.220418 0.121036 -11.511016 2.957645 0.755577 -28.655965 2.347142 0.464184 -22.37245 1.243028 0.065507 -15.880519 4.053898 1.519159 -41.074051 3.366919 1.000162 -33.081724 12.807951 2.333457 9.419525 20.415874 0.538605 9.69099 19.121726 3.983046 4.028004 5.413048 0.506674 12.688668 2.521803 14.580352 53.288073 11.469722 -1.754231 -0.455104 -0.693794 -11.22812 2.968435 -0.168472 -0.109156 8.350031 -2.160859 0.386531 20.280957 -1.128944 0.103093 10.435347 -2.243145 0.36816 24.460303 -3.274174 0.928942 31.671551 -5.224896 2.828946 56.841654 -1.032635 0.085197 9.629588 -3.302605 0.946583 31.978723 -2.065078 0.360421 19.377809 -2.508611 0.554 18.813988 -3.848751 1.329492 38.101753 -3.838231 1.330336 38.036558 -8.288905 -3.703672 -6.074452 -23.144311 8.672824 -11.912 -12.785699 5.85213 -4.199655 14.817818 -23.806928 11.566907 -4.459888 24.962348 2.481333 -0.011013 2.511675 -9.797839 0.000006 2.255755 -0.000009 -8.517411 0.267237 8.062666 -8.01358 17.964282 -1.7406 0.257937 -16.321595 -2.684366 -0.096848 2.111163 0.141538
-0.113749 -0.388275 0.026859 -6.288212 -3.442129 -4.578659 -1.469617 -2.189775 5.266172 -3.779225 0.359451 13.312453 0.342826 0.272101 0.040288 0.179606 5.032144 -2.671786 3.874604 2.568144 -10.140212 0 0 0 0 0 0 2.345953 0.611505 -9.2527 -16.286111 7.962047 -76.953485 -12.981252 -1.104317 0.111181 -10.289444 0.735509 -3.403729 0.050398 -0.112372 -7.390756 2.685625 0.615552 -25.815582 1.726594 0.246685 -16.262007 4.025365 0.888167 -20.644447 -0.973583 0.840604 -30.562561 4.935749 2.467071 -53.095435 1.220418 0.121036 -11.511016 2.957645 0.755577 -28.655965 2.347142 0.464184 -22.37245 1.243028 0.065507 -15.880519 4.053898 1.519159 -41.074051 3.366919 1.000162 -33.081724 12.807951 2.333457 9.419525 20.415874 0.538605 9.69099 19.121726 3.983046 4.028004 5.298696 0.50674 12.688638 2.555471 14.579223 53.330808 11.668478 -1.803296 -0.602226 -0.128199 -11.252934 2.981177 -0.168472 -0.109156 8.350031 -2.160859 0.386531 20.280957 -1.128944 0.103093 10.435347 -2.243145 0.36816 24.460303 -3.274174 0.928942 31.671551 -5.224896 2.828946 56.841654 -1.032635 0.085197 9.629588 -3.302605 0.946583 31.978723 -2.065078 0.360421 19.377809 -2.508611 0.554 18.813988 -3.848751 1.329492 38.101753 -3.838231 1.330336 38.036558 -8.288905 -3.703672 -6.074452 -23.144311 8.672824 -11.912 -12.785699 5.85213 -4.199655 14.897795 -23.854367 11.853472 -4.443872 28.985505 2.462656 -0.000812 4.192845 -10.192117 0.000006 2.255754 -0.000009 -8.575299 0.174169 8.329044 -7.997121 18.351602 -1.740054 0.098014 -18.757985 -2.097458 -0.296744 7.004841 0.332463
-0.106494 -0.370419 0.026909 -6.3376 -3.437903 -4.656908 -1.469617 -2.189775 5.266172 -3.789822 0.425071 13.349627 0.320167 0.490435 -0.029779 0.197047 4.904015 -2.610106 3.882961 2.663459 -10.064223 0 0 0 0 0 0 2.246627 0.611456 -9.25273 -17.349023 8.779747 -76.927809 -12.946123 -1.416432 0.075004 -9.796395 0.757148 -3.392612 0.050398 -0.112372 -7.390756 2.685625 0.615552 -25.815582 1.726594 0.246685 -16.262007 4.025365 0.888167 -20.644447 -0.973583 0.840604 -30.562561 4.935749 2.467071 -53.095435 1.220418 0.121036 -11.511016 2.957645 0.755577 -28.655965 2.347142 0.464184 -22.37245 1.243028 0.065507 -15.880519 4.053898 1.519159 -41.074051 3.366919 1.000162 -33.081724 12.807951 2.333457 9.419525 20.415874 0.538605 9.69099 19.121726 3.983046 4.028004 5.123926 0.506841 12.688592 2.066797 14.564069 52.762861 11.748047 -1.107017 -0.676747 0.365106 -11.274587 2.992261 -0.168472 -0.109156 8.350031 -2.160859 0.386531 20.280957 -1.128944 0.103093 10.435347 -2.243145 0.36816 24.460303 -3.274174 0.928942 31.671551 -5.224896 2.828946 56.841654 -1.032635 0.085197 9.629588 -3.302605 0.946583 31.978723 -2.065078 0.360421 19.377809 -2.508611 0.554 18.813988 -3.848751 1.329492 38.101753 -3.838231 1.330336 38.036558 -8.288905 -3.703672 -6.074452 -23.144311 8.672824 -11.912 -12.785699 5.85213 -4.199655 15.006268 -22.550715 12.179226 -4.392564 30.515718 2.482745 0.117201 6.886875 -10.58208 0.000006 2.255754 -0.00001 -8.736223 -3.555537 8.713965 -8.032378 25.461721 -1.780439 0.212788 -21.892105 -1.617383 -0.499313 11.908277 0.423371
-0.09922 -0.337385 0.026968 -6.402082 -3.433009 -4.758024 -1.469617 -2.189774 5.266172 -3.834447 0.492471 13.389888 0.195765 0.716854 -0.155105 0.281961 4.774819 -2.524144 3.953912 2.749924 -9.941901 0 0 0 0 0 0 2.118292 0.611382 -9.252767 -19.374969 10.342414 -76.907257 -13.027009 -2.008926 0.08837 -9.394389 0.774782 -3.383534 0.050398 -0.112372 -7.390756 2.685625 0.615552 -25.815582 1.726594 0.246685 -16.262007 4.025365 0.888167 -20.644447 -0.973583 0.840604 -30.562561 4.935749 2.467071 -53.095435 1.220418 0.121036 -11.511016 2.957645 0.755577 -28.655965 2.347142 0.464184 -22.37245 1.243028 0.065507 -15.880519 4.053898 1.519159 -41.074051 3.366919 1.000162 -33.081724 12.807951 2.333457 9.419525 20.415874 0.538605 9.69099 19.121726 3.983046 4.028004 4.898133 0.50696 12.68853 0.899632 14.391386 51.608234 11.712096 0.379778 -0.67974 0.767355 -11.29225 3.00129 -0.168472 -0.109156 8.350031 -2.160859 0.386531 20.280957 -1.128944 0.103093 10.435347 -2.243145 0.36816 24.460303 -3.274174 0.928942 31.671551 -5.224896 2.828946 56.841654 -1.032635 0.085197 9.629588 -3.302605 0.946583 31.978723 -2.065078 0.360421 19.377809 -2.508611 0.554 18.813988 -3.848751 1.329492 38.101753 -3.838231 1.330336 38.036558 -8.288905 -3.703672 -6.074452 -23.144311 8.672824 -11.912 -12.785699 5.85213 -4.199655 15.120154 -20.310596 12.550146 -4.324265 30.276875 2.524219 0.293641 7.654714 -10.865788 0.000011 2.255754 -0.00001 -8.91816 -10.465228 9.271402 -8.021183 37.976548 -1.846417 0.494125 -22.22779 -1.652072 -0.59953 14.347743 0.436164
-0.092114 -0.293705 0.027026 -6.481182 -3.428056 -4.88024 -1.469617 -2.189775 5.266172 -3.90355 0.547481 13.433002 0.002785 0.903471 -0.3309 0.414966 4.6714 -2.415702 4.063413 2.780579 -9.774574 0 0 0 0 0 0 1.963248 0.611298 -9.25282 -22.250767 12.562607 -76.9466 -13.273008 -2.853424 0.180644 -9.123571 0.786679 -3.377447 0.050398 -0.112372 -7.390756 2.685625 0.615552 -25.815582 1.726594 0.246685 -16.262007 4.025365 0.888167 -20.644447 -0.973583 0.840604 -30.562561 4.935749 2.467071 -53.095435 1.220418 0.121036 -11.511016 2.957645 0.755577 -28.655965 2.347142 0.464184 -22.37245 1.243028 0.065507 -15.880519 4.053898 1.519159 -41.074051 3.366919 1.000162 -33.081724 12.807951 2.333457 9.419525 20.415874 0.538605 9.69099 19.121726 3.983046 4.028004 4.625345 0.507102 12.688451 -1.217408 13.698774 50.084599 11.542798 2.459845 -0.593322 1.038354 -11.304133 3.007393 -0.168472 -0.109156 8.350031 -2.160859 0.386531 20.280957 -1.128944 0.103093 10.435347 -2.243145 0.36816 24.460303 -3.274174 0.928942 31.671551 -5.224896 2.828946 56.841654 -1.032635 0.085197 9.629588 -3.302605 0.946583 31.978723 -2.065078 0.360421 19.377809 -2.508611 0.554 18.813988 -3.848751 1.329492 38.101753 -3.838231 1.330336 38.036558 -8.288905 -3.703672 -6.074452 -23.144311 8.672824 -11.912 -12.785699 5.85213 -4.199655 15.22198 -17.228261 12.974536 -4.250542 28.361306 2.567652 0.45717 6.529435 -11.067538 0.000006 2.255755 -0.00001 -8.993341 -17.829818 9.949347 -7.908442 49.626789 -1.790481 0.892357 -17.710909 -2.005862 -0.59953 14.347741 0.436164
-0.085318 -0.246968 0.027077 -6.570157 -3.423736 -5.015688 -1.469617 -2.189776 5.266172 -3.980761 0.579691 13.478614 -0.207733 1.014381 -0.534889 0.563286 4.612889 -2.293835 4.179744 2.749803 -9.579705 0 0 0 0 0 0 1.791421 0.61121 -9.252869 -25.605808 15.13845 -77.093991 -13.590959 -3.86371 0.334141 -8.986603 0.792692 -3.37436 0.050398 -0.112372 -7.390756 2.685625 0.615552 -25.815582 1.726594 0.246685 -16.262007 4.025365 0.888167 -20.644447 -0.973583 0.840604 -30.562561 4.935749 2.467071 -53.095435 1.220418 0.121036 -11.511016 2.957645 0.755577 -28.655965 2.347142 0.464184 -22.37245 1.243028 0.065507 -15.880519 4.053898 1.519159 -41.074051 3.366919 1.000162 -33.081724 12.807951 2.333457 9.419525 20.415874 0.538605 9.69099 19.121726 3.983046 4.028004 4.323018 0.507266 12.688364 -4.147386 12.292244 48.615644 11.261285 4.583185 -0.426399 1.175424 -11.310147 3.010478 -0.168472 -0.109156 8.350031 -2.160859 0.386531 20.280957 -1.128944 0.103093 10.435347 -2.243145 0.36816 24.460303 -3.274174 0.928942 31.671551 -5.224896 2.828946 56.841654 -1.032635 0.085197 9.629588 -3.302605 0.946583 31.978723 -2.065078 0.360421 19.377809 -2.508611 0.554 18.813988 -3.848751 1.329492 38.101753 -3.838231 1.330336 38.036558 -8.288905 -3.703672 -6.074452 -23.144311 8.672824 -11.912 -12.785699 5.85213 -4.199655 15.290047 -13.480743 13.440985 -4.184366 25.057726 2.595681 0.615193 6.046659 -11.267248 0.000006 2.255757 -0.00001 -8.938871 -24.266385 10.624842 -7.801602 58.134613 -1.580616 1.428557 -12.280613 -2.194512 -0.59953 14.347743 0.436164
-0.078986 -0.202472 0.027117 -6.666813 -3.420512 -5.160199 -1.469617 -2.189775 5.266172 -4.06188 0.581685 13.526069 -0.424983 1.024578 -0.757612 0.718844 4.613515 -2.162896 4.298946 2.723973 -9.367896 0 0 0 0 0 0 1.608141 0.61111 -9.252921 -29.183213 17.842371 -77.384503 -13.952275 -5.003702 0.540099 -8.999537 0.792125 -3.374652 0.050398 -0.112372 -7.390756 2.685625 0.615552 -25.815582 1.726594 0.246685 -16.262007 4.025365 0.888167 -20.644447 -0.973583 0.840604 -30.562561 4.935749 2.467071 -53.095435 1.220418 0.121036 -11.511016 2.957645 0.755577 -28.655965 2.347142 0.464184 -22.37245 1.243028 0.065507 -15.880519 4.053898 1.519159 -41.074051 3.366919 1.000162 -33.081724 12.807951 2.333457 9.419525 20.415874 0.538605 9.69099 19.121726 3.983046 4.028004 4.000554 0.507437 12.688271 -7.69194 10.187668 47.405575 10.877155 6.506744 -0.183547 1.162472 -11.309578 3.010184 -0.168472 -0.109156 8.350031 -2.160859 0.386531 20.280957 -1.128944 0.103093 10.435347 -2.243145 0.36816 24.460303 -3.274174 0.928942 31.671551 -5.224896 2.828946 56.841654 -1.032635 0.085197 9.629588 -3.302605 0.946583 31.978723 -2.065078 0.360421 19.377809 -2.508611 0.554 18.813988 -3.848751 1.329492 38.101753 -3.838231 1.330336 38.036558 -8.288905 -3.703672 -6.074452 -23.144311 8.672824 -11.912 -12.785699 5.85213 -4.199655 15.308784 -9.361568 13.937572 -4.13762 20.852436 2.60206 0.787372 6.361865 -11.438263 -0.008851 2.038757 0.000087 -8.784256 -30.277084 11.237034 -7.748508 64.132983 -1.267514 1.996046 -7.0117 -2.20625 -0.59953 14.347743 0.436164
-0.073305 -0.165521 0.027139 -6.76891 -3.418718 -5.309552 -1.469617 -2.189776 5.266172 -4.144793 0.55627 13.57477 -0.646129 0.943102 -0.989342 0.877754 4.667256 -2.027311 4.420361 2.730855 -9.148392 0 0 0 0 0 0 1.418758 0.611012 -9.252974 -32.725575 20.44231 -77.835147 -14.340574 -6.241813 0.789549 -9.1606 0.785054 -3.378275 0.050398 -0.112372 -7.390756 2.685625 0.615552 -25.815582 1.726594 0.246685 -16.262007 4.025365 0.888167 -20.644447 -0.973583 0.840604 -30.562561 4.935749 2.467071 -53.095435 1.220418 0.121036 -11.511016 2.957645 0.755577 -28.655965 2.347142 0.464184 -22.37245 1.243028 0.065507 -15.880519 4.053898 1.519159 -41.074051 3.366919 1.000162 -33.081724 12.807951 2.333457 9.419525 20.415874 0.538605 9.69099 19.121726 3.983046 4.028004 3.667348 0.507615 12.688167 -11.554738 7.59664 46.516024 10.410591 8.153677 0.122705 1.0013 -11.302508 3.006553 -0.168472 -0.109156 8.350031 -2.160859 0.386531 20.280957 -1.128944 0.103093 10.435347 -2.243145 0.36816 24.460303 -3.274174 0.928942 31.671551 -5.224896 2.828946 56.841654 -1.032635 0.085197 9.629588 -3.302605 0.946583 31.978723 -2.065078 0.360421 19.377809 -2.508611 0.554 18.813988 -3.848751 1.329492 38.101753 -3.838231 1.330336 38.036558 -8.288905 -3.703672 -6.074452 -23.144311 8.672824 -11.912 -12.785699 5.85213 -4.199655 15.284932 -5.888406 14.441325 -4.107678 17.636453 2.598721 1.021938 7.355585 -11.523246 -0.044453 1.166637 0.002068 -8.565099 -35.925327 11.734357 -7.735966 67.500546 -0.925233 2.479619 -2.692962 -2.108874 -0.599531 14.347743 0.436164
-0.068704 -0.144473 0.027139 -6.874374 -3.41869 -5.458914 -1.469617 -2.189775 5.266172 -4.228096 0.50827 13.623774 -0.870758 0.785986 -1.220254 1.037719 4.764075 -1.892111 4.544387 2.761291 -8.929817 0 0 0 0 0 0 1.229376 0.610905 -9.253029 -36.025272 22.749519 -78.455488 -14.747639 -7.556961 1.074892 -9.471576 0.771406 -3.385294 0.050398 -0.112372 -7.390756 2.685625 0.615552 -25.815582 1.726594 0.246685 -16.262007 4.025365 0.888167 -20.644447 -0.973583 0.840604 -30.562561 4.935749 2.467071 -53.095435 1.220418 0.121036 -11.511016 2.957645 0.755577 -28.655965 2.347142 0.464184 -22.37245 1.243028 0.065507 -15.880519 4.053898 1.519159 -41.074051 3.366919 1.000162 -33.081724 12.807951 2.333457 9.419525 20.415874 0.538605 9.69099 19.121726 3.983046 4.028004 3.334139 0.507792 12.688064 -15.306741 4.89779 45.945076 9.890805 9.484386 0.481189 0.690115 -11.288847 2.999568 -0.168472 -0.109156 8.350031 -2.160859 0.386531 20.280957 -1.128944 0.103093 10.435347 -2.243145 0.36816 24.460303 -3.274174 0.928942 31.671551 -5.224896 2.828946 56.841654 -1.032635 0.085197 9.629588 -3.302605 0.946583 31.978723 -2.065078 0.360421 19.377809 -2.508611 0.554 18.813988 -3.848751 1.329492 38.101753 -3.838231 1.330336 38.036558 -8.288905 -3.703672 -6.074452 -23.144311 8.672824 -11.912 -12.785699 5.85213 -4.199655 15.257841 -4.14583 14.915161 -4.064381 17.567554 2.607478 1.315072 8.158764 -11.473485 -0.109323 -0.419505 0.012977 -8.339371 -40.78717 12.072841 -7.696441 67.514467 -0.662062 2.72008 -2.001191 -2.119653 -0.59953 14.347742 0.436164
-0.065426 -0.142621 0.02712 -6.980169 -3.420291 -5.603453 -1.469617 -2.189776 5.266172 -4.310598 0.448921 13.67168 -1.097753 0.589968 -1.442089 1.196631 4.881726 -1.761687 4.671141 2.799548 -8.720858 0 0 0 0 0 0 1.046103 0.610806 -9.253081 -38.92887 24.640967 -79.211984 -15.159761 -8.907451 1.382607 -9.889649 0.753058 -3.394719 0.050398 -0.112372 -7.390756 2.685625 0.615552 -25.815582 1.726594 0.246685 -16.262007 4.025365 0.888167 -20.644447 -0.973583 0.840604 -30.562561 4.935749 2.467071 -53.095435 1.220418 0.121036 -11.511016 2.957645 0.755577 -28.655965 2.347142 0.464184 -22.37245 1.243028 0.065507 -15.880519 4.053898 1.519159 -41.074051 3.366919 1.000162 -33.081724 12.807951 2.333457 9.419525 20.415874 0.538605 9.69099 19.121726 3.983046 4.028004 3.01167 0.507965 12.687964 -18.77188 2.309555 45.594022 9.362273 10.577944 0.856222 0.271799 -11.270486 2.990169 -0.168472 -0.109156 8.350031 -2.160859 0.386531 20.280957 -1.128944 0.103093 10.435347 -2.243145 0.36816 24.460303 -3.274174 0.928942 31.671551 -5.224896 2.828946 56.841654 -1.032635 0.085197 9.629588 -3.302605 0.946583 31.978723 -2.065078 0.360421 19.377809 -2.508611 0.554 18.813988 -3.848751 1.329492 38.101753 -3.838231 1.330336 38.036558 -8.288905 -3.703672 -6.074452 -23.144311 8.672824 -11.912 -12.785699 5.85213 -4.199655 15.253089 -3.837018 15.328903 -3.988937 20.187935 2.642042 1.612109 8.451553 -11.291718 -0.190922 -2.412762 0.039433 -8.150887 -44.317477 12.293804 -7.594306 64.843071 -0.546688 2.707608 -5.095697 -2.304489 -0.59953 14.347743 0.436164
-0.063826 -0.160486 0.027084 -7.08406 -3.423362 -5.738939 -1.469617 -2.189777 5.266172 -4.3914 0.38531 13.716958 -1.325609 0.37856 -1.648906 1.352927 5.006175 -1.639704 4.80093 2.834892 -8.529487 0 0 0 0 0 0 0.874272 0.610709 -9.253127 -41.396132 26.096059 -80.073865 -15.569534 -10.267225 1.703513 -10.39609 0.730823 -3.406117 0.050398 -0.112372 -7.390756 2.685625 0.615552 -25.815582 1.726594 0.246685 -16.262007 4.025365 0.888167 -20.644447 -0.973583 0.840604 -30.562561 4.935749 2.467071 -53.095435 1.220418 0.121036 -11.511016 2.957645 0.755577 -28.655965 2.347142 0.464184 -22.37245 1.243028 0.065507 -15.880519 4.053898 1.519159 -41.074051 3.366919 1.000162 -33.081724 12.807951 2.333457 9.419525 20.415874 0.538605 9.69099 19.121726 3.983046 4.028004 2.709345 0.508121 12.687868 -21.794976 0.005401 45.399939 8.85515 11.466144 1.227246 -0.234892 -11.248258 2.978759 -0.168472 -0.109156 8.350031 -2.160859 0.386531 20.280957 -1.128944 0.103093 10.435347 -2.243145 0.36816 24.460303 -3.274174 0.928942 31.671551 -5.224896 2.828946 56.841654 -1.032635 0.085197 9.629588 -3.302605 0.946583 31.978723 -2.065078 0.360421 19.377809 -2.508611 0.554 18.813988 -3.848751 1.329492 38.101753 -3.838231 1.330336 38.036558 -8.288905 -3.703672 -6.074452 -23.144311 8.672824 -11.912 -12.785699 5.85213 -4.199655 15.265745 -4.133273 15.65437 -3.8991 23.933454 2.704568 1.865369 8.618784 -10.977441 -0.281754 -4.633849 0.086385 -8.032266 -45.998768 12.441721 -7.450164 59.753246 -0.614598 2.482065 -10.487482 -2.53032 -0.59953 14.347743 0.436164
-0.063848 -0.19352 0.027034 -7.183838 -3.427587 -5.861199 -1.469617 -2.189776 5.266172 -4.469565 0.324646 13.757862 -1.551718 0.175623 -1.835849 1.504934 5.123344 -1.529628 4.93356 2.856585 -8.363332 0 0 0 0 0 0 0.719233 0.610629 -9.253175 -43.439159 27.146618 -81.005526 -15.970061 -11.609557 2.028282 -10.972163 0.70551 -3.41904 0.050398 -0.112372 -7.390756 2.685625 0.615552 -25.815582 1.726594 0.246685 -16.262007 4.025365 0.888167 -20.644447 -0.973583 0.840604 -30.562561 4.935749 2.467071 -53.095435 1.220418 0.121036 -11.511016 2.957645 0.755577 -28.655965 2.347142 0.464184 -22.37245 1.243028 0.065507 -15.880519 4.053898 1.519159 -41.074051 3.366919 1.000162 -33.081724 12.807951 2.333457 9.419525 20.415874 0.538605 9.69099 19.121726 3.983046 4.028004 2.436558 0.508256 12.687774 -24.308852 -1.929135 45.308757 8.391642 12.177111 1.577227 -0.811192 -11.222993 2.965743 -0.168472 -0.109156 8.350031 -2.160859 0.386531 20.280957 -1.128944 0.103093 10.435347 -2.243145 0.36816 24.460303 -3.274174 0.928942 31.671551 -5.224896 2.828946 56.841654 -1.032635 0.085197 9.629588 -3.302605 0.946583 31.978723 -2.065078 0.360421 19.377809 -2.508611 0.554 18.813988 -3.848751 1.329492 38.101753 -3.838231 1.330336 38.036558 -8.288905 -3.703672 -6.074452 -23.144311 8.672824 -11.912 -12.785699 5.85213 -4.199655 15.275608 -4.325965 15.883631 -3.820966 27.471541 2.780991 2.034434 8.949669 -10.560678 -0.374246 -6.903742 0.155062 -7.994695 -45.601062 12.559492 -7.329495 52.590174 -0.842232 2.167167 -16.488536 -2.667213 -0.599529 14.347748 0.436163
-0.065549 -0.237181 0.026976 -7.275764 -3.432464 -5.962342 -1.469617 -2.189776 5.266172 -4.54334 0.277089 13.790812 -1.770427 0.015244 -1.994947 1.649373 5.213248 -1.437882 5.066975 2.848113 -8.230353 0 0 0 0 0 0 0.590898 0.610557 -9.253207 -45.064521 27.831522 -81.965222 -16.352693 -12.892973 2.342734 -11.604505 0.677782 -3.433333 0.050398 -0.112372 -7.390756 2.685625 0.615552 -25.815582 1.726594 0.246685 -16.262007 4.025365 0.888167 -20.644447 -0.973583 0.840604 -30.562561 4.935749 2.467071 -53.095435 1.220418 0.121036 -11.511016 2.957645 0.755577 -28.655965 2.347142 0.464184 -22.37245 1.243028 0.065507 -15.880519 4.053898 1.519159 -41.074051 3.366919 1.000162 -33.081724 12.807951 2.333457 9.419525 20.415874 0.538605 9.69099 19.121726 3.983046 4.028004 2.210776 0.508373 12.687699 -26.231794 -3.413771 45.280902 7.996698 12.711706 1.887575 -1.443695 -11.195209 2.951565 -0.168472 -0.109156 8.350031 -2.160859 0.386531 20.280957 -1.128944 0.103093 10.435347 -2.243145 0.36816 24.460303 -3.274174 0.928942 31.671551 -5.224896 2.828946 56.841654 -1.032635 0.085197 9.629588 -3.302605 0.946583 31.978723 -2.065078 0.360421 19.377809 -2.508611 0.554 18.813988 -3.848751 1.329492 38.101753 -3.838231 1.330336 38.036558 -8.288905 -3.703672 -6.074452 -23.144311 8.672824 -11.912 -12.785699 5.85213 -4.199655 15.262639 -3.956593 16.003516 -3.773029 29.991009 2.845169 2.082855 9.419204 -10.091071 -0.460161 -8.993039 0.241598 -8.050515 -42.994891 12.6533 -7.306459 43.558153 -1.155755 1.932181 -21.023839 -2.672898 -0.599533 14.347743 0.436163
-0.068541 -0.283899 0.026919 -7.358395 -3.437363 -6.040595 -1.469617 -2.189775 5.266172 -4.611944 0.24919 13.814391 -1.977129 -0.080753 -2.126743 1.784472 5.26343 -1.36524 5.197428 2.801246 -8.125812 0 0 0 0 0 0 0.491567 0.610507 -9.253233 -46.347209 28.244843 -82.903959 -16.710011 -14.086623 2.640088 -12.263671 0.64886 -3.448192 0.050398 -0.112372 -7.390756 2.685625 0.615552 -25.815582 1.726594 0.246685 -16.262007 4.025365 0.888167 -20.644447 -0.973583 0.840604 -30.562561 4.935749 2.467071 -53.095435 1.220418 0.121036 -11.511016 2.957645 0.755577 -28.655965 2.347142 0.464184 -22.37245 1.243028 0.065507 -15.880519 4.053898 1.519159 -41.074051 3.366919 1.000162 -33.081724 12.807951 2.333457 9.419525 20.415874 0.538605 9.69099 19.121726 3.983046 4.028004 2.036005 0.508465 12.68764 -27.694893 -4.543513 45.282261 7.665534 13.117124 2.154346 -2.102938 -11.166266 2.936748 -0.168472 -0.109156 8.350031 -2.160859 0.386531 20.280957 -1.128944 0.103093 10.435347 -2.243145 0.36816 24.460303 -3.274174 0.928942 31.671551 -5.224896 2.828946 56.841654 -1.032635 0.085197 9.629588 -3.302605 0.946583 31.978723 -2.065078 0.360421 19.377809 -2.508611 0.554 18.813988 -3.848751 1.329492 38.101753 -3.838231 1.330336 38.036558 -8.288905 -3.703672 -6.074452 -23.144311 8.672824 -11.912 -12.785699 5.85213 -4.199655 15.219302 -2.865893 16.036099 -3.755778 31.243331 2.876989 2.041288 9.844443 -9.63882 -0.531032 -10.724641 0.331101 -8.176302 -39.074484 12.697336 -7.399581 33.328168 -1.448979 1.825273 -23.286948 -2.608735 -0.599533 14.347744 0.436163
-0.072697 -0.328376 0.026867 -7.429456 -3.441662 -6.091757 -1.469617 -2.189776 5.266172 -4.673849 0.247401 13.826218 -2.16552 -0.090719 -2.229008 1.907193 5.261649 -1.314729 5.321593 2.707236 -8.052368 0 0 0 0 0 0 0.426576 0.610473 -9.253252 -47.329179 28.458542 -83.771143 -17.03433 -15.147076 2.911103 -12.930913 0.619567 -3.463191 0.050398 -0.112372 -7.390756 2.685625 0.615552 -25.815582 1.726594 0.246685 -16.262007 4.025365 0.888167 -20.644447 -0.973583 0.840604 -30.562561 4.935749 2.467071 -53.095435 1.220418 0.121036 -11.511016 2.957645 0.755577 -28.655965 2.347142 0.464184 -22.37245 1.243028 0.065507 -15.880519 4.053898 1.519159 -41.074051 3.366919 1.000162 -33.081724 12.807951 2.333457 9.419525 20.415874 0.538605 9.69099 19.121726 3.983046 4.028004 1.921642 0.508523 12.687602 -28.744473 -5.352978 45.295217 7.398569 13.408545 2.374375 -2.770169 -11.136993 2.921705 -0.168472 -0.109156 8.350031 -2.160859 0.386531 20.280957 -1.128944 0.103093 10.435347 -2.243145 0.36816 24.460303 -3.274174 0.928942 31.671551 -5.224896 2.828946 56.841654 -1.032635 0.085197 9.629588 -3.302605 0.946583 31.978723 -2.065078 0.360421 19.377809 -2.508611 0.554 18.813988 -3.848751 1.329492 38.101753 -3.838231 1.330336 38.036558 -8.288905 -3.703672 -6.074452 -23.144311 8.672824 -11.912 -12.785699 5.85213 -4.199655 15.139608 -0.834373 15.988177 -3.769318 30.844411 2.861706 1.950307 10.107704 -9.254667 -0.579773 -11.921739 0.403779 -8.350823 -34.413448 12.657228 -7.577501 22.548369 -1.64743 1.843489 -22.954025 -2.502661 -0.599533 14.347743 0.436163
-0.077889 -0.365312 0.026829 -7.48667 -3.444728 -6.111636 -1.469617 -2.189776 5.266173 -4.727101 0.271543 13.824237 -2.329318 -0.014642 -2.298243 2.01381 5.208864 -1.289664 5.435496 2.571905 -8.013358 0 0 0 0 0 0 0.401252 0.610457 -9.253259 -48.037262 28.540053 -84.503131 -17.317103 -16.015303 3.14665 -13.587483 0.59072 -3.477912 0.050398 -0.112372 -7.390756 2.685625 0.615552 -25.815582 1.726594 0.246685 -16.262007 4.025365 0.888167 -20.644447 -0.973583 0.840604 -30.562561 4.935749 2.467071 -53.095435 1.220418 0.121036 -11.511016 2.957645 0.755577 -28.655965 2.347142 0.464184 -22.37245 1.243028 0.065507 -15.880519 4.053898 1.519159 -41.074051 3.366919 1.000162 -33.081724 12.807951 2.333457 9.419525 20.415874 0.538605 9.69099 19.121726 3.983046 4.028004 1.877121 0.508546 12.687586 -29.426992 -5.878554 45.309118 7.193689 13.598655 2.546852 -3.426649 -11.10821 2.906869 -0.168472 -0.109156 8.350031 -2.160859 0.386531 20.280957 -1.128944 0.103093 10.435347 -2.243145 0.36816 24.460303 -3.274174 0.928942 31.671551 -5.224896 2.828946 56.841654 -1.032635 0.085197 9.629588 -3.302605 0.946583 31.978723 -2.065078 0.360421 19.377809 -2.508611 0.554 18.813988 -3.848751 1.329492 38.101753 -3.838231 1.330336 38.036558 -8.288905 -3.703672 -6.074452 -23.144311 8.672824 -11.912 -12.785699 5.85213 -4.199655 15.017265 2.512326 15.863158 -3.820405 28.064973 2.78958 1.865436 10.258666 -8.980631 -0.599526 -12.407927 0.436155 -8.470257 -32.154724 12.472095 -7.685637 17.307171 -1.70257 1.963054 -22.268055 -2.344047 -0.599533 14.347743 0.436163
-0.084095 -0.386365 0.026817 -7.524705 -3.445721 -6.091631 -1.469617 -2.189775 5.266172 -4.766419 0.318142 13.805311 -2.45403 0.136713 -2.322533 2.094286 5.113098 -1.297575 5.529408 2.412934 -8.018428 0 0 0 0 0 0 0.42657 0.610469 -9.25325 -48.420023 28.550342 -84.950109 -17.538083 -16.531676 3.328937 -14.206606 0.563581 -3.491895 0.050398 -0.112372 -7.390756 2.685625 0.615552 -25.815582 1.726594 0.246685 -16.262007 4.025365 0.888167 -20.644447 -0.973583 0.840604 -30.562561 4.935749 2.467071 -53.095435 1.220418 0.121036 -11.511016 2.957645 0.755577 -28.655965 2.347142 0.464184 -22.37245 1.243028 0.065507 -15.880519 4.053898 1.519159 -41.074051 3.366919 1.000162 -33.081724 12.807951 2.333457 9.419525 20.415874 0.538605 9.69099 19.121726 3.983046 4.028004 1.92165 0.50852 12.687603 -29.735315 -6.115685 45.316873 7.05653 13.68453 2.665113 -4.045592 -11.081013 2.892986 -0.168472 -0.109156 8.350031 -2.160859 0.386531 20.280957 -1.128944 0.103093 10.435347 -2.243145 0.36816 24.460303 -3.274174 0.928942 31.671551 -5.224896 2.828946 56.841654 -1.032635 0.085197 9.629588 -3.302605 0.946583 31.978723 -2.065078 0.360421 19.377809 -2.508611 0.554 18.813988 -3.848751 1.329492 38.101753 -3.838231 1.330336 38.036558 -8.288905 -3.703672 -6.074452 -23.144311 8.672824 -11.912 -12.785699 5.85213 -4.199655 15.002849 3.294489 15.691321 -3.852458 27.461247 2.765568 2.078437 9.871253 -9.138594 -0.502681 -9.980833 0.294616 -8.451467 -35.460918 12.172756 -7.568706 27.762725 -1.605623 2.099534 -25.997055 -2.105536 -0.599533 14.347746 0.436163
-0.090934 -0.388227 0.026827 -7.543729 -3.444756 -6.040375 -1.469618 -2.189776 5.266171 -4.788197 0.376489 13.774648 -2.5284 0.328388 -2.304882 2.141113 4.996118 -1.332685 5.593239 2.256514 -8.061866 0 0 0 0 0 0 0.491566 0.610502 -9.253233 -48.445423 28.550361 -84.980699 -17.690484 -16.56017 3.458112 -14.772198 0.538767 -3.504635 0.050398 -0.112372 -7.390756 2.685625 0.615552 -25.815582 1.726594 0.246685 -16.262007 4.025365 0.888167 -20.644447 -0.973583 0.840604 -30.562561 4.935749 2.467071 -53.095435 1.220418 0.121036 -11.511016 2.957645 0.755577 -28.655965 2.347142 0.464184 -22.37245 1.243028 0.065507 -15.880519 4.053898 1.519159 -41.074051 3.366919 1.000162 -33.081724 12.807951 2.333457 9.419525 20.415874 0.538605 9.69099 19.121726 3.983046 4.028004 2.035998 0.508465 12.687641 -29.649801 -6.05 45.314319 6.972567 13.658995 2.739529 -4.610955 -11.056191 2.880268 -0.168472 -0.109156 8.350031 -2.160859 0.386531 20.280957 -1.128944 0.103093 10.435347 -2.243145 0.36816 24.460303 -3.274174 0.928942 31.671551 -5.224896 2.828946 56.841654 -1.032635 0.085197 9.629588 -3.302605 0.946583 31.978723 -2.065078 0.360421 19.377809 -2.508611 0.554 18.813988 -3.848751 1.329492 38.101753 -3.838231 1.330336 38.036558 -8.288905 -3.703672 -6.074452 -23.144311 8.672824 -11.912 -12.785699 5.85213 -4.199655 14.95712 5.230895 15.487285 -3.904293 25.426088 2.71765 2.303434 10.446246 -9.675545 -0.30278 -5.087144 0.103691 -8.534526 -35.588265 11.867215 -7.574363 32.211469 -1.568339 2.226658 -24.463377 -1.727926 -0.599533 14.347742 0.436163
-0.098186 -0.370376 0.026861 -7.537466 -3.441817 -5.962086 -1.469617 -2.189776 5.266172 -4.786664 0.439815 13.735991 -2.534919 0.538439 -2.241369 2.142493 4.871807 -1.393101 5.611308 2.176182 -8.141791 0 0 0 0 0 0 0.590897 0.610555 -9.253207 -47.996715 28.538747 -84.455647 -17.757948 -15.916812 3.527008 -15.2655 0.517113 -3.51572 0.050398 -0.112372 -7.390756 2.685625 0.615552 -25.815582 1.726594 0.246685 -16.262007 4.025365 0.888167 -20.644447 -0.973583 0.840604 -30.562561 4.935749 2.467071 -53.095435 1.220418 0.121036 -11.511016 2.957645 0.755577 -28.655965 2.347142 0.464184 -22.37245 1.243028 0.065507 -15.880519 4.053898 1.519159 -41.074051 3.366919 1.000162 -33.081724 12.807951 2.333457 9.419525 20.415874 0.538605 9.69099 19.121726 3.983046 4.028004 2.210764 0.508372 12.687701 -28.844895 -5.430736 45.295093 6.937549 13.427686 2.774326 -5.104004 -11.034554 2.869151 -0.168472 -0.109156 8.350031 -2.160859 0.386531 20.280957 -1.128944 0.103093 10.435347 -2.243145 0.36816 24.460303 -3.274174 0.928942 31.671551 -5.224896 2.828946 56.841654 -1.032635 0.085197 9.629588 -3.302605 0.946583 31.978723 -2.065078 0.360421 19.377809 -2.508611 0.554 18.813988 -3.848751 1.329492 38.101753 -3.838231 1.330336 38.036558 -8.288905 -3.703672 -6.074452 -23.144311 8.672824 -11.912 -12.785699 5.85213 -4.199655 14.993725 5.329824 15.144509 -3.934243 27.358561 2.723722 2.226092 11.402658 -10.109146 -0.100214 -0.183716 0.01278 -8.652925 -34.244904 11.533894 -7.624193 33.952818 -1.58132 2.23141 -21.834284 -1.322297 -0.599533 14.347744 0.436163
-0.105634 -0.337347 0.026917 -7.497237 -3.437114 -5.860972 -1.469617 -2.189775 5.266172 -4.764552 0.500702 13.691534 -2.483529 0.741972 -2.135083 2.103798 4.754408 -1.475641 5.585924 2.280255 -8.249729 0 0 0 0 0 0 0.719233 0.61063 -9.253174 -46.90699 28.389931 -83.359011 -17.730669 -14.507551 3.535761 -15.667748 0.499452 -3.524748 0.050398 -0.112372 -7.390756 2.685625 0.615552 -25.815582 1.726594 0.246685 -16.262007 4.025365 0.888167 -20.644447 -0.973583 0.840604 -30.562561 4.935749 2.467071 -53.095435 1.220418 0.121036 -11.511016 2.957645 0.755577 -28.655965 2.347142 0.464184 -22.37245 1.243028 0.065507 -15.880519 4.053898 1.519159 -41.074051 3.366919 1.000162 -33.081724 12.807951 2.333457 9.419525 20.415874 0.538605 9.69099 19.121726 3.983046 4.028004 2.43656 0.508256 12.687775 -27.270189 -4.216529 45.274756 6.988652 12.978324 2.768288 -5.506009 -11.016914 2.860073 -0.168472 -0.109156 8.350031 -2.160859 0.386531 20.280957 -1.128944 0.103093 10.435347 -2.243145 0.36816 24.460303 -3.274174 0.928942 31.671551 -5.224896 2.828946 56.841654 -1.032635 0.085197 9.629588 -3.302605 0.946583 31.978723 -2.065078 0.360421 19.377809 -2.508611 0.554 18.813988 -3.848751 1.329492 38.101753 -3.838231 1.330336 38.036558 -8.288905 -3.703672 -6.074452 -23.144311 8.672824 -11.912 -12.785699 5.85213 -4.199655 15.137699 1.406414 14.621441 -3.966891 36.164759 2.799762 1.938857 13.68507 -10.04899 0.00001 2.255754 -0.000008 -8.779162 -31.903127 11.165515 -7.693816 33.819499 -1.623992 2.113522 -21.175084 -1.021205 -0.599529 14.347745 0.436163
-0.113005 -0.293677 0.026985 -7.42079 -3.431385 -5.738785 -1.469617 -2.189774 5.266172 -4.725847 0.548524 13.642172 -2.388672 0.903447 -1.987694 2.033023 4.664351 -1.579005 5.530026 2.551075 -8.383982 0 0 0 0 0 0 0.874272 0.610713 -9.25313 -44.86899 27.750682 -81.852369 -17.595449 -12.45442 3.475809 -15.938753 0.487568 -3.530853 0.050398 -0.112372 -7.390756 2.685625 0.615552 -25.815582 1.726594 0.246685 -16.262007 4.025365 0.888167 -20.644447 -0.973583 0.840604 -30.562561 4.935749 2.467071 -53.095435 1.220418 0.121036 -11.511016 2.957645 0.755577 -28.655965 2.347142 0.464184 -22.37245 1.243028 0.065507 -15.880519 4.053898 1.519159 -41.074051 3.366919 1.000162 -33.081724 12.807951 2.333457 9.419525 20.415874 0.538605 9.69099 19.121726 3.983046 4.028004 2.709346 0.50812 12.687865 -24.950432 -2.424972 45.288633 7.160681 12.318056 2.707308 -5.776829 -11.005022 2.853985 -0.168472 -0.109156 8.350031 -2.160859 0.386531 20.280957 -1.128944 0.103093 10.435347 -2.243145 0.36816 24.460303 -3.274174 0.928942 31.671551 -5.224896 2.828946 56.841654 -1.032635 0.085197 9.629588 -3.302605 0.946583 31.978723 -2.065078 0.360421 19.377809 -2.508611 0.554 18.813988 -3.848751 1.329492 38.101753 -3.838231 1.330336 38.036558 -8.288905 -3.703672 -6.074452 -23.144311 8.672824 -11.912 -12.785699 5.85213 -4.199655 15.255305 -4.860996 13.938186 -4.086661 46.560073 2.793803 1.533878 18.278367 -9.710696 0.000009 2.255753 -0.000008 -8.895695 -28.658419 10.749843 -7.771162 31.89637 -1.675446 1.944524 -22.442789 -0.818926 -0.599532 14.347745 0.436162
-0.120045 -0.246944 0.027049 -7.319787 -3.425925 -5.603375 -1.469617 -2.189774 5.266172 -4.676626 0.57656 13.590473 -2.268071 0.999872 -1.811502 1.941948 4.614063 -1.695974 5.460257 2.878693 -8.537755 0 0 0 0 0 0 1.046102 0.610807 -9.253081 -41.979076 26.39389 -80.36057 -17.360566 -10.307612 3.345202 -16.07582 0.481551 -3.533938 0.050398 -0.112372 -7.390756 2.685625 0.615552 -25.815582 1.726594 0.246685 -16.262007 4.025365 0.888167 -20.644447 -0.973583 0.840604 -30.562561 4.935749 2.467071 -53.095435 1.220418 0.121036 -11.511016 2.957645 0.755577 -28.655965 2.347142 0.464184 -22.37245 1.243028 0.065507 -15.880519 4.053898 1.519159 -41.074051 3.366919 1.000162 -33.081724 12.807951 2.333457 9.419525 20.415874 0.538605 9.69099 19.121726 3.983046 4.028004 3.011673 0.507962 12.687966 -22.132696 -0.254039 45.373832 7.395892 11.506503 2.598158 -5.913798 -10.999009 2.850903 -0.168472 -0.109156 8.350031 -2.160859 0.386531 20.280957 -1.128944 0.103093 10.435347 -2.243145 0.36816 24.460303 -3.274174 0.928942 31.671551 -5.224896 2.828946 56.841654 -1.032635 0.085197 9.629588 -3.302605 0.946583 31.978723 -2.065078 0.360421 19.377809 -2.508611 0.554 18.813988 -3.848751 1.329492 38.101753 -3.838231 1.330336 38.036558 -8.288905 -3.703672 -6.074452 -23.144311 8.672824 -11.912 -12.785699 5.85213 -4.199655 15.254668 -11.35485 13.217857 -4.217086 54.972713 2.629752 1.018498 22.632244 -9.55695 0.000009 2.255752 -0.000008 -8.980248 -24.684399 10.293119 -7.84368 28.453784 -1.715099 1.755945 -23.008272 -0.618456 -0.599529 14.347742 0.436162
-0.126521 -0.202457 0.027102 -7.199732 -3.421572 -5.458891 -1.469617 -2.189774 5.266173 -4.619077 0.578896 13.53781 -2.126451 1.011292 -1.612652 1.834412 4.614778 -1.82276 5.38162 3.18443 -8.70641 0 0 0 0 0 0 1.229382 0.610903 -9.253031 -38.426431 24.308116 -79.11443 -17.021245 -8.343507 3.137297 -16.086321 0.481092 -3.534174 0.050398 -0.112372 -7.390756 2.685625 0.615552 -25.815582 1.726594 0.246685 -16.262007 4.025365 0.888167 -20.644447 -0.973583 0.840604 -30.562561 4.935749 2.467071 -53.095435 1.220418 0.121036 -11.511016 2.957645 0.755577 -28.655965 2.347142 0.464184 -22.37245 1.243028 0.065507 -15.880519 4.053898 1.519159 -41.074051 3.366919 1.000162 -33.081724 12.807951 2.333457 9.419525 20.415874 0.538605 9.69099 19.121726 3.983046 4.028004 3.334138 0.507791 12.688066 -18.975053 2.156618 45.563541 7.676724 10.564837 2.44151 -5.924299 -10.998549 2.850666 -0.168472 -0.109156 8.350031 -2.160859 0.386531 20.280957 -1.128944 0.103093 10.435347 -2.243145 0.36816 24.460303 -3.274174 0.928942 31.671551 -5.224896 2.828946 56.841654 -1.032635 0.085197 9.629588 -3.302605 0.946583 31.978723 -2.065078 0.360421 19.377809 -2.508611 0.554 18.813988 -3.848751 1.329492 38.101753 -3.838231 1.330336 38.036558 -8.288905 -3.703672 -6.074452 -23.144311 8.672824 -11.912 -12.785699 5.85213 -4.199655 15.135602 -18.031176 12.546955 -4.295689 61.252237 2.340593 0.48395 26.805784 -9.579225 0.000009 2.255753 -0.000008 -9.014484 -20.219177 9.804629 -7.898349 23.864429 -1.73267 1.537449 -22.664542 -0.445311 -0.590672 14.130745 0.436066
-0.1322 -0.165521 0.027135 -7.066183 -3.418968 -5.309551 -1.469617 -2.189774 5.266172 -4.554656 0.556788 13.48526 -1.965097 0.941568 -1.398726 1.712931 4.663442 -1.955293 5.292923 3.37385 -8.877808 0 0 0 0 0 0 1.418759 0.611013 -9.252976 -34.520924 21.702379 -78.194208 -16.58199 -6.659472 2.853802 -16.014071 0.484261 -3.532546 0.050398 -0.112372 -7.390756 2.685625 0.615552 -25.815582 1.726594 0.246685 -16.262007 4.025365 0.888167 -20.644447 -0.973583 0.840604 -30.562561 4.935749 2.467071 -53.095435 1.220418 0.121036 -11.511016 2.957645 0.755577 -28.655965 2.347142 0.464184 -22.37245 1.243028 0.065507 -15.880519 4.053898 1.519159 -41.074051 3.366919 1.000162 -33.081724 12.807951 2.333457 9.419525 20.415874 0.538605 9.69099 19.121726 3.983046 4.028004 3.667344 0.50762 12.688169 -15.662417 4.63826 45.883589 7.993254 9.511456 2.238988 -5.852097 -11.001716 2.85229 -0.168472 -0.109156 8.350031 -2.160859 0.386531 20.280957 -1.128944 0.103093 10.435347 -2.243145 0.36816 24.460303 -3.274174 0.928942 31.671551 -5.224896 2.828946 56.841654 -1.032635 0.085197 9.629588 -3.302605 0.946583 31.978723 -2.065078 0.360421 19.377809 -2.508611 0.554 18.813988 -3.848751 1.329492 38.101753 -3.838231 1.330336 38.036558 -8.288905 -3.703672 -6.074452 -23.144311 8.672824 -11.912 -12.785699 5.85213 -4.199655 14.930871 -24.508981 12.005706 -4.319492 64.944484 2.001614 0.018697 30.827931 -9.737679 0.000009 2.255751 -0.000008 -8.995861 -16.178018 9.305622 -7.929895 19.821784 -1.73376 1.253007 -21.446413 -0.358263 -0.555071 13.258623 0.434085
-0.136641 -0.144483 0.027139 -6.924294 -3.418686 -5.160189 -1.469617 -2.189775 5.266172 -4.483549 0.514049 13.434186 -1.780805 0.803113 -1.177619 1.577368 4.751844 -2.088907 5.195714 3.40229 -9.071422 0 0 0 0 0 0 1.608139 0.611109 -9.252918 -30.715415 18.971415 -77.604364 -16.057424 -5.302818 2.495447 -15.842105 0.491806 -3.528682 0.050398 -0.112372 -7.390756 2.685625 0.615552 -25.815582 1.726594 0.246685 -16.262007 4.025365 0.888167 -20.644447 -0.973583 0.840604 -30.562561 4.935749 2.467071 -53.095435 1.220418 0.121036 -11.511016 2.957645 0.755577 -28.655965 2.347142 0.464184 -22.37245 1.243028 0.065507 -15.880519 4.053898 1.519159 -41.074051 3.366919 1.000162 -33.081724 12.807951 2.333457 9.419525 20.415874 0.538605 9.69099 19.121726 3.983046 4.028004 4.000554 0.507441 12.688272 -12.357485 7.033996 46.36127 8.344272 8.349079 1.989105 -5.680248 -11.009256 2.856162 -0.168472 -0.109156 8.350031 -2.160859 0.386531 20.280957 -1.128944 0.103093 10.435347 -2.243145 0.36816 24.460303 -3.274174 0.928942 31.671551 -5.224896 2.828946 56.841654 -1.032635 0.085197 9.629588 -3.302605 0.946583 31.978723 -2.065078 0.360421 19.377809 -2.508611 0.554 18.813988 -3.848751 1.329492 38.101753 -3.838231 1.330336 38.036558 -8.288905 -3.703672 -6.074452 -23.144311 8.672824 -11.912 -12.785699 5.85213 -4.199655 14.716194 -29.817267 11.650196 -4.351872 65.09028 1.730695 -0.234559 31.093318 -9.820013 0.000009 2.255754 -0.000008 -8.95543 -13.732232 8.831786 -7.959389 18.661878 -1.735767 0.913183 -20.303977 -0.41115 -0.490201 11.672483 0.423176
-0.139754 -0.142645 0.027115 -6.781598 -3.420611 -5.015651 -1.469617 -2.189775 5.266172 -4.40762 0.460792 13.385718 -1.576709 0.628881 -0.958739 1.431324 4.859575 -2.218947 5.105815 3.355112 -9.346157 0 0 0 0 0 0 1.791421 0.611207 -9.252866 -27.200608 16.348643 -77.242858 -15.500746 -4.192 2.102368 -15.559002 0.504233 -3.522321 0.050398 -0.112372 -7.390756 2.685625 0.615552 -25.815582 1.726594 0.246685 -16.262007 4.025365 0.888167 -20.644447 -0.973583 0.840604 -30.562561 4.935749 2.467071 -53.095435 1.220418 0.121036 -11.511016 2.957645 0.755577 -28.655965 2.347142 0.464184 -22.37245 1.243028 0.065507 -15.880519 4.053898 1.519159 -41.074051 3.366919 1.000162 -33.081724 12.807951 2.333457 9.419525 20.415874 0.538605 9.69099 19.121726 3.983046 4.028004 4.323019 0.507268 12.688366 -9.265255 9.165514 46.98658 8.718168 7.11051 1.702546 -5.397333 -11.021675 2.862543 -0.168472 -0.109156 8.350031 -2.160859 0.386531 20.280957 -1.128944 0.103093 10.435347 -2.243145 0.36816 24.460303 -3.274174 0.928942 31.671551 -5.224896 2.828946 56.841654 -1.032635 0.085197 9.629588 -3.302605 0.946583 31.978723 -2.065078 0.360421 19.377809 -2.508611 0.554 18.813988 -3.848751 1.329492 38.101753 -3.838231 1.330336 38.036558 -8.288905 -3.703672 -6.074452 -23.144311 8.672824 -11.912 -12.785699 5.85213 -4.199655 14.541581 -33.426432 11.42567 -4.437838 62.413991 1.601751 -0.284139 26.53204 -9.697865 0.00001 2.255753 -0.000008 -8.929396 -12.987011 8.409139 -8.018222 20.724403 -1.753709 0.576473 -19.909052 -0.600364 -0.408603 9.679232 0.39672
-0.141331 -0.160515 0.02707 -6.643647 -3.424471 -4.880175 -1.469617 -2.189774 5.266172 -4.327526 0.403409 13.341266 -1.353305 0.43975 -0.748517 1.275969 4.973769 -2.341642 4.986118 3.247023 -9.564836 0 0 0 0 0 0 1.96325 0.611305 -9.252816 -24.138913 14.015902 -77.043723 -14.954567 -3.292935 1.702682 -15.138395 0.522693 -3.512857 0.050398 -0.112372 -7.390756 2.685625 0.615552 -25.815582 1.726594 0.246685 -16.262007 4.025365 0.888167 -20.644447 -0.973583 0.840604 -30.562561 4.935749 2.467071 -53.095435 1.220418 0.121036 -11.511016 2.957645 0.755577 -28.655965 2.347142 0.464184 -22.37245 1.243028 0.065507 -15.880519 4.053898 1.519159 -41.074051 3.366919 1.000162 -33.081724 12.807951 2.333457 9.419525 20.415874 0.538605 9.69099 19.121726 3.983046 4.028004 4.625344 0.507105 12.688451 -6.484579 10.947429 47.7488 9.110235 5.810066 1.385847 -4.976963 -11.04013 2.872012 -0.168472 -0.109156 8.350031 -2.160859 0.386531 20.280957 -1.128944 0.103093 10.435347 -2.243145 0.36816 24.460303 -3.274174 0.928942 31.671551 -5.224896 2.828946 56.841654 -1.032635 0.085197 9.629588 -3.302605 0.946583 31.978723 -2.065078 0.360421 19.377809 -2.508611 0.554 18.813988 -3.848751 1.329492 38.101753 -3.838231 1.330336 38.036558 -8.288905 -3.703672 -6.074452 -23.144311 8.672824 -11.912 -12.785699 5.85213 -4.199655 14.435091 -35.010407 11.2815 -4.561267 57.347438 1.641745 -0.171796 19.263133 -9.489696 0.00001 2.255751 -0.000009 -8.920147 -12.992566 8.061383 -8.096923 24.203964 -1.792719 0.292983 -19.770057 -0.92071 -0.317773 7.458144 0.349769
-0.141337 -0.193558 0.027008 -6.51596 -3.429735 -4.757948 -1.469617 -2.189774 5.266172 -4.243882 0.348396 13.302432 -1.111798 0.257001 -0.552442 1.112401 5.081444 -2.453414 4.841684 3.095481 -9.740185 0 0 0 0 0 0 2.118293 0.611382 -9.252768 -21.598837 12.061383 -76.950506 -14.453467 -2.575449 1.322458 -14.55881 0.548102 -3.499779 0.050398 -0.112372 -7.390756 2.685625 0.615552 -25.815582 1.726594 0.246685 -16.262007 4.025365 0.888167 -20.644447 -0.973583 0.840604 -30.562561 4.935749 2.467071 -53.095435 1.220418 0.121036 -11.511016 2.957645 0.755577 -28.655965 2.347142 0.464184 -22.37245 1.243028 0.065507 -15.880519 4.053898 1.519159 -41.074051 3.366919 1.000162 -33.081724 12.807951 2.333457 9.419525 20.415874 0.538605 9.69099 19.121726 3.983046 4.028004 4.898131 0.506957 12.688532 -4.061159 12.348112 48.629269 9.515681 4.462246 1.047539 -4.397669 -11.065584 2.885016 -0.168472 -0.109156 8.350031 -2.160859 0.386531 20.280957 -1.128944 0.103093 10.435347 -2.243145 0.36816 24.460303 -3.274174 0.928942 31.671551 -5.224896 2.828946 56.841654 -1.032635 0.085197 9.629588 -3.302605 0.946583 31.978723 -2.065078 0.360421 19.377809 -2.508611 0.554 18.813988 -3.848751 1.329492 38.101753 -3.838231 1.330336 38.036558 -8.288905 -3.703672 -6.074452 -23.144311 8.672824 -11.912 -12.785699 5.85213 -4.199655 14.404692 -34.474785 11.178645 -4.665452 50.264946 1.826564 0.007152 11.675479 -9.32959 0.000011 2.255755 -0.000009 -8.909206 -12.872871 7.804204 -8.169585 27.429194 -1.843362 0.105726 -19.445093 -1.343548 -0.225281 5.18824 0.281091
-0.139653 -0.237229 0.026938 -6.407741 -3.435515 -4.65684 -1.469617 -2.189774 5.266172 -4.156772 0.304902 13.272823 -0.85193 0.111093 -0.378256 0.940619 5.164309 -2.547858 4.677728 2.916272 -9.888118 0 0 0 0 0 0 2.246624 0.611454 -9.252733 -19.661789 10.565877 -76.922029 -14.031681 -2.037605 0.988428 -13.807207 0.581126 -3.482949 0.050398 -0.112372 -7.390756 2.685625 0.615552 -25.815582 1.726594 0.246685 -16.262007 4.025365 0.888167 -20.644447 -0.973583 0.840604 -30.562561 4.935749 2.467071 -53.095435 1.220418 0.121036 -11.511016 2.957645 0.755577 -28.655965 2.347142 0.464184 -22.37245 1.243028 0.065507 -15.880519 4.053898 1.519159 -41.074051 3.366919 1.000162 -33.081724 12.807951 2.333457 9.419525 20.415874 0.538605 9.69099 19.121726 3.983046 4.028004 5.123923 0.506838 12.688592 -2.021887 13.359356 49.610859 9.932173 3.079974 0.701364 -3.64631 -11.098516 2.902018 -0.168472 -0.109156 8.350031 -2.160859 0.386531 20.280957 -1.128944 0.103093 10.435347 -2.243145 0.36816 24.460303 -3.274174 0.928942 31.671551 -5.224896 2.828946 56.841654 -1.032635 0.085197 9.629588 -3.302605 0.946583 31.978723 -2.065078 0.360421 19.377809 -2.508611 0.554 18.813988 -3.848751 1.329492 38.101753 -3.838231 1.330336 38.036558 -8.288905 -3.703672 -6.074452 -23.144311 8.672824 -11.912 -12.785699 5.85213 -4.199655 14.457581 -31.74728 11.10916 -4.68785 41.299737 2.089721 0.11604 6.561527 -9.277875 0.000006 2.255751 -0.00001 -8.877674 -12.098081 7.659195 -8.214695 29.431199 -1.883238 0.056045 -18.88137 -1.816597 -0.139367 3.098953 0.194556
-0.136663 -0.283952 0.026875 -6.322575 -3.440825 -4.578617 -1.469617 -2.189775 5.266172 -4.067313 0.278973 13.253645 -0.578978 0.021906 -0.226411 0.763086 5.210787 -2.624041 4.500314 2.732353 -10.012493 0 0 0 0 0 0 2.345957 0.611506 -9.252702 -18.191393 9.430498 -76.923231 -13.684183 -1.630504 0.706411 -12.983158 0.617306 -3.464434 0.050398 -0.112372 -7.390756 2.685625 0.615552 -25.815582 1.726594 0.246685 -16.262007 4.025365 0.888167 -20.644447 -0.973583 0.840604 -30.562561 4.935749 2.467071 -53.095435 1.220418 0.121036 -11.511016 2.957645 0.755577 -28.655965 2.347142 0.464184 -22.37245 1.243028 0.065507 -15.880519 4.053898 1.519159 -41.074051 3.366919 1.000162 -33.081724 12.807951 2.333457 9.419525 20.415874 0.538605 9.69099 19.121726 3.983046 4.028004 5.298696 0.506742 12.688639 -0.341009 14.030686 50.648714 10.349267 1.690803 0.36112 -2.822407 -11.134663 2.920597 -0.168472 -0.109156 8.350031 -2.160859 0.386531 20.280957 -1.128944 0.103093 10.435347 -2.243145 0.36816 24.460303 -3.274174 0.928942 31.671551 -5.224896 2.828946 56.841654 -1.032635 0.085197 9.629588 -3.302605 0.946583 31.978723 -2.065078 0.360421 19.377809 -2.508611 0.554 18.813988 -3.848751 1.329492 38.101753 -3.838231 1.330336 38.036558 -8.288905 -3.703672 -6.074452 -23.144311 8.672824 -11.912 -12.785699 5.85213 -4.199655 14.568474 -27.763949 11.088134 -4.614071 31.184912 2.335473 0.137732 4.342665 -9.293702 0.000006 2.25575 -0.000009 -8.817496 -10.479997 7.611251 -8.226847 29.889149 -1.894067 0.112723 -18.222209 -2.26524 -0.068496 1.367346 0.105054
-0.132493 -0.328433 0.026828 -6.266067 -3.444707 -4.527457 -1.469617 -2.189776 5.266172 -3.976007 0.27098 13.247223 -0.294824 -0.009086 -0.099261 0.580634 5.220575 -2.678878 4.309801 2.574815 -10.100087 0 0 0 0 0 0 2.41095 0.611541 -9.25268 -17.138826 8.618738 -76.936198 -13.409413 -1.338385 0.478762 -12.182688 0.652417 -3.446373 0.050398 -0.112372 -7.390756 2.685625 0.615552 -25.815582 1.726594 0.246685 -16.262007 4.025365 0.888167 -20.644447 -0.973583 0.840604 -30.562561 4.935749 2.467071 -53.095435 1.220418 0.121036 -11.511016 2.957645 0.755577 -28.655965 2.347142 0.464184 -22.37245 1.243028 0.065507 -15.880519 4.053898 1.519159 -41.074051 3.366919 1.000162 -33.081724 12.807951 2.333457 9.419525 20.415874 0.538605 9.69099 19.121726 3.983046 4.028004 5.413045 0.506678 12.688667 1.002455 14.41443 51.697859 10.759575 0.322988 0.041958 -2.021952 -11.169818 2.938571 -0.168472 -0.109156 8.350031 -2.160859 0.386531 20.280957 -1.128944 0.103093 10.435347 -2.243145 0.36816 24.460303 -3.274174 0.928942 31.671551 -5.224896 2.828946 56.841654 -1.032635 0.085197 9.629588 -3.302605 0.946583 31.978723 -2.065078 0.360421 19.377809 -2.508611 0.554 18.813988 -3.848751 1.329492 38.101753 -3.838231 1.330336 38.036558 -8.288905 -3.703672 -6.074452 -23.144311 8.672824 -11.912 -12.785699 5.85213 -4.199655 14.713632 -23.237323 11.141731 -4.474933 20.842929 2.499907 0.093826 4.829132 -9.370414 0.000007 2.255754 -0.000009 -8.720965 -7.671112 7.662733 -8.197819 28.147989 -1.862135 0.237339 -17.457135 -2.636066 -0.019756 0.170245 0.032376
-0.127265 -0.365365 0.02681 -6.243817 -3.446315 -4.507538 -1.469617 -2.189776 5.266172 -3.883335 0.275339 13.255666 0 0 0 0.393866 5.205426 -2.709111 4.108479 2.488029 -10.147712 0 0 0 0 0 0 2.436254 0.61155 -9.252674 -16.455646 8.092649 -76.950106 -13.202414 -1.148114 0.304139 -11.473749 0.68349 -3.43033 0.050398 -0.112372 -7.390756 2.685625 0.615552 -25.815582 1.726594 0.246685 -16.262007 4.025365 0.888167 -20.644447 -0.973583 0.840604 -30.562561 4.935749 2.467071 -53.095435 1.220418 0.121036 -11.511016 2.957645 0.755577 -28.655965 2.347142 0.464184 -22.37245 1.243028 0.065507 -15.880519 4.053898 1.519159 -41.074051 3.366919 1.000162 -33.081724 12.807951 2.333457 9.419525 20.415874 0.538605 9.69099 19.121726 3.983046 4.028004 5.45758 0.506649 12.688681 2.010757 14.568784 52.684338 11.153628 -0.975054 -0.239727 -1.312914 -11.200975 2.954449 -0.168472 -0.109156 8.350031 -2.160859 0.386531 20.280957 -1.128944 0.103093 10.435347 -2.243145 0.36816 24.460303 -3.274174 0.928942 31.671551 -5.224896 2.828946 56.841654 -1.032635 0.085197 9.629588 -3.302605 0.946583 31.978723 -2.065078 0.360421 19.377809 -2.508611 0.554 18.813988 -3.848751 1.329492 38.101753 -3.838231 1.330336 38.036558 -8.288905 -3.703672 -6.074452 -23.144311 8.672824 -11.912 -12.785699 5.85213 -4.199655 14.811117 -21.200375 11.312541 -4.391717 16.1294 2.54643 0.020598 5.495965 -9.527944 0.000006 2.255753 -0.000009 -8.572211 -2.764132 7.82751 -8.099267 22.406871 -1.780553 0.378201 -16.056274 -2.887817 -0.000003 -0.315938 0
